OrganisationUnitID,ParentID,Code,ShortName,Name,Comment,Coordinate,Latitude,Longitude,FeatureType,URL,ContactPersion,Address,Email,PhoneNumber,Description,OpeningDate,ClosedDate,LastUpdated,Created,UID,UUID,UserID,Disabled,Type
15,1,,Tỉnh Yên Bái,Tỉnh Yên Bái,,,,,,,,,,,,,,,,,,,,
136,15,,Huyện Văn Yên,Huyện Văn Yên,,,,,,,,,,,,,,,,,,,,
4375,136,,Thị trấn Mậu A,Thị trấn Mậu A,,,,,,,,,,,,,,,,,,,,
4378,136,,Xã Lang Thíp,Xã Lang Thíp,,,,,,,,,,,,,,,,,,,,
4381,136,,Xã Lâm Giang,Xã Lâm Giang,,,,,,,,,,,,,,,,,,,,
4384,136,,Xã Châu Quế Thượng,Xã Châu Quế Thượng,,,,,,,,,,,,,,,,,,,,
4387,136,,Xã Châu Quế Hạ,Xã Châu Quế Hạ,,,,,,,,,,,,,,,,,,,,
4390,136,,Xã An Bình,Xã An Bình,,,,,,,,,,,,,,,,,,,,
4393,136,,Xã Quang Minh,Xã Quang Minh,,,,,,,,,,,,,,,,,,,,
4396,136,,Xã Đông An,Xã Đông An,,,,,,,,,,,,,,,,,,,,
4399,136,,Xã Đông Cuông,Xã Đông Cuông,,,,,,,,,,,,,,,,,,,,
4402,136,,Xã Phong Dụ Hạ,Xã Phong Dụ Hạ,,,,,,,,,,,,,,,,,,,,
4405,136,,Xã Mậu Đông,Xã Mậu Đông,,,,,,,,,,,,,,,,,,,,
4408,136,,Xã Ngòi A,Xã Ngòi A,,,,,,,,,,,,,,,,,,,,
4411,136,,Xã Xuân Tầm,Xã Xuân Tầm,,,,,,,,,,,,,,,,,,,,
4414,136,,Xã Tân Hợp,Xã Tân Hợp,,,,,,,,,,,,,,,,,,,,
4417,136,,Xã An Thịnh,Xã An Thịnh,,,,,,,,,,,,,,,,,,,,
4420,136,,Xã Yên Thái,Xã Yên Thái,,,,,,,,,,,,,,,,,,,,
4423,136,,Xã Phong Dụ Thượng,Xã Phong Dụ Thượng,,,,,,,,,,,,,,,,,,,,
4426,136,,Xã Yên Hợp,Xã Yên Hợp,,,,,,,,,,,,,,,,,,,,
4429,136,,Xã Đại Sơn,Xã Đại Sơn,,,,,,,,,,,,,,,,,,,,
4432,136,,Xã Yên Hưng,Xã Yên Hưng,,,,,,,,,,,,,,,,,,,,
4435,136,,Xã Đại Phác,Xã Đại Phác,,,,,,,,,,,,,,,,,,,,
4438,136,,Xã Yên Phú,Xã Yên Phú,,,,,,,,,,,,,,,,,,,,
4441,136,,Xã Xuân Ái,Xã Xuân Ái,,,,,,,,,,,,,,,,,,,,
4444,136,,Xã Hoàng Thắng,Xã Hoàng Thắng,,,,,,,,,,,,,,,,,,,,
4447,136,,Xã Viễn Sơn,Xã Viễn Sơn,,,,,,,,,,,,,,,,,,,,
4450,136,,Xã Mỏ Vàng,Xã Mỏ Vàng,,,,,,,,,,,,,,,,,,,,
4453,136,,Xã Nà Hẩu,Xã Nà Hẩu,,,,,,,,,,,,,,,,,,,,
132,15,,Thành phố Yên Bái,Thành phố Yên Bái,,,,,,,,,,,,,,,,,,,,
4249,132,,Phường Yên Thịnh,Phường Yên Thịnh,,,,,,,,,,,,,,,,,,,,
4252,132,,Phường Yên Ninh,Phường Yên Ninh,,,,,,,,,,,,,,,,,,,,
4255,132,,Phường Minh Tân,Phường Minh Tân,,,,,,,,,,,,,,,,,,,,
4258,132,,Phường Nguyễn Thái Học,Phường Nguyễn Thái Học,,,,,,,,,,,,,,,,,,,,
4261,132,,Phường Đồng Tâm,Phường Đồng Tâm,,,,,,,,,,,,,,,,,,,,
4264,132,,Phường Nguyễn Phúc,Phường Nguyễn Phúc,,,,,,,,,,,,,,,,,,,,
4267,132,,Phường Hồng Hà,Phường Hồng Hà,,,,,,,,,,,,,,,,,,,,
4270,132,,Xã Minh Bảo,Xã Minh Bảo,,,,,,,,,,,,,,,,,,,,
4273,132,,Xã Nam Cường,Xã Nam Cường,,,,,,,,,,,,,,,,,,,,
4276,132,,Xã Tuy Lộc,Xã Tuy Lộc,,,,,,,,,,,,,,,,,,,,
4279,132,,Xã Tân Thịnh,Xã Tân Thịnh,,,,,,,,,,,,,,,,,,,,
4540,132,,Xã Âu Lâu,Xã Âu Lâu,,,,,,,,,,,,,,,,,,,,
4543,132,,Xã Giới Phiên,Xã Giới Phiên,,,,,,,,,,,,,,,,,,,,
4546,132,,Xã Hợp Minh,Xã Hợp Minh,,,,,,,,,,,,,,,,,,,,
4549,132,,Xã Văn Tiến,Xã Văn Tiến,,,,,,,,,,,,,,,,,,,,
4552,132,,Xã Phúc Lộc,Xã Phúc Lộc,,,,,,,,,,,,,,,,,,,,
4558,132,,Xã Văn Phú,Xã Văn Phú,,,,,,,,,,,,,,,,,,,,
133,15,,Thị xã Nghĩa Lộ,Thị xã Nghĩa Lộ,,,,,,,,,,,,,,,,,,,,
4282,133,,Phường Pú Trạng,Phường Pú Trạng,,,,,,,,,,,,,,,,,,,,
4285,133,,Phường Trung Tâm,Phường Trung Tâm,,,,,,,,,,,,,,,,,,,,
4288,133,,Phường Tân An,Phường Tân An,,,,,,,,,,,,,,,,,,,,
4291,133,,Phường Cầu Thia,Phường Cầu Thia,,,,,,,,,,,,,,,,,,,,
4294,133,,Xã Nghĩa Lợi,Xã Nghĩa Lợi,,,,,,,,,,,,,,,,,,,,
4297,133,,Xã Nghĩa Phúc,Xã Nghĩa Phúc,,,,,,,,,,,,,,,,,,,,
4300,133,,Xã Nghĩa An,Xã Nghĩa An,,,,,,,,,,,,,,,,,,,,
135,15,,Huyện Lục Yên,Huyện Lục Yên,,,,,,,,,,,,,,,,,,,,
4303,135,,Thị trấn Yên Thế,Thị trấn Yên Thế,,,,,,,,,,,,,,,,,,,,
4306,135,,Xã Tân Phượng,Xã Tân Phượng,,,,,,,,,,,,,,,,,,,,
4309,135,,Xã Lâm Thượng,Xã Lâm Thượng,,,,,,,,,,,,,,,,,,,,
4312,135,,Xã Khánh Thiện,Xã Khánh Thiện,,,,,,,,,,,,,,,,,,,,
4315,135,,Xã Minh Chuẩn,Xã Minh Chuẩn,,,,,,,,,,,,,,,,,,,,
4318,135,,Xã Mai Sơn,Xã Mai Sơn,,,,,,,,,,,,,,,,,,,,
4321,135,,Xã Khai Trung,Xã Khai Trung,,,,,,,,,,,,,,,,,,,,
4324,135,,Xã Mường Lai,Xã Mường Lai,,,,,,,,,,,,,,,,,,,,
4327,135,,Xã An Lạc,Xã An Lạc,,,,,,,,,,,,,,,,,,,,
4330,135,,Xã Minh Xuân,Xã Minh Xuân,,,,,,,,,,,,,,,,,,,,
4333,135,,Xã Tô Mậu,Xã Tô Mậu,,,,,,,,,,,,,,,,,,,,
4336,135,,Xã Tân Lĩnh,Xã Tân Lĩnh,,,,,,,,,,,,,,,,,,,,
4339,135,,Xã Yên Thắng,Xã Yên Thắng,,,,,,,,,,,,,,,,,,,,
4342,135,,Xã Khánh Hoà,Xã Khánh Hoà,,,,,,,,,,,,,,,,,,,,
4345,135,,Xã Vĩnh Lạc,Xã Vĩnh Lạc,,,,,,,,,,,,,,,,,,,,
4348,135,,Xã Liễu Đô,Xã Liễu Đô,,,,,,,,,,,,,,,,,,,,
4351,135,,Xã Động Quan,Xã Động Quan,,,,,,,,,,,,,,,,,,,,
4354,135,,Xã Tân Lập,Xã Tân Lập,,,,,,,,,,,,,,,,,,,,
4357,135,,Xã Minh Tiến,Xã Minh Tiến,,,,,,,,,,,,,,,,,,,,
4360,135,,Xã Trúc Lâu,Xã Trúc Lâu,,,,,,,,,,,,,,,,,,,,
4363,135,,Xã Phúc Lợi,Xã Phúc Lợi,,,,,,,,,,,,,,,,,,,,
4366,135,,Xã Phan Thanh,Xã Phan Thanh,,,,,,,,,,,,,,,,,,,,
4369,135,,Xã An Phú,Xã An Phú,,,,,,,,,,,,,,,,,,,,
4372,135,,Xã Trung Tâm,Xã Trung Tâm,,,,,,,,,,,,,,,,,,,,
137,15,,Huyện Mù Căng Chải,Huyện Mù Căng Chải,,,,,,,,,,,,,,,,,,,,
4456,137,,Thị trấn Mù Căng Chải,Thị trấn Mù Căng Chải,,,,,,,,,,,,,,,,,,,,
4459,137,,Xã Hồ Bốn,Xã Hồ Bốn,,,,,,,,,,,,,,,,,,,,
4462,137,,Xã Nậm Có,Xã Nậm Có,,,,,,,,,,,,,,,,,,,,
4465,137,,Xã Khao Mang,Xã Khao Mang,,,,,,,,,,,,,,,,,,,,
4468,137,,Xã Mồ Dề,Xã Mồ Dề,,,,,,,,,,,,,,,,,,,,
4471,137,,Xã Chế Cu Nha,Xã Chế Cu Nha,,,,,,,,,,,,,,,,,,,,
4474,137,,Xã Lao Chải,Xã Lao Chải,,,,,,,,,,,,,,,,,,,,
4477,137,,Xã Kim Nọi,Xã Kim Nọi,,,,,,,,,,,,,,,,,,,,
4480,137,,Xã Cao Phạ,Xã Cao Phạ,,,,,,,,,,,,,,,,,,,,
4483,137,,Xã La Pán Tẩn,Xã La Pán Tẩn,,,,,,,,,,,,,,,,,,,,
4486,137,,Xã Dế Su Phình,Xã Dế Su Phình,,,,,,,,,,,,,,,,,,,,
4489,137,,Xã Chế Tạo,Xã Chế Tạo,,,,,,,,,,,,,,,,,,,,
4492,137,,Xã Púng Luông,Xã Púng Luông,,,,,,,,,,,,,,,,,,,,
4495,137,,Xã Nậm Khắt,Xã Nậm Khắt,,,,,,,,,,,,,,,,,,,,
138,15,,Huyện Trấn Yên,Huyện Trấn Yên,,,,,,,,,,,,,,,,,,,,
4498,138,,Thị trấn Cổ Phúc,Thị trấn Cổ Phúc,,,,,,,,,,,,,,,,,,,,
4501,138,,Xã Tân Đồng,Xã Tân Đồng,,,,,,,,,,,,,,,,,,,,
4504,138,,Xã Báo Đáp,Xã Báo Đáp,,,,,,,,,,,,,,,,,,,,
4507,138,,Xã Đào Thịnh,Xã Đào Thịnh,,,,,,,,,,,,,,,,,,,,
4510,138,,Xã Việt Thành,Xã Việt Thành,,,,,,,,,,,,,,,,,,,,
4513,138,,Xã Hòa Cuông,Xã Hòa Cuông,,,,,,,,,,,,,,,,,,,,
4516,138,,Xã Minh Quán,Xã Minh Quán,,,,,,,,,,,,,,,,,,,,
4519,138,,Xã Quy Mông,Xã Quy Mông,,,,,,,,,,,,,,,,,,,,
4522,138,,Xã Cường Thịnh,Xã Cường Thịnh,,,,,,,,,,,,,,,,,,,,
4525,138,,Xã Kiên Thành,Xã Kiên Thành,,,,,,,,,,,,,,,,,,,,
4528,138,,Xã Nga Quán,Xã Nga Quán,,,,,,,,,,,,,,,,,,,,
4531,138,,Xã Y Can,Xã Y Can,,,,,,,,,,,,,,,,,,,,
4534,138,,Xã Minh Tiến,Xã Minh Tiến,,,,,,,,,,,,,,,,,,,,
4537,138,,Xã Lương Thịnh,Xã Lương Thịnh,,,,,,,,,,,,,,,,,,,,
4561,138,,Xã Bảo Hưng,Xã Bảo Hưng,,,,,,,,,,,,,,,,,,,,
4564,138,,Xã Việt Cường,Xã Việt Cường,,,,,,,,,,,,,,,,,,,,
4567,138,,Xã Minh Quân,Xã Minh Quân,,,,,,,,,,,,,,,,,,,,
4570,138,,Xã Hồng Ca,Xã Hồng Ca,,,,,,,,,,,,,,,,,,,,
4573,138,,Xã Hưng Thịnh,Xã Hưng Thịnh,,,,,,,,,,,,,,,,,,,,
4576,138,,Xã Hưng Khánh,Xã Hưng Khánh,,,,,,,,,,,,,,,,,,,,
4579,138,,Xã Việt Hồng,Xã Việt Hồng,,,,,,,,,,,,,,,,,,,,
4582,138,,Xã Vân Hội,Xã Vân Hội,,,,,,,,,,,,,,,,,,,,
139,15,,Huyện Trạm Tấu,Huyện Trạm Tấu,,,,,,,,,,,,,,,,,,,,
4585,139,,Thị trấn Trạm Tấu,Thị trấn Trạm Tấu,,,,,,,,,,,,,,,,,,,,
4588,139,,Xã Túc Đán,Xã Túc Đán,,,,,,,,,,,,,,,,,,,,
4591,139,,Xã Pá Lau,Xã Pá Lau,,,,,,,,,,,,,,,,,,,,
4594,139,,Xã Xà Hồ,Xã Xà Hồ,,,,,,,,,,,,,,,,,,,,
4597,139,,Xã Phình Hồ,Xã Phình Hồ,,,,,,,,,,,,,,,,,,,,
4600,139,,Xã Trạm Tấu,Xã Trạm Tấu,,,,,,,,,,,,,,,,,,,,
4603,139,,Xã Tà Si Láng,Xã Tà Si Láng,,,,,,,,,,,,,,,,,,,,
4606,139,,Xã Pá Hu,Xã Pá Hu,,,,,,,,,,,,,,,,,,,,
4609,139,,Xã Làng Nhì,Xã Làng Nhì,,,,,,,,,,,,,,,,,,,,
4612,139,,Xã Bản Công,Xã Bản Công,,,,,,,,,,,,,,,,,,,,
4615,139,,Xã Bản Mù,Xã Bản Mù,,,,,,,,,,,,,,,,,,,,
4618,139,,Xã Hát Lìu,Xã Hát Lìu,,,,,,,,,,,,,,,,,,,,
140,15,,Huyện Văn Chấn,Huyện Văn Chấn,,,,,,,,,,,,,,,,,,,,
4621,140,,Thị trấn NT Liên Sơn,Thị trấn NT Liên Sơn,,,,,,,,,,,,,,,,,,,,
4624,140,,Thị trấn NT Nghĩa Lộ,Thị trấn NT Nghĩa Lộ,,,,,,,,,,,,,,,,,,,,
4627,140,,Thị trấn NT Trần Phú,Thị trấn NT Trần Phú,,,,,,,,,,,,,,,,,,,,
4630,140,,Xã Tú Lệ,Xã Tú Lệ,,,,,,,,,,,,,,,,,,,,
4633,140,,Xã Nậm Búng,Xã Nậm Búng,,,,,,,,,,,,,,,,,,,,
4636,140,,Xã Gia Hội,Xã Gia Hội,,,,,,,,,,,,,,,,,,,,
4639,140,,Xã Sùng Đô,Xã Sùng Đô,,,,,,,,,,,,,,,,,,,,
4642,140,,Xã Nậm Mười,Xã Nậm Mười,,,,,,,,,,,,,,,,,,,,
4645,140,,Xã An Lương,Xã An Lương,,,,,,,,,,,,,,,,,,,,
4648,140,,Xã Nậm Lành,Xã Nậm Lành,,,,,,,,,,,,,,,,,,,,
4651,140,,Xã Sơn Lương,Xã Sơn Lương,,,,,,,,,,,,,,,,,,,,
4654,140,,Xã Suối Quyền,Xã Suối Quyền,,,,,,,,,,,,,,,,,,,,
4657,140,,Xã Suối Giàng,Xã Suối Giàng,,,,,,,,,,,,,,,,,,,,
4660,140,,Xã Sơn A,Xã Sơn A,,,,,,,,,,,,,,,,,,,,
4663,140,,Xã Phù Nham,Xã Phù Nham,,,,,,,,,,,,,,,,,,,,
4666,140,,Xã Nghĩa Sơn,Xã Nghĩa Sơn,,,,,,,,,,,,,,,,,,,,
4669,140,,Xã Suối Bu,Xã Suối Bu,,,,,,,,,,,,,,,,,,,,
4672,140,,Xã Sơn Thịnh,Xã Sơn Thịnh,,,,,,,,,,,,,,,,,,,,
4675,140,,Xã Thanh Lương,Xã Thanh Lương,,,,,,,,,,,,,,,,,,,,
4678,140,,Xã Hạnh Sơn,Xã Hạnh Sơn,,,,,,,,,,,,,,,,,,,,
4681,140,,Xã Phúc Sơn,Xã Phúc Sơn,,,,,,,,,,,,,,,,,,,,
4684,140,,Xã Thạch Lương,Xã Thạch Lương,,,,,,,,,,,,,,,,,,,,
4687,140,,Xã Đại Lịch,Xã Đại Lịch,,,,,,,,,,,,,,,,,,,,
4690,140,,Xã Đồng Khê,Xã Đồng Khê,,,,,,,,,,,,,,,,,,,,
4693,140,,Xã Cát Thịnh,Xã Cát Thịnh,,,,,,,,,,,,,,,,,,,,
4696,140,,Xã Tân Thịnh,Xã Tân Thịnh,,,,,,,,,,,,,,,,,,,,
4699,140,,Xã Chấn Thịnh,Xã Chấn Thịnh,,,,,,,,,,,,,,,,,,,,
4702,140,,Xã Bình Thuận,Xã Bình Thuận,,,,,,,,,,,,,,,,,,,,
4705,140,,Xã Thượng Bằng La,Xã Thượng Bằng La,,,,,,,,,,,,,,,,,,,,
4708,140,,Xã Minh An,Xã Minh An,,,,,,,,,,,,,,,,,,,,
4711,140,,Xã Nghĩa Tâm,Xã Nghĩa Tâm,,,,,,,,,,,,,,,,,,,,
141,15,,Huyện Yên Bình,Huyện Yên Bình,,,,,,,,,,,,,,,,,,,,
4555,141,,Xã Văn Lãng,Xã Văn Lãng,,,,,,,,,,,,,,,,,,,,
4714,141,,Thị trấn Yên Bình,Thị trấn Yên Bình,,,,,,,,,,,,,,,,,,,,
4717,141,,Thị trấn Thác Bà,Thị trấn Thác Bà,,,,,,,,,,,,,,,,,,,,
4720,141,,Xã Xuân Long,Xã Xuân Long,,,,,,,,,,,,,,,,,,,,
4723,141,,Xã Tích Cốc,Xã Tích Cốc,,,,,,,,,,,,,,,,,,,,
4726,141,,Xã Cảm Nhân,Xã Cảm Nhân,,,,,,,,,,,,,,,,,,,,
4729,141,,Xã Ngọc Chấn,Xã Ngọc Chấn,,,,,,,,,,,,,,,,,,,,
4732,141,,Xã Tân Nguyên,Xã Tân Nguyên,,,,,,,,,,,,,,,,,,,,
4735,141,,Xã Phúc Ninh,Xã Phúc Ninh,,,,,,,,,,,,,,,,,,,,
4738,141,,Xã Bảo Ái,Xã Bảo Ái,,,,,,,,,,,,,,,,,,,,
4741,141,,Xã Mỹ Gia,Xã Mỹ Gia,,,,,,,,,,,,,,,,,,,,
4744,141,,Xã Xuân Lai,Xã Xuân Lai,,,,,,,,,,,,,,,,,,,,
4747,141,,Xã Mông Sơn,Xã Mông Sơn,,,,,,,,,,,,,,,,,,,,
4750,141,,Xã Cảm Ân,Xã Cảm Ân,,,,,,,,,,,,,,,,,,,,
4753,141,,Xã Yên Thành,Xã Yên Thành,,,,,,,,,,,,,,,,,,,,
4756,141,,Xã Tân Hương,Xã Tân Hương,,,,,,,,,,,,,,,,,,,,
4759,141,,Xã Phúc An,Xã Phúc An,,,,,,,,,,,,,,,,,,,,
4762,141,,Xã Bạch Hà,Xã Bạch Hà,,,,,,,,,,,,,,,,,,,,
4765,141,,Xã Vũ Linh,Xã Vũ Linh,,,,,,,,,,,,,,,,,,,,
4768,141,,Xã Đại Đồng,Xã Đại Đồng,,,,,,,,,,,,,,,,,,,,
4771,141,,Xã Vĩnh Kiên,Xã Vĩnh Kiên,,,,,,,,,,,,,,,,,,,,
4774,141,,Xã Yên Bình,Xã Yên Bình,,,,,,,,,,,,,,,,,,,,
4777,141,,Xã Thịnh Hưng,Xã Thịnh Hưng,,,,,,,,,,,,,,,,,,,,
4780,141,,Xã Hán Đà,Xã Hán Đà,,,,,,,,,,,,,,,,,,,,
4783,141,,Xã Phú Thịnh,Xã Phú Thịnh,,,,,,,,,,,,,,,,,,,,
4786,141,,Xã Đại Minh,Xã Đại Minh,,,,,,,,,,,,,,,,,,,,
2,1,,Tỉnh Hà Giang,Tỉnh Hà Giang,,,,,,,,,,,,,,,,,,,,
24,2,,Thị xã Hà Giang,Thị xã Hà Giang,,,,,,,,,,,,,,,,,,,,
688,24,,Phường Quang Trung,Phường Quang Trung,,,,,,,,,,,,,,,,,,,,
691,24,,Phường Trần Phú,Phường Trần Phú,,,,,,,,,,,,,,,,,,,,
692,24,,Phường Ngọc Hà,Phường Ngọc Hà,,,,,,,,,,,,,,,,,,,,
694,24,,Phường Nguyễn Trãi,Phường Nguyễn Trãi,,,,,,,,,,,,,,,,,,,,
697,24,,Phường Minh Khai,Phường Minh Khai,,,,,,,,,,,,,,,,,,,,
700,24,,Xã Ngọc Đường,Xã Ngọc Đường,,,,,,,,,,,,,,,,,,,,
946,24,,Xã Phương Độ,Xã Phương Độ,,,,,,,,,,,,,,,,,,,,
949,24,,Xã Phương Thiện,Xã Phương Thiện,,,,,,,,,,,,,,,,,,,,
26,2,,Huyện Đồng Văn,Huyện Đồng Văn,,,,,,,,,,,,,,,,,,,,
712,26,,Thị trấn Phó Bảng,Thị trấn Phó Bảng,,,,,,,,,,,,,,,,,,,,
715,26,,Xã Lũng Cú,Xã Lũng Cú,,,,,,,,,,,,,,,,,,,,
718,26,,Xã Má Lé,Xã Má Lé,,,,,,,,,,,,,,,,,,,,
721,26,,Thị trấn Đồng Văn,Thị trấn Đồng Văn,,,,,,,,,,,,,,,,,,,,
724,26,,Xã Lũng Táo,Xã Lũng Táo,,,,,,,,,,,,,,,,,,,,
727,26,,Xã Phố Là,Xã Phố Là,,,,,,,,,,,,,,,,,,,,
730,26,,Xã Thài Phìn Tủng,Xã Thài Phìn Tủng,,,,,,,,,,,,,,,,,,,,
733,26,,Xã Sủng Là,Xã Sủng Là,,,,,,,,,,,,,,,,,,,,
736,26,,Xã Xà Phìn,Xã Xà Phìn,,,,,,,,,,,,,,,,,,,,
739,26,,Xã Tả Phìn,Xã Tả Phìn,,,,,,,,,,,,,,,,,,,,
742,26,,Xã Tả Lủng,Xã Tả Lủng,,,,,,,,,,,,,,,,,,,,
745,26,,Xã Phố Cáo,Xã Phố Cáo,,,,,,,,,,,,,,,,,,,,
748,26,,Xã Sính Lủng,Xã Sính Lủng,,,,,,,,,,,,,,,,,,,,
751,26,,Xã Sảng Tủng,Xã Sảng Tủng,,,,,,,,,,,,,,,,,,,,
754,26,,Xã Lũng Thầu,Xã Lũng Thầu,,,,,,,,,,,,,,,,,,,,
757,26,,Xã Hố Quáng Phìn,Xã Hố Quáng Phìn,,,,,,,,,,,,,,,,,,,,
760,26,,Xã Vần Chải,Xã Vần Chải,,,,,,,,,,,,,,,,,,,,
763,26,,Xã Lũng Phìn,Xã Lũng Phìn,,,,,,,,,,,,,,,,,,,,
766,26,,Xã Sủng Trái,Xã Sủng Trái,,,,,,,,,,,,,,,,,,,,
27,2,,Huyện Mèo Vạc,Huyện Mèo Vạc,,,,,,,,,,,,,,,,,,,,
769,27,,Thị trấn Mèo Vạc,Thị trấn Mèo Vạc,,,,,,,,,,,,,,,,,,,,
772,27,,Xã Thượng Phùng,Xã Thượng Phùng,,,,,,,,,,,,,,,,,,,,
775,27,,Xã Pải Lủng,Xã Pải Lủng,,,,,,,,,,,,,,,,,,,,
778,27,,Xã Xín Cái,Xã Xín Cái,,,,,,,,,,,,,,,,,,,,
781,27,,Xã Pả Vi,Xã Pả Vi,,,,,,,,,,,,,,,,,,,,
784,27,,Xã Giàng Chu Phìn,Xã Giàng Chu Phìn,,,,,,,,,,,,,,,,,,,,
787,27,,Xã Sủng Trà,Xã Sủng Trà,,,,,,,,,,,,,,,,,,,,
790,27,,Xã Sủng Máng,Xã Sủng Máng,,,,,,,,,,,,,,,,,,,,
793,27,,Xã Sơn Vĩ,Xã Sơn Vĩ,,,,,,,,,,,,,,,,,,,,
796,27,,Xã Tả Lủng,Xã Tả Lủng,,,,,,,,,,,,,,,,,,,,
799,27,,Xã Cán Chu Phìn,Xã Cán Chu Phìn,,,,,,,,,,,,,,,,,,,,
802,27,,Xã Lũng Pù,Xã Lũng Pù,,,,,,,,,,,,,,,,,,,,
805,27,,Xã Lũng Chinh,Xã Lũng Chinh,,,,,,,,,,,,,,,,,,,,
808,27,,Xã Tát Ngà,Xã Tát Ngà,,,,,,,,,,,,,,,,,,,,
811,27,,Xã Nậm Ban,Xã Nậm Ban,,,,,,,,,,,,,,,,,,,,
814,27,,Xã Khâu Vai,Xã Khâu Vai,,,,,,,,,,,,,,,,,,,,
815,27,,Xã Niêm Tòng,Xã Niêm Tòng,,,,,,,,,,,,,,,,,,,,
817,27,,Xã Niêm Sơn,Xã Niêm Sơn,,,,,,,,,,,,,,,,,,,,
28,2,,Huyện Yên Minh,Huyện Yên Minh,,,,,,,,,,,,,,,,,,,,
820,28,,Thị trấn Yên Minh,Thị trấn Yên Minh,,,,,,,,,,,,,,,,,,,,
823,28,,Xã Thắng Mố,Xã Thắng Mố,,,,,,,,,,,,,,,,,,,,
826,28,,Xã Phú Lũng,Xã Phú Lũng,,,,,,,,,,,,,,,,,,,,
829,28,,Xã Sủng Tráng,Xã Sủng Tráng,,,,,,,,,,,,,,,,,,,,
832,28,,Xã Bạch Đích,Xã Bạch Đích,,,,,,,,,,,,,,,,,,,,
835,28,,Xã Na Khê,Xã Na Khê,,,,,,,,,,,,,,,,,,,,
838,28,,Xã Sủng Thài,Xã Sủng Thài,,,,,,,,,,,,,,,,,,,,
841,28,,Xã Hữu Vinh,Xã Hữu Vinh,,,,,,,,,,,,,,,,,,,,
844,28,,Xã Lao Và Chải,Xã Lao Và Chải,,,,,,,,,,,,,,,,,,,,
847,28,,Xã Mậu Duệ,Xã Mậu Duệ,,,,,,,,,,,,,,,,,,,,
850,28,,Xã Đông Minh,Xã Đông Minh,,,,,,,,,,,,,,,,,,,,
853,28,,Xã Mậu Long,Xã Mậu Long,,,,,,,,,,,,,,,,,,,,
856,28,,Xã Ngam La,Xã Ngam La,,,,,,,,,,,,,,,,,,,,
859,28,,Xã Ngọc Long,Xã Ngọc Long,,,,,,,,,,,,,,,,,,,,
862,28,,Xã Đường Thượng,Xã Đường Thượng,,,,,,,,,,,,,,,,,,,,
865,28,,Xã Lũng Hồ,Xã Lũng Hồ,,,,,,,,,,,,,,,,,,,,
868,28,,Xã Du Tiến,Xã Du Tiến,,,,,,,,,,,,,,,,,,,,
871,28,,Xã Du Già,Xã Du Già,,,,,,,,,,,,,,,,,,,,
29,2,,Huyện Quản Bạ,Huyện Quản Bạ,,,,,,,,,,,,,,,,,,,,
874,29,,Thị trấn Tam Sơn,Thị trấn Tam Sơn,,,,,,,,,,,,,,,,,,,,
877,29,,Xã Bát Đại Sơn,Xã Bát Đại Sơn,,,,,,,,,,,,,,,,,,,,
880,29,,Xã Nghĩa Thuận,Xã Nghĩa Thuận,,,,,,,,,,,,,,,,,,,,
883,29,,Xã Cán Tỷ,Xã Cán Tỷ,,,,,,,,,,,,,,,,,,,,
886,29,,Xã Cao Mã Pờ,Xã Cao Mã Pờ,,,,,,,,,,,,,,,,,,,,
889,29,,Xã Thanh Vân,Xã Thanh Vân,,,,,,,,,,,,,,,,,,,,
892,29,,Xã Tùng Vài,Xã Tùng Vài,,,,,,,,,,,,,,,,,,,,
895,29,,Xã Đông Hà,Xã Đông Hà,,,,,,,,,,,,,,,,,,,,
898,29,,Xã Quản Bạ,Xã Quản Bạ,,,,,,,,,,,,,,,,,,,,
901,29,,Xã Lùng Tám,Xã Lùng Tám,,,,,,,,,,,,,,,,,,,,
904,29,,Xã Quyết Tiến,Xã Quyết Tiến,,,,,,,,,,,,,,,,,,,,
907,29,,Xã Tả Ván,Xã Tả Ván,,,,,,,,,,,,,,,,,,,,
910,29,,Xã Thái An,Xã Thái An,,,,,,,,,,,,,,,,,,,,
30,2,,Huyện Vị Xuyên,Huyện Vị Xuyên,,,,,,,,,,,,,,,,,,,,
703,30,,Xã Kim Thạch,Xã Kim Thạch,,,,,,,,,,,,,,,,,,,,
706,30,,Xã Phú Linh,Xã Phú Linh,,,,,,,,,,,,,,,,,,,,
709,30,,Xã Kim Linh,Xã Kim Linh,,,,,,,,,,,,,,,,,,,,
913,30,,Thị trấn Vị Xuyên,Thị trấn Vị Xuyên,,,,,,,,,,,,,,,,,,,,
916,30,,Thị trấn Nông Trường Việt Lâm,Thị trấn Nông Trường Việt Lâm,,,,,,,,,,,,,,,,,,,,
919,30,,Xã Minh Tân,Xã Minh Tân,,,,,,,,,,,,,,,,,,,,
922,30,,Xã Thuận Hoà,Xã Thuận Hoà,,,,,,,,,,,,,,,,,,,,
925,30,,Xã Tùng Bá,Xã Tùng Bá,,,,,,,,,,,,,,,,,,,,
928,30,,Xã Thanh Thủy,Xã Thanh Thủy,,,,,,,,,,,,,,,,,,,,
931,30,,Xã Thanh Đức,Xã Thanh Đức,,,,,,,,,,,,,,,,,,,,
934,30,,Xã Phong Quang,Xã Phong Quang,,,,,,,,,,,,,,,,,,,,
937,30,,Xã Xín Chải,Xã Xín Chải,,,,,,,,,,,,,,,,,,,,
940,30,,Xã Phương Tiến,Xã Phương Tiến,,,,,,,,,,,,,,,,,,,,
943,30,,Xã Lao Chải,Xã Lao Chải,,,,,,,,,,,,,,,,,,,,
952,30,,Xã Cao Bồ,Xã Cao Bồ,,,,,,,,,,,,,,,,,,,,
955,30,,Xã Đạo Đức,Xã Đạo Đức,,,,,,,,,,,,,,,,,,,,
958,30,,Xã Thượng Sơn,Xã Thượng Sơn,,,,,,,,,,,,,,,,,,,,
961,30,,Xã Linh Hồ,Xã Linh Hồ,,,,,,,,,,,,,,,,,,,,
964,30,,Xã Quảng Ngần,Xã Quảng Ngần,,,,,,,,,,,,,,,,,,,,
967,30,,Xã Việt Lâm,Xã Việt Lâm,,,,,,,,,,,,,,,,,,,,
970,30,,Xã Ngọc Linh,Xã Ngọc Linh,,,,,,,,,,,,,,,,,,,,
973,30,,Xã Ngọc Minh,Xã Ngọc Minh,,,,,,,,,,,,,,,,,,,,
976,30,,Xã Bạch Ngọc,Xã Bạch Ngọc,,,,,,,,,,,,,,,,,,,,
979,30,,Xã Trung Thành,Xã Trung Thành,,,,,,,,,,,,,,,,,,,,
31,2,,Huyện Bắc Mê,Huyện Bắc Mê,,,,,,,,,,,,,,,,,,,,
982,31,,Xã Minh Sơn,Xã Minh Sơn,,,,,,,,,,,,,,,,,,,,
985,31,,Xã Giáp Trung,Xã Giáp Trung,,,,,,,,,,,,,,,,,,,,
988,31,,Xã Yên Định,Xã Yên Định,,,,,,,,,,,,,,,,,,,,
991,31,,Thị trấn Yên Phú,Thị trấn Yên Phú,,,,,,,,,,,,,,,,,,,,
994,31,,Xã Minh Ngọc,Xã Minh Ngọc,,,,,,,,,,,,,,,,,,,,
997,31,,Xã Yên Phong,Xã Yên Phong,,,,,,,,,,,,,,,,,,,,
1000,31,,Xã Lạc Nông,Xã Lạc Nông,,,,,,,,,,,,,,,,,,,,
1003,31,,Xã Phú Nam,Xã Phú Nam,,,,,,,,,,,,,,,,,,,,
1006,31,,Xã Yên Cường,Xã Yên Cường,,,,,,,,,,,,,,,,,,,,
1009,31,,Xã Thượng Tân,Xã Thượng Tân,,,,,,,,,,,,,,,,,,,,
1012,31,,Xã Đường Âm,Xã Đường Âm,,,,,,,,,,,,,,,,,,,,
1015,31,,Xã Đường Hồng,Xã Đường Hồng,,,,,,,,,,,,,,,,,,,,
1018,31,,Xã Phiêng Luông,Xã Phiêng Luông,,,,,,,,,,,,,,,,,,,,
32,2,,Huyện Hoàng Su Phì,Huyện Hoàng Su Phì,,,,,,,,,,,,,,,,,,,,
1021,32,,Thị trấn Vinh Quang,Thị trấn Vinh Quang,,,,,,,,,,,,,,,,,,,,
1024,32,,Xã Bản Máy,Xã Bản Máy,,,,,,,,,,,,,,,,,,,,
1027,32,,Xã Thàng Tín,Xã Thàng Tín,,,,,,,,,,,,,,,,,,,,
1030,32,,Xã Thèn Chu Phìn,Xã Thèn Chu Phìn,,,,,,,,,,,,,,,,,,,,
1033,32,,Xã Pố Lồ,Xã Pố Lồ,,,,,,,,,,,,,,,,,,,,
1036,32,,Xã Bản Phùng,Xã Bản Phùng,,,,,,,,,,,,,,,,,,,,
1039,32,,Xã Túng Sán,Xã Túng Sán,,,,,,,,,,,,,,,,,,,,
1042,32,,Xã Chiến Phố,Xã Chiến Phố,,,,,,,,,,,,,,,,,,,,
1045,32,,Xã Đản Ván,Xã Đản Ván,,,,,,,,,,,,,,,,,,,,
1048,32,,Xã Tụ Nhân,Xã Tụ Nhân,,,,,,,,,,,,,,,,,,,,
1051,32,,Xã Tân Tiến,Xã Tân Tiến,,,,,,,,,,,,,,,,,,,,
1054,32,,Xã Nàng Đôn,Xã Nàng Đôn,,,,,,,,,,,,,,,,,,,,
1057,32,,Xã Pờ Ly Ngài,Xã Pờ Ly Ngài,,,,,,,,,,,,,,,,,,,,
1060,32,,Xã Sán Xả Hồ,Xã Sán Xả Hồ,,,,,,,,,,,,,,,,,,,,
1063,32,,Xã Bản Luốc,Xã Bản Luốc,,,,,,,,,,,,,,,,,,,,
1066,32,,Xã Ngàm Đăng Vài,Xã Ngàm Đăng Vài,,,,,,,,,,,,,,,,,,,,
1069,32,,Xã Bản Nhùng,Xã Bản Nhùng,,,,,,,,,,,,,,,,,,,,
1072,32,,Xã Tả Sử Choóng,Xã Tả Sử Choóng,,,,,,,,,,,,,,,,,,,,
1075,32,,Xã Nậm Dịch,Xã Nậm Dịch,,,,,,,,,,,,,,,,,,,,
1078,32,,Xã Bản Péo,Xã Bản Péo,,,,,,,,,,,,,,,,,,,,
1081,32,,Xã Hồ Thầu,Xã Hồ Thầu,,,,,,,,,,,,,,,,,,,,
1084,32,,Xã Nam Sơn,Xã Nam Sơn,,,,,,,,,,,,,,,,,,,,
1087,32,,Xã Nậm Tỵ,Xã Nậm Tỵ,,,,,,,,,,,,,,,,,,,,
1090,32,,Xã Thông Nguyên,Xã Thông Nguyên,,,,,,,,,,,,,,,,,,,,
1093,32,,Xã Nậm Khòa,Xã Nậm Khòa,,,,,,,,,,,,,,,,,,,,
33,2,,Huyện Xín Mần,Huyện Xín Mần,,,,,,,,,,,,,,,,,,,,
1096,33,,Thị trấn Cốc Pài,Thị trấn Cốc Pài,,,,,,,,,,,,,,,,,,,,
1099,33,,Xã Nàn Xỉn,Xã Nàn Xỉn,,,,,,,,,,,,,,,,,,,,
1102,33,,Xã Bản Díu,Xã Bản Díu,,,,,,,,,,,,,,,,,,,,
1105,33,,Xã Chí Cà,Xã Chí Cà,,,,,,,,,,,,,,,,,,,,
1108,33,,Xã Xín Mần,Xã Xín Mần,,,,,,,,,,,,,,,,,,,,
1111,33,,Xã Trung Thịnh,Xã Trung Thịnh,,,,,,,,,,,,,,,,,,,,
1114,33,,Xã Thèn Phàng,Xã Thèn Phàng,,,,,,,,,,,,,,,,,,,,
1117,33,,Xã Ngán Chiên,Xã Ngán Chiên,,,,,,,,,,,,,,,,,,,,
1120,33,,Xã Pà Vầy Sủ,Xã Pà Vầy Sủ,,,,,,,,,,,,,,,,,,,,
1123,33,,Xã Cốc Rế,Xã Cốc Rế,,,,,,,,,,,,,,,,,,,,
1126,33,,Xã Thu Tà,Xã Thu Tà,,,,,,,,,,,,,,,,,,,,
1129,33,,Xã Nàn Ma,Xã Nàn Ma,,,,,,,,,,,,,,,,,,,,
1132,33,,Xã Tả Nhìu,Xã Tả Nhìu,,,,,,,,,,,,,,,,,,,,
1135,33,,Xã Bản Ngò,Xã Bản Ngò,,,,,,,,,,,,,,,,,,,,
1138,33,,Xã Chế Là,Xã Chế Là,,,,,,,,,,,,,,,,,,,,
1141,33,,Xã Nấm Dẩn,Xã Nấm Dẩn,,,,,,,,,,,,,,,,,,,,
1144,33,,Xã Quảng Nguyên,Xã Quảng Nguyên,,,,,,,,,,,,,,,,,,,,
1147,33,,Xã Nà Chì,Xã Nà Chì,,,,,,,,,,,,,,,,,,,,
1150,33,,Xã Khuôn Lùng,Xã Khuôn Lùng,,,,,,,,,,,,,,,,,,,,
34,2,,Huyện Bắc Quang,Huyện Bắc Quang,,,,,,,,,,,,,,,,,,,,
1153,34,,Thị trấn Việt Quang,Thị trấn Việt Quang,,,,,,,,,,,,,,,,,,,,
1156,34,,Thị trấn Vĩnh Tuy,Thị trấn Vĩnh Tuy,,,,,,,,,,,,,,,,,,,,
1159,34,,Xã Tân Lập,Xã Tân Lập,,,,,,,,,,,,,,,,,,,,
1162,34,,Xã Tân Thành,Xã Tân Thành,,,,,,,,,,,,,,,,,,,,
1165,34,,Xã Đồng Tiến,Xã Đồng Tiến,,,,,,,,,,,,,,,,,,,,
1168,34,,Xã Đồng Tâm,Xã Đồng Tâm,,,,,,,,,,,,,,,,,,,,
1171,34,,Xã Tân Quang,Xã Tân Quang,,,,,,,,,,,,,,,,,,,,
1174,34,,Xã Thượng Bình,Xã Thượng Bình,,,,,,,,,,,,,,,,,,,,
1177,34,,Xã Hữu Sản,Xã Hữu Sản,,,,,,,,,,,,,,,,,,,,
1180,34,,Xã Kim Ngọc,Xã Kim Ngọc,,,,,,,,,,,,,,,,,,,,
1183,34,,Xã Việt Vinh,Xã Việt Vinh,,,,,,,,,,,,,,,,,,,,
1186,34,,Xã Bằng Hành,Xã Bằng Hành,,,,,,,,,,,,,,,,,,,,
1189,34,,Xã Quang Minh,Xã Quang Minh,,,,,,,,,,,,,,,,,,,,
1192,34,,Xã Liên Hiệp,Xã Liên Hiệp,,,,,,,,,,,,,,,,,,,,
1195,34,,Xã Vô Điếm,Xã Vô Điếm,,,,,,,,,,,,,,,,,,,,
1198,34,,Xã Việt Hồng,Xã Việt Hồng,,,,,,,,,,,,,,,,,,,,
1201,34,,Xã Hùng An,Xã Hùng An,,,,,,,,,,,,,,,,,,,,
1204,34,,Xã Đức Xuân,Xã Đức Xuân,,,,,,,,,,,,,,,,,,,,
1207,34,,Xã Tiên Kiều,Xã Tiên Kiều,,,,,,,,,,,,,,,,,,,,
1210,34,,Xã Vĩnh Hảo,Xã Vĩnh Hảo,,,,,,,,,,,,,,,,,,,,
1213,34,,Xã Vĩnh Phúc,Xã Vĩnh Phúc,,,,,,,,,,,,,,,,,,,,
1216,34,,Xã Đồng Yên,Xã Đồng Yên,,,,,,,,,,,,,,,,,,,,
1219,34,,Xã Đông Thành,Xã Đông Thành,,,,,,,,,,,,,,,,,,,,
35,2,,Huyện Quang Bình,Huyện Quang Bình,,,,,,,,,,,,,,,,,,,,
1222,35,,Xã Xuân Minh,Xã Xuân Minh,,,,,,,,,,,,,,,,,,,,
1225,35,,Xã Tiên Nguyên,Xã Tiên Nguyên,,,,,,,,,,,,,,,,,,,,
1228,35,,Xã Tân Nam,Xã Tân Nam,,,,,,,,,,,,,,,,,,,,
1231,35,,Xã Bản Rịa,Xã Bản Rịa,,,,,,,,,,,,,,,,,,,,
1234,35,,Xã Yên Thành,Xã Yên Thành,,,,,,,,,,,,,,,,,,,,
1237,35,,Xã Yên Bình,Xã Yên Bình,,,,,,,,,,,,,,,,,,,,
1240,35,,Xã Tân Trịnh,Xã Tân Trịnh,,,,,,,,,,,,,,,,,,,,
1243,35,,Xã Tân Bắc,Xã Tân Bắc,,,,,,,,,,,,,,,,,,,,
1246,35,,Xã Bằng Lang,Xã Bằng Lang,,,,,,,,,,,,,,,,,,,,
1249,35,,Xã Yên Hà,Xã Yên Hà,,,,,,,,,,,,,,,,,,,,
1252,35,,Xã Hương Sơn,Xã Hương Sơn,,,,,,,,,,,,,,,,,,,,
1255,35,,Xã Xuân Giang,Xã Xuân Giang,,,,,,,,,,,,,,,,,,,,
1258,35,,Xã Nà Khương,Xã Nà Khương,,,,,,,,,,,,,,,,,,,,
1261,35,,Xã Tiên Yên,Xã Tiên Yên,,,,,,,,,,,,,,,,,,,,
1264,35,,Xã Vĩ Thượng,Xã Vĩ Thượng,,,,,,,,,,,,,,,,,,,,
4,1,,Tỉnh Cao Bằng,Tỉnh Cao Bằng,,,,,,,,,,,,,,,,,,,,
40,4,,Thị xã Cao Bằng,Thị xã Cao Bằng,,,,,,,,,,,,,,,,,,,,
1267,40,,Phường Sông Hiến,Phường Sông Hiến,,,,,,,,,,,,,,,,,,,,
1270,40,,Phường Sông Bằng,Phường Sông Bằng,,,,,,,,,,,,,,,,,,,,
1273,40,,Phường Hợp Giang,Phường Hợp Giang,,,,,,,,,,,,,,,,,,,,
1276,40,,Phường Tân Giang,Phường Tân Giang,,,,,,,,,,,,,,,,,,,,
1279,40,,Xã Ngọc Xuân,Xã Ngọc Xuân,,,,,,,,,,,,,,,,,,,,
1282,40,,Xã Đề Thám,Xã Đề Thám,,,,,,,,,,,,,,,,,,,,
1285,40,,Xã Hoà Chung,Xã Hoà Chung,,,,,,,,,,,,,,,,,,,,
1288,40,,Xã Duyệt Trung,Xã Duyệt Trung,,,,,,,,,,,,,,,,,,,,
42,4,,Huyện Bảo Lâm,Huyện Bảo Lâm,,,,,,,,,,,,,,,,,,,,
1290,42,,Thị trấn Pác Miầu,Thị trấn Pác Miầu,,,,,,,,,,,,,,,,,,,,
1291,42,,Xã Đức Hạnh,Xã Đức Hạnh,,,,,,,,,,,,,,,,,,,,
1294,42,,Xã Lý Bôn,Xã Lý Bôn,,,,,,,,,,,,,,,,,,,,
1296,42,,Xã Nam Cao,Xã Nam Cao,,,,,,,,,,,,,,,,,,,,
1297,42,,Xã Nam Quang,Xã Nam Quang,,,,,,,,,,,,,,,,,,,,
1300,42,,Xã Vĩnh Quang,Xã Vĩnh Quang,,,,,,,,,,,,,,,,,,,,
1303,42,,Xã Quảng Lâm,Xã Quảng Lâm,,,,,,,,,,,,,,,,,,,,
1304,42,,Xã Thạch Lâm,Xã Thạch Lâm,,,,,,,,,,,,,,,,,,,,
1306,42,,Xã Tân Việt,Xã Tân Việt,,,,,,,,,,,,,,,,,,,,
1309,42,,Xã Vĩnh Phong,Xã Vĩnh Phong,,,,,,,,,,,,,,,,,,,,
1312,42,,Xã Mông Ân,Xã Mông Ân,,,,,,,,,,,,,,,,,,,,
1315,42,,Xã Thái Học,Xã Thái Học,,,,,,,,,,,,,,,,,,,,
1316,42,,Xã Thái Sơn,Xã Thái Sơn,,,,,,,,,,,,,,,,,,,,
1318,42,,Xã Yên Thổ,Xã Yên Thổ,,,,,,,,,,,,,,,,,,,,
43,4,,Huyện Bảo Lạc,Huyện Bảo Lạc,,,,,,,,,,,,,,,,,,,,
1321,43,,Thị trấn Bảo Lạc,Thị trấn Bảo Lạc,,,,,,,,,,,,,,,,,,,,
1324,43,,Xã Cốc Pàng,Xã Cốc Pàng,,,,,,,,,,,,,,,,,,,,
1327,43,,Xã Thượng Hà,Xã Thượng Hà,,,,,,,,,,,,,,,,,,,,
1330,43,,Xã Cô Ba,Xã Cô Ba,,,,,,,,,,,,,,,,,,,,
1333,43,,Xã Bảo Toàn,Xã Bảo Toàn,,,,,,,,,,,,,,,,,,,,
1336,43,,Xã Khánh Xuân,Xã Khánh Xuân,,,,,,,,,,,,,,,,,,,,
1339,43,,Xã Xuân Trường,Xã Xuân Trường,,,,,,,,,,,,,,,,,,,,
1342,43,,Xã Hồng Trị,Xã Hồng Trị,,,,,,,,,,,,,,,,,,,,
1343,43,,Xã Kim Cúc,Xã Kim Cúc,,,,,,,,,,,,,,,,,,,,
1345,43,,Xã Phan Thanh,Xã Phan Thanh,,,,,,,,,,,,,,,,,,,,
1348,43,,Xã Hồng An,Xã Hồng An,,,,,,,,,,,,,,,,,,,,
1351,43,,Xã Hưng Đạo,Xã Hưng Đạo,,,,,,,,,,,,,,,,,,,,
1352,43,,Xã Hưng Thịnh,Xã Hưng Thịnh,,,,,,,,,,,,,,,,,,,,
1354,43,,Xã Huy Giáp,Xã Huy Giáp,,,,,,,,,,,,,,,,,,,,
1357,43,,Xã Đình Phùng,Xã Đình Phùng,,,,,,,,,,,,,,,,,,,,
1359,43,,Xã Sơn Lập,Xã Sơn Lập,,,,,,,,,,,,,,,,,,,,
1360,43,,Xã Sơn Lộ,Xã Sơn Lộ,,,,,,,,,,,,,,,,,,,,
44,4,,Huyện Thông Nông,Huyện Thông Nông,,,,,,,,,,,,,,,,,,,,
1363,44,,Thị trấn Thông Nông,Thị trấn Thông Nông,,,,,,,,,,,,,,,,,,,,
1366,44,,Xã Cần Yên,Xã Cần Yên,,,,,,,,,,,,,,,,,,,,
1367,44,,Xã Cần Nông,Xã Cần Nông,,,,,,,,,,,,,,,,,,,,
1369,44,,Xã Vị Quang,Xã Vị Quang,,,,,,,,,,,,,,,,,,,,
1372,44,,Xã Lương Thông,Xã Lương Thông,,,,,,,,,,,,,,,,,,,,
1375,44,,Xã Đa Thông,Xã Đa Thông,,,,,,,,,,,,,,,,,,,,
1378,44,,Xã Ngọc Động,Xã Ngọc Động,,,,,,,,,,,,,,,,,,,,
1381,44,,Xã Yên Sơn,Xã Yên Sơn,,,,,,,,,,,,,,,,,,,,
1384,44,,Xã Lương Can,Xã Lương Can,,,,,,,,,,,,,,,,,,,,
1387,44,,Xã Thanh Long,Xã Thanh Long,,,,,,,,,,,,,,,,,,,,
1390,44,,Xã Bình Lãng,Xã Bình Lãng,,,,,,,,,,,,,,,,,,,,
45,4,,Huyện Hà Quảng,Huyện Hà Quảng,,,,,,,,,,,,,,,,,,,,
1392,45,,Thị trấn Xuân Hòa,Thị trấn Xuân Hòa,,,,,,,,,,,,,,,,,,,,
1393,45,,Xã Lũng Nặm,Xã Lũng Nặm,,,,,,,,,,,,,,,,,,,,
1396,45,,Xã Kéo Yên,Xã Kéo Yên,,,,,,,,,,,,,,,,,,,,
1399,45,,Xã Trường Hà,Xã Trường Hà,,,,,,,,,,,,,,,,,,,,
1402,45,,Xã Vân An,Xã Vân An,,,,,,,,,,,,,,,,,,,,
1405,45,,Xã Cải Viên,Xã Cải Viên,,,,,,,,,,,,,,,,,,,,
1408,45,,Xã Nà Sác,Xã Nà Sác,,,,,,,,,,,,,,,,,,,,
1411,45,,Xã Nội Thôn,Xã Nội Thôn,,,,,,,,,,,,,,,,,,,,
1414,45,,Xã Tổng Cọt,Xã Tổng Cọt,,,,,,,,,,,,,,,,,,,,
1417,45,,Xã Sóc Hà,Xã Sóc Hà,,,,,,,,,,,,,,,,,,,,
1420,45,,Xã Thượng Thôn,Xã Thượng Thôn,,,,,,,,,,,,,,,,,,,,
1423,45,,Xã Vần Dính,Xã Vần Dính,,,,,,,,,,,,,,,,,,,,
1426,45,,Xã Hồng Sĩ,Xã Hồng Sĩ,,,,,,,,,,,,,,,,,,,,
1429,45,,Xã Sĩ Hai,Xã Sĩ Hai,,,,,,,,,,,,,,,,,,,,
1432,45,,Xã Quý Quân,Xã Quý Quân,,,,,,,,,,,,,,,,,,,,
1435,45,,Xã Mã Ba,Xã Mã Ba,,,,,,,,,,,,,,,,,,,,
1438,45,,Xã Phù Ngọc,Xã Phù Ngọc,,,,,,,,,,,,,,,,,,,,
1441,45,,Xã Đào Ngạn,Xã Đào Ngạn,,,,,,,,,,,,,,,,,,,,
1444,45,,Xã Hạ Thôn,Xã Hạ Thôn,,,,,,,,,,,,,,,,,,,,
46,4,,Huyện Trà Lĩnh,Huyện Trà Lĩnh,,,,,,,,,,,,,,,,,,,,
1447,46,,Thị trấn Hùng Quốc,Thị trấn Hùng Quốc,,,,,,,,,,,,,,,,,,,,
1450,46,,Xã Cô Mười,Xã Cô Mười,,,,,,,,,,,,,,,,,,,,
1453,46,,Xã Tri Phương,Xã Tri Phương,,,,,,,,,,,,,,,,,,,,
1456,46,,Xã Quang Hán,Xã Quang Hán,,,,,,,,,,,,,,,,,,,,
1459,46,,Xã Quang Vinh,Xã Quang Vinh,,,,,,,,,,,,,,,,,,,,
1462,46,,Xã Xuân Nội,Xã Xuân Nội,,,,,,,,,,,,,,,,,,,,
1465,46,,Xã Quang Trung,Xã Quang Trung,,,,,,,,,,,,,,,,,,,,
1468,46,,Xã Lưu Ngọc,Xã Lưu Ngọc,,,,,,,,,,,,,,,,,,,,
1471,46,,Xã Cao Chương,Xã Cao Chương,,,,,,,,,,,,,,,,,,,,
1474,46,,Xã Quốc Toản,Xã Quốc Toản,,,,,,,,,,,,,,,,,,,,
47,4,,Huyện Trùng Khánh,Huyện Trùng Khánh,,,,,,,,,,,,,,,,,,,,
1477,47,,Thị trấn Trùng Khánh,Thị trấn Trùng Khánh,,,,,,,,,,,,,,,,,,,,
1480,47,,Xã Ngọc Khê,Xã Ngọc Khê,,,,,,,,,,,,,,,,,,,,
1481,47,,Xã Ngọc Côn,Xã Ngọc Côn,,,,,,,,,,,,,,,,,,,,
1483,47,,Xã Phong Nậm,Xã Phong Nậm,,,,,,,,,,,,,,,,,,,,
1486,47,,Xã Ngọc Chung,Xã Ngọc Chung,,,,,,,,,,,,,,,,,,,,
1489,47,,Xã Đình Phong,Xã Đình Phong,,,,,,,,,,,,,,,,,,,,
1492,47,,Xã Lăng Yên,Xã Lăng Yên,,,,,,,,,,,,,,,,,,,,
1495,47,,Xã Đàm Thuỷ,Xã Đàm Thuỷ,,,,,,,,,,,,,,,,,,,,
1498,47,,Xã Khâm Thành,Xã Khâm Thành,,,,,,,,,,,,,,,,,,,,
1501,47,,Xã Chí Viễn,Xã Chí Viễn,,,,,,,,,,,,,,,,,,,,
1504,47,,Xã Lăng Hiếu,Xã Lăng Hiếu,,,,,,,,,,,,,,,,,,,,
1507,47,,Xã Phong Châu,Xã Phong Châu,,,,,,,,,,,,,,,,,,,,
1510,47,,Xã Đình Minh,Xã Đình Minh,,,,,,,,,,,,,,,,,,,,
1513,47,,Xã Cảnh Tiên,Xã Cảnh Tiên,,,,,,,,,,,,,,,,,,,,
1516,47,,Xã Trung Phúc,Xã Trung Phúc,,,,,,,,,,,,,,,,,,,,
1519,47,,Xã Cao Thăng,Xã Cao Thăng,,,,,,,,,,,,,,,,,,,,
1522,47,,Xã Đức Hồng,Xã Đức Hồng,,,,,,,,,,,,,,,,,,,,
1525,47,,Xã Thông Hoè,Xã Thông Hoè,,,,,,,,,,,,,,,,,,,,
1528,47,,Xã Thân Giáp,Xã Thân Giáp,,,,,,,,,,,,,,,,,,,,
1531,47,,Xã Đoài Côn,Xã Đoài Côn,,,,,,,,,,,,,,,,,,,,
48,4,,Huyện Hạ Lang,Huyện Hạ Lang,,,,,,,,,,,,,,,,,,,,
1534,48,,Xã Minh Long,Xã Minh Long,,,,,,,,,,,,,,,,,,,,
1537,48,,Xã Lý Quốc,Xã Lý Quốc,,,,,,,,,,,,,,,,,,,,
1540,48,,Xã Thắng Lợi,Xã Thắng Lợi,,,,,,,,,,,,,,,,,,,,
1543,48,,Xã Đồng Loan,Xã Đồng Loan,,,,,,,,,,,,,,,,,,,,
1546,48,,Xã Đức Quang,Xã Đức Quang,,,,,,,,,,,,,,,,,,,,
1549,48,,Xã Kim Loan,Xã Kim Loan,,,,,,,,,,,,,,,,,,,,
1552,48,,Xã Quang Long,Xã Quang Long,,,,,,,,,,,,,,,,,,,,
1555,48,,Xã An Lạc,Xã An Lạc,,,,,,,,,,,,,,,,,,,,
1558,48,,Thị trấn Thanh Nhật,Thị trấn Thanh Nhật,,,,,,,,,,,,,,,,,,,,
1561,48,,Xã Vinh Quý,Xã Vinh Quý,,,,,,,,,,,,,,,,,,,,
1564,48,,Xã Việt Chu,Xã Việt Chu,,,,,,,,,,,,,,,,,,,,
1567,48,,Xã Cô Ngân,Xã Cô Ngân,,,,,,,,,,,,,,,,,,,,
1570,48,,Xã Thái Đức,Xã Thái Đức,,,,,,,,,,,,,,,,,,,,
1573,48,,Xã Thị Hoa,Xã Thị Hoa,,,,,,,,,,,,,,,,,,,,
49,4,,Huyện Quảng Uyên,Huyện Quảng Uyên,,,,,,,,,,,,,,,,,,,,
1576,49,,Thị trấn Quảng Uyên,Thị trấn Quảng Uyên,,,,,,,,,,,,,,,,,,,,
1579,49,,Xã Phi Hải,Xã Phi Hải,,,,,,,,,,,,,,,,,,,,
1582,49,,Xã Quảng Hưng,Xã Quảng Hưng,,,,,,,,,,,,,,,,,,,,
1585,49,,Xã Bình Lăng,Xã Bình Lăng,,,,,,,,,,,,,,,,,,,,
1588,49,,Xã Quốc Dân,Xã Quốc Dân,,,,,,,,,,,,,,,,,,,,
1591,49,,Xã Quốc Phong,Xã Quốc Phong,,,,,,,,,,,,,,,,,,,,
1594,49,,Xã Độc Lập,Xã Độc Lập,,,,,,,,,,,,,,,,,,,,
1597,49,,Xã Cai Bộ,Xã Cai Bộ,,,,,,,,,,,,,,,,,,,,
1600,49,,Xã Đoài Khôn,Xã Đoài Khôn,,,,,,,,,,,,,,,,,,,,
1603,49,,Xã Phúc Sen,Xã Phúc Sen,,,,,,,,,,,,,,,,,,,,
1606,49,,Xã Chí Thảo,Xã Chí Thảo,,,,,,,,,,,,,,,,,,,,
1609,49,,Xã Tự Do,Xã Tự Do,,,,,,,,,,,,,,,,,,,,
1612,49,,Xã Hồng Định,Xã Hồng Định,,,,,,,,,,,,,,,,,,,,
1615,49,,Xã Hồng Quang,Xã Hồng Quang,,,,,,,,,,,,,,,,,,,,
1618,49,,Xã Ngọc Động,Xã Ngọc Động,,,,,,,,,,,,,,,,,,,,
1621,49,,Xã Hoàng Hải,Xã Hoàng Hải,,,,,,,,,,,,,,,,,,,,
1624,49,,Xã Hạnh Phúc,Xã Hạnh Phúc,,,,,,,,,,,,,,,,,,,,
50,4,,Huyện Phục Hoà,Huyện Phục Hoà,,,,,,,,,,,,,,,,,,,,
1627,50,,Thị trấn Tà Lùng,Thị trấn Tà Lùng,,,,,,,,,,,,,,,,,,,,
1630,50,,Xã Triệu ẩu,Xã Triệu ẩu,,,,,,,,,,,,,,,,,,,,
1633,50,,Xã Hồng Đại,Xã Hồng Đại,,,,,,,,,,,,,,,,,,,,
1636,50,,Xã Cách Linh,Xã Cách Linh,,,,,,,,,,,,,,,,,,,,
1639,50,,Xã Đại Sơn,Xã Đại Sơn,,,,,,,,,,,,,,,,,,,,
1642,50,,Xã Lương Thiện,Xã Lương Thiện,,,,,,,,,,,,,,,,,,,,
1645,50,,Xã Tiên Thành,Xã Tiên Thành,,,,,,,,,,,,,,,,,,,,
1648,50,,Thị trấn Hoà Thuận,Thị trấn Hoà Thuận,,,,,,,,,,,,,,,,,,,,
1651,50,,Xã Mỹ Hưng,Xã Mỹ Hưng,,,,,,,,,,,,,,,,,,,,
51,4,,Huyện Hoà An,Huyện Hoà An,,,,,,,,,,,,,,,,,,,,
1654,51,,Thị trấn Nước Hai,Thị trấn Nước Hai,,,,,,,,,,,,,,,,,,,,
1657,51,,Xã Dân Chủ,Xã Dân Chủ,,,,,,,,,,,,,,,,,,,,
1660,51,,Xã Nam Tuấn,Xã Nam Tuấn,,,,,,,,,,,,,,,,,,,,
1663,51,,Xã Đức Xuân,Xã Đức Xuân,,,,,,,,,,,,,,,,,,,,
1666,51,,Xã Đại Tiến,Xã Đại Tiến,,,,,,,,,,,,,,,,,,,,
1669,51,,Xã Đức Long,Xã Đức Long,,,,,,,,,,,,,,,,,,,,
1672,51,,Xã Ngũ Lão,Xã Ngũ Lão,,,,,,,,,,,,,,,,,,,,
1675,51,,Xã Trương Lương,Xã Trương Lương,,,,,,,,,,,,,,,,,,,,
1678,51,,Xã Bình Long,Xã Bình Long,,,,,,,,,,,,,,,,,,,,
1681,51,,Xã Nguyễn Huệ,Xã Nguyễn Huệ,,,,,,,,,,,,,,,,,,,,
1684,51,,Xã Công Trừng,Xã Công Trừng,,,,,,,,,,,,,,,,,,,,
1687,51,,Xã Hồng Việt,Xã Hồng Việt,,,,,,,,,,,,,,,,,,,,
1690,51,,Xã Bế Triều,Xã Bế Triều,,,,,,,,,,,,,,,,,,,,
1693,51,,Xã Vĩnh Quang,Xã Vĩnh Quang,,,,,,,,,,,,,,,,,,,,
1696,51,,Xã Hoàng Tung,Xã Hoàng Tung,,,,,,,,,,,,,,,,,,,,
1699,51,,Xã Trương Vương,Xã Trương Vương,,,,,,,,,,,,,,,,,,,,
1702,51,,Xã Quang Trung,Xã Quang Trung,,,,,,,,,,,,,,,,,,,,
1705,51,,Xã Hưng Đạo,Xã Hưng Đạo,,,,,,,,,,,,,,,,,,,,
1708,51,,Xã Bạch Đằng,Xã Bạch Đằng,,,,,,,,,,,,,,,,,,,,
1711,51,,Xã Bình Dương,Xã Bình Dương,,,,,,,,,,,,,,,,,,,,
1714,51,,Xã Lê Chung,Xã Lê Chung,,,,,,,,,,,,,,,,,,,,
1717,51,,Xã Hà Trì,Xã Hà Trì,,,,,,,,,,,,,,,,,,,,
1720,51,,Xã Chu Trinh,Xã Chu Trinh,,,,,,,,,,,,,,,,,,,,
1723,51,,Xã Hồng Nam,Xã Hồng Nam,,,,,,,,,,,,,,,,,,,,
52,4,,Huyện Nguyên Bình,Huyện Nguyên Bình,,,,,,,,,,,,,,,,,,,,
1726,52,,Thị trấn Nguyên Bình,Thị trấn Nguyên Bình,,,,,,,,,,,,,,,,,,,,
1729,52,,Thị trấn Tĩnh Túc,Thị trấn Tĩnh Túc,,,,,,,,,,,,,,,,,,,,
1732,52,,Xã Yên Lạc,Xã Yên Lạc,,,,,,,,,,,,,,,,,,,,
1735,52,,Xã Triệu Nguyên,Xã Triệu Nguyên,,,,,,,,,,,,,,,,,,,,
1738,52,,Xã Ca Thành,Xã Ca Thành,,,,,,,,,,,,,,,,,,,,
1741,52,,Xã Thái Học,Xã Thái Học,,,,,,,,,,,,,,,,,,,,
1744,52,,Xã Vũ Nông,Xã Vũ Nông,,,,,,,,,,,,,,,,,,,,
1747,52,,Xã Minh Tâm,Xã Minh Tâm,,,,,,,,,,,,,,,,,,,,
1750,52,,Xã Thể Dục,Xã Thể Dục,,,,,,,,,,,,,,,,,,,,
1753,52,,Xã Bắc Hợp,Xã Bắc Hợp,,,,,,,,,,,,,,,,,,,,
1756,52,,Xã Mai Long,Xã Mai Long,,,,,,,,,,,,,,,,,,,,
1759,52,,Xã Lang Môn,Xã Lang Môn,,,,,,,,,,,,,,,,,,,,
1762,52,,Xã Minh Thanh,Xã Minh Thanh,,,,,,,,,,,,,,,,,,,,
1765,52,,Xã Hoa Thám,Xã Hoa Thám,,,,,,,,,,,,,,,,,,,,
1768,52,,Xã Phan Thanh,Xã Phan Thanh,,,,,,,,,,,,,,,,,,,,
1771,52,,Xã Quang Thành,Xã Quang Thành,,,,,,,,,,,,,,,,,,,,
1774,52,,Xã Tam Kim,Xã Tam Kim,,,,,,,,,,,,,,,,,,,,
1777,52,,Xã Thành Công,Xã Thành Công,,,,,,,,,,,,,,,,,,,,
1780,52,,Xã Thịnh Vượng,Xã Thịnh Vượng,,,,,,,,,,,,,,,,,,,,
1783,52,,Xã Hưng Đạo,Xã Hưng Đạo,,,,,,,,,,,,,,,,,,,,
53,4,,Huyện Thạch An,Huyện Thạch An,,,,,,,,,,,,,,,,,,,,
1786,53,,Thị trấn Đông Khê,Thị trấn Đông Khê,,,,,,,,,,,,,,,,,,,,
1789,53,,Xã Canh Tân,Xã Canh Tân,,,,,,,,,,,,,,,,,,,,
1792,53,,Xã Kim Đồng,Xã Kim Đồng,,,,,,,,,,,,,,,,,,,,
1795,53,,Xã Minh Khai,Xã Minh Khai,,,,,,,,,,,,,,,,,,,,
1798,53,,Xã Thị Ngân,Xã Thị Ngân,,,,,,,,,,,,,,,,,,,,
1801,53,,Xã Đức Thông,Xã Đức Thông,,,,,,,,,,,,,,,,,,,,
1804,53,,Xã Thái Cường,Xã Thái Cường,,,,,,,,,,,,,,,,,,,,
1807,53,,Xã Vân Trình,Xã Vân Trình,,,,,,,,,,,,,,,,,,,,
1810,53,,Xã Thụy Hùng,Xã Thụy Hùng,,,,,,,,,,,,,,,,,,,,
1813,53,,Xã Quang Trọng,Xã Quang Trọng,,,,,,,,,,,,,,,,,,,,
1816,53,,Xã Trọng Con,Xã Trọng Con,,,,,,,,,,,,,,,,,,,,
1819,53,,Xã Lê Lai,Xã Lê Lai,,,,,,,,,,,,,,,,,,,,
1822,53,,Xã Đức Long,Xã Đức Long,,,,,,,,,,,,,,,,,,,,
1825,53,,Xã Danh Sỹ,Xã Danh Sỹ,,,,,,,,,,,,,,,,,,,,
1828,53,,Xã Lê Lợi,Xã Lê Lợi,,,,,,,,,,,,,,,,,,,,
1831,53,,Xã Đức Xuân,Xã Đức Xuân,,,,,,,,,,,,,,,,,,,,
10,1,,Tỉnh Lào Cai,Tỉnh Lào Cai,,,,,,,,,,,,,,,,,,,,
80,10,,Thành phố Lào Cai,Thành phố Lào Cai,,,,,,,,,,,,,,,,,,,,
2635,80,,Phường Duyên Hải,Phường Duyên Hải,,,,,,,,,,,,,,,,,,,,
2638,80,,Phường Lào Cai,Phường Lào Cai,,,,,,,,,,,,,,,,,,,,
2641,80,,Phường Phố Mới,Phường Phố Mới,,,,,,,,,,,,,,,,,,,,
2644,80,,Phường Cốc Lếu,Phường Cốc Lếu,,,,,,,,,,,,,,,,,,,,
2647,80,,Phường Kim Tân,Phường Kim Tân,,,,,,,,,,,,,,,,,,,,
2650,80,,Phường Bắc Lệnh,Phường Bắc Lệnh,,,,,,,,,,,,,,,,,,,,
2653,80,,Phường Pom Hán,Phường Pom Hán,,,,,,,,,,,,,,,,,,,,
2656,80,,Phường Xuân Tăng,Phường Xuân Tăng,,,,,,,,,,,,,,,,,,,,
2658,80,,Phường Bình Minh,Phường Bình Minh,,,,,,,,,,,,,,,,,,,,
2659,80,,Phường Thống Nhất,Phường Thống Nhất,,,,,,,,,,,,,,,,,,,,
2662,80,,Xã Đồng Tuyển,Xã Đồng Tuyển,,,,,,,,,,,,,,,,,,,,
2665,80,,Xã Vạn Hoà,Xã Vạn Hoà,,,,,,,,,,,,,,,,,,,,
2668,80,,Phường Bắc Cường,Phường Bắc Cường,,,,,,,,,,,,,,,,,,,,
2671,80,,Phường Nam Cường,Phường Nam Cường,,,,,,,,,,,,,,,,,,,,
2674,80,,Xã Cam Đường,Xã Cam Đường,,,,,,,,,,,,,,,,,,,,
2677,80,,Xã Tả Phời,Xã Tả Phời,,,,,,,,,,,,,,,,,,,,
2680,80,,Xã Hợp Thành,Xã Hợp Thành,,,,,,,,,,,,,,,,,,,,
82,10,,Huyện Bát Xát,Huyện Bát Xát,,,,,,,,,,,,,,,,,,,,
2683,82,,Thị trấn Bát Xát,Thị trấn Bát Xát,,,,,,,,,,,,,,,,,,,,
2686,82,,Xã A Mú Sung,Xã A Mú Sung,,,,,,,,,,,,,,,,,,,,
2689,82,,Xã Nậm Chạc,Xã Nậm Chạc,,,,,,,,,,,,,,,,,,,,
2692,82,,Xã A Lù,Xã A Lù,,,,,,,,,,,,,,,,,,,,
2695,82,,Xã Trịnh Tường,Xã Trịnh Tường,,,,,,,,,,,,,,,,,,,,
2698,82,,Xã Ngải Thầu,Xã Ngải Thầu,,,,,,,,,,,,,,,,,,,,
2701,82,,Xã Y Tý,Xã Y Tý,,,,,,,,,,,,,,,,,,,,
2704,82,,Xã Cốc Mỳ,Xã Cốc Mỳ,,,,,,,,,,,,,,,,,,,,
2707,82,,Xã Dền Sáng,Xã Dền Sáng,,,,,,,,,,,,,,,,,,,,
2710,82,,Xã Bản Vược,Xã Bản Vược,,,,,,,,,,,,,,,,,,,,
2713,82,,Xã Sàng Ma Sáo,Xã Sàng Ma Sáo,,,,,,,,,,,,,,,,,,,,
2716,82,,Xã Bản Qua,Xã Bản Qua,,,,,,,,,,,,,,,,,,,,
2719,82,,Xã Mường Vi,Xã Mường Vi,,,,,,,,,,,,,,,,,,,,
2722,82,,Xã Dền Thàng,Xã Dền Thàng,,,,,,,,,,,,,,,,,,,,
2725,82,,Xã Bản Xèo,Xã Bản Xèo,,,,,,,,,,,,,,,,,,,,
2728,82,,Xã Mường Hum,Xã Mường Hum,,,,,,,,,,,,,,,,,,,,
2731,82,,Xã Trung Lèng Hồ,Xã Trung Lèng Hồ,,,,,,,,,,,,,,,,,,,,
2734,82,,Xã Quang Kim,Xã Quang Kim,,,,,,,,,,,,,,,,,,,,
2737,82,,Xã Pa Cheo,Xã Pa Cheo,,,,,,,,,,,,,,,,,,,,
2740,82,,Xã Nậm Pung,Xã Nậm Pung,,,,,,,,,,,,,,,,,,,,
2743,82,,Xã Phìn Ngan,Xã Phìn Ngan,,,,,,,,,,,,,,,,,,,,
2746,82,,Xã Cốc San,Xã Cốc San,,,,,,,,,,,,,,,,,,,,
2749,82,,Xã Tòng Sành,Xã Tòng Sành,,,,,,,,,,,,,,,,,,,,
83,10,,Huyện Mường Khương,Huyện Mường Khương,,,,,,,,,,,,,,,,,,,,
2752,83,,Xã Pha Long,Xã Pha Long,,,,,,,,,,,,,,,,,,,,
2755,83,,Xã Tả Ngải Chồ,Xã Tả Ngải Chồ,,,,,,,,,,,,,,,,,,,,
2758,83,,Xã Tung Chung Phố,Xã Tung Chung Phố,,,,,,,,,,,,,,,,,,,,
2761,83,,Xã Mường Khương,Xã Mường Khương,,,,,,,,,,,,,,,,,,,,
2764,83,,Xã Dìn Chin,Xã Dìn Chin,,,,,,,,,,,,,,,,,,,,
2767,83,,Xã Tả Gia Khâu,Xã Tả Gia Khâu,,,,,,,,,,,,,,,,,,,,
2770,83,,Xã Nậm Chảy,Xã Nậm Chảy,,,,,,,,,,,,,,,,,,,,
2773,83,,Xã Nấm Lư,Xã Nấm Lư,,,,,,,,,,,,,,,,,,,,
2776,83,,Xã Lùng Khấu Nhin,Xã Lùng Khấu Nhin,,,,,,,,,,,,,,,,,,,,
2779,83,,Xã Thanh Bình,Xã Thanh Bình,,,,,,,,,,,,,,,,,,,,
2782,83,,Xã Cao Sơn,Xã Cao Sơn,,,,,,,,,,,,,,,,,,,,
2785,83,,Xã Lùng Vai,Xã Lùng Vai,,,,,,,,,,,,,,,,,,,,
2788,83,,Xã Bản Lầu,Xã Bản Lầu,,,,,,,,,,,,,,,,,,,,
2791,83,,Xã La Pan Tẩn,Xã La Pan Tẩn,,,,,,,,,,,,,,,,,,,,
2794,83,,Xã Tả Thàng,Xã Tả Thàng,,,,,,,,,,,,,,,,,,,,
2797,83,,Xã Bản Sen,Xã Bản Sen,,,,,,,,,,,,,,,,,,,,
84,10,,Huyện Si Ma Cai,Huyện Si Ma Cai,,,,,,,,,,,,,,,,,,,,
2800,84,,Xã Nàn Sán,Xã Nàn Sán,,,,,,,,,,,,,,,,,,,,
2803,84,,Xã Thào Chư Phìn,Xã Thào Chư Phìn,,,,,,,,,,,,,,,,,,,,
2806,84,,Xã Bản Mế,Xã Bản Mế,,,,,,,,,,,,,,,,,,,,
2809,84,,Xã Si Ma Cai,Xã Si Ma Cai,,,,,,,,,,,,,,,,,,,,
2812,84,,Xã Sán Chải,Xã Sán Chải,,,,,,,,,,,,,,,,,,,,
2815,84,,Xã Mản Thẩn,Xã Mản Thẩn,,,,,,,,,,,,,,,,,,,,
2818,84,,Xã Lùng Sui,Xã Lùng Sui,,,,,,,,,,,,,,,,,,,,
2821,84,,Xã Cán Cấu,Xã Cán Cấu,,,,,,,,,,,,,,,,,,,,
2824,84,,Xã Sín Chéng,Xã Sín Chéng,,,,,,,,,,,,,,,,,,,,
2827,84,,Xã Cán Hồ,Xã Cán Hồ,,,,,,,,,,,,,,,,,,,,
2830,84,,Xã Quan Thần Sán,Xã Quan Thần Sán,,,,,,,,,,,,,,,,,,,,
2833,84,,Xã Lử Thẩn,Xã Lử Thẩn,,,,,,,,,,,,,,,,,,,,
2836,84,,Xã Nàn Xín,Xã Nàn Xín,,,,,,,,,,,,,,,,,,,,
85,10,,Huyện Bắc Hà,Huyện Bắc Hà,,,,,,,,,,,,,,,,,,,,
2839,85,,Thị trấn Bắc Hà,Thị trấn Bắc Hà,,,,,,,,,,,,,,,,,,,,
2842,85,,Xã Lùng Cải,Xã Lùng Cải,,,,,,,,,,,,,,,,,,,,
2845,85,,Xã Bản Già,Xã Bản Già,,,,,,,,,,,,,,,,,,,,
2848,85,,Xã Lùng Phình,Xã Lùng Phình,,,,,,,,,,,,,,,,,,,,
2851,85,,Xã Tả Van Chư,Xã Tả Van Chư,,,,,,,,,,,,,,,,,,,,
2854,85,,Xã Tả Củ Tỷ,Xã Tả Củ Tỷ,,,,,,,,,,,,,,,,,,,,
2857,85,,Xã Thải Giàng Phố,Xã Thải Giàng Phố,,,,,,,,,,,,,,,,,,,,
2860,85,,Xã Lầu Thí Ngài,Xã Lầu Thí Ngài,,,,,,,,,,,,,,,,,,,,
2863,85,,Xã Hoàng Thu Phố,Xã Hoàng Thu Phố,,,,,,,,,,,,,,,,,,,,
2866,85,,Xã Bản Phố,Xã Bản Phố,,,,,,,,,,,,,,,,,,,,
2869,85,,Xã Bản Liền,Xã Bản Liền,,,,,,,,,,,,,,,,,,,,
2872,85,,Xã Tà Chải,Xã Tà Chải,,,,,,,,,,,,,,,,,,,,
2875,85,,Xã Na Hối,Xã Na Hối,,,,,,,,,,,,,,,,,,,,
2878,85,,Xã Cốc Ly,Xã Cốc Ly,,,,,,,,,,,,,,,,,,,,
2881,85,,Xã Nậm Mòn,Xã Nậm Mòn,,,,,,,,,,,,,,,,,,,,
2884,85,,Xã Nậm Đét,Xã Nậm Đét,,,,,,,,,,,,,,,,,,,,
2887,85,,Xã Nậm Khánh,Xã Nậm Khánh,,,,,,,,,,,,,,,,,,,,
2890,85,,Xã Bảo Nhai,Xã Bảo Nhai,,,,,,,,,,,,,,,,,,,,
2893,85,,Xã Nậm Lúc,Xã Nậm Lúc,,,,,,,,,,,,,,,,,,,,
2896,85,,Xã Cốc Lầu,Xã Cốc Lầu,,,,,,,,,,,,,,,,,,,,
2899,85,,Xã Bản Cái,Xã Bản Cái,,,,,,,,,,,,,,,,,,,,
86,10,,Huyện Bảo Thắng,Huyện Bảo Thắng,,,,,,,,,,,,,,,,,,,,
2902,86,,Thị trấn N.T Phong Hải,Thị trấn N.T Phong Hải,,,,,,,,,,,,,,,,,,,,
2905,86,,Thị trấn Phố Lu,Thị trấn Phố Lu,,,,,,,,,,,,,,,,,,,,
2908,86,,Thị trấn Tằng Loỏng,Thị trấn Tằng Loỏng,,,,,,,,,,,,,,,,,,,,
2911,86,,Xã Bản Phiệt,Xã Bản Phiệt,,,,,,,,,,,,,,,,,,,,
2914,86,,Xã Bản Cầm,Xã Bản Cầm,,,,,,,,,,,,,,,,,,,,
2917,86,,Xã Thái Niên,Xã Thái Niên,,,,,,,,,,,,,,,,,,,,
2920,86,,Xã Phong Niên,Xã Phong Niên,,,,,,,,,,,,,,,,,,,,
2923,86,,Xã Gia Phú,Xã Gia Phú,,,,,,,,,,,,,,,,,,,,
2926,86,,Xã Xuân Quang,Xã Xuân Quang,,,,,,,,,,,,,,,,,,,,
2929,86,,Xã Sơn Hải,Xã Sơn Hải,,,,,,,,,,,,,,,,,,,,
2932,86,,Xã Xuân Giao,Xã Xuân Giao,,,,,,,,,,,,,,,,,,,,
2935,86,,Xã Trì Quang,Xã Trì Quang,,,,,,,,,,,,,,,,,,,,
2938,86,,Xã Sơn Hà,Xã Sơn Hà,,,,,,,,,,,,,,,,,,,,
2941,86,,Xã Phố Lu,Xã Phố Lu,,,,,,,,,,,,,,,,,,,,
2944,86,,Xã Phú Nhuận,Xã Phú Nhuận,,,,,,,,,,,,,,,,,,,,
87,10,,Huyện Bảo Yên,Huyện Bảo Yên,,,,,,,,,,,,,,,,,,,,
2947,87,,Thị trấn Phố Ràng,Thị trấn Phố Ràng,,,,,,,,,,,,,,,,,,,,
2950,87,,Xã Tân Tiến,Xã Tân Tiến,,,,,,,,,,,,,,,,,,,,
2953,87,,Xã Nghĩa Đô,Xã Nghĩa Đô,,,,,,,,,,,,,,,,,,,,
2956,87,,Xã Vĩnh Yên,Xã Vĩnh Yên,,,,,,,,,,,,,,,,,,,,
2959,87,,Xã Điện Quan,Xã Điện Quan,,,,,,,,,,,,,,,,,,,,
2962,87,,Xã Xuân Hoà,Xã Xuân Hoà,,,,,,,,,,,,,,,,,,,,
2965,87,,Xã Tân Dương,Xã Tân Dương,,,,,,,,,,,,,,,,,,,,
2968,87,,Xã Thượng Hà,Xã Thượng Hà,,,,,,,,,,,,,,,,,,,,
2971,87,,Xã Kim Sơn,Xã Kim Sơn,,,,,,,,,,,,,,,,,,,,
2974,87,,Xã Cam Cọn,Xã Cam Cọn,,,,,,,,,,,,,,,,,,,,
2977,87,,Xã Minh Tân,Xã Minh Tân,,,,,,,,,,,,,,,,,,,,
2980,87,,Xã Xuân Thượng,Xã Xuân Thượng,,,,,,,,,,,,,,,,,,,,
2983,87,,Xã Việt Tiến,Xã Việt Tiến,,,,,,,,,,,,,,,,,,,,
2986,87,,Xã Yên Sơn,Xã Yên Sơn,,,,,,,,,,,,,,,,,,,,
2989,87,,Xã Bảo Hà,Xã Bảo Hà,,,,,,,,,,,,,,,,,,,,
2992,87,,Xã Lương Sơn,Xã Lương Sơn,,,,,,,,,,,,,,,,,,,,
2995,87,,Xã Long Phúc,Xã Long Phúc,,,,,,,,,,,,,,,,,,,,
2998,87,,Xã Long Khánh,Xã Long Khánh,,,,,,,,,,,,,,,,,,,,
88,10,,Huyện Sa Pa,Huyện Sa Pa,,,,,,,,,,,,,,,,,,,,
3001,88,,Thị trấn Sa Pa,Thị trấn Sa Pa,,,,,,,,,,,,,,,,,,,,
3004,88,,Xã Bản Khoang,Xã Bản Khoang,,,,,,,,,,,,,,,,,,,,
3007,88,,Xã Tả Giàng Phình,Xã Tả Giàng Phình,,,,,,,,,,,,,,,,,,,,
3010,88,,Xã Trung Chải,Xã Trung Chải,,,,,,,,,,,,,,,,,,,,
3013,88,,Xã Tả Phìn,Xã Tả Phìn,,,,,,,,,,,,,,,,,,,,
3016,88,,Xã Sa Pả,Xã Sa Pả,,,,,,,,,,,,,,,,,,,,
3019,88,,Xã San Sả Hồ,Xã San Sả Hồ,,,,,,,,,,,,,,,,,,,,
3022,88,,Xã Bản Phùng,Xã Bản Phùng,,,,,,,,,,,,,,,,,,,,
3025,88,,Xã Hầu Thào,Xã Hầu Thào,,,,,,,,,,,,,,,,,,,,
3028,88,,Xã Lao Chải,Xã Lao Chải,,,,,,,,,,,,,,,,,,,,
3031,88,,Xã Thanh Kim,Xã Thanh Kim,,,,,,,,,,,,,,,,,,,,
3034,88,,Xã Suối Thầu,Xã Suối Thầu,,,,,,,,,,,,,,,,,,,,
3037,88,,Xã Sử Pán,Xã Sử Pán,,,,,,,,,,,,,,,,,,,,
3040,88,,Xã Tả Van,Xã Tả Van,,,,,,,,,,,,,,,,,,,,
3043,88,,Xã Thanh Phú,Xã Thanh Phú,,,,,,,,,,,,,,,,,,,,
3046,88,,Xã Bản Hồ,Xã Bản Hồ,,,,,,,,,,,,,,,,,,,,
3049,88,,Xã Nậm Sài,Xã Nậm Sài,,,,,,,,,,,,,,,,,,,,
3052,88,,Xã Nậm Cang,Xã Nậm Cang,,,,,,,,,,,,,,,,,,,,
89,10,,Huyện Văn Bàn,Huyện Văn Bàn,,,,,,,,,,,,,,,,,,,,
3055,89,,Thị trấn Khánh Yên,Thị trấn Khánh Yên,,,,,,,,,,,,,,,,,,,,
3058,89,,Xã Văn Sơn,Xã Văn Sơn,,,,,,,,,,,,,,,,,,,,
3061,89,,Xã Võ Lao,Xã Võ Lao,,,,,,,,,,,,,,,,,,,,
3064,89,,Xã Sơn Thuỷ,Xã Sơn Thuỷ,,,,,,,,,,,,,,,,,,,,
3067,89,,Xã Nậm Mả,Xã Nậm Mả,,,,,,,,,,,,,,,,,,,,
3070,89,,Xã Tân Thượng,Xã Tân Thượng,,,,,,,,,,,,,,,,,,,,
3073,89,,Xã Nậm Rạng,Xã Nậm Rạng,,,,,,,,,,,,,,,,,,,,
3076,89,,Xã Nậm Chầy,Xã Nậm Chầy,,,,,,,,,,,,,,,,,,,,
3079,89,,Xã Tân An,Xã Tân An,,,,,,,,,,,,,,,,,,,,
3082,89,,Xã Khánh Yên Thượng,Xã Khánh Yên Thượng,,,,,,,,,,,,,,,,,,,,
3085,89,,Xã Nậm Xé,Xã Nậm Xé,,,,,,,,,,,,,,,,,,,,
3088,89,,Xã Dần Thàng,Xã Dần Thàng,,,,,,,,,,,,,,,,,,,,
3091,89,,Xã Chiềng Ken,Xã Chiềng Ken,,,,,,,,,,,,,,,,,,,,
3094,89,,Xã Làng Giàng,Xã Làng Giàng,,,,,,,,,,,,,,,,,,,,
3097,89,,Xã Hoà Mạc,Xã Hoà Mạc,,,,,,,,,,,,,,,,,,,,
3100,89,,Xã Khánh Yên Trung,Xã Khánh Yên Trung,,,,,,,,,,,,,,,,,,,,
3103,89,,Xã Khánh Yên Hạ,Xã Khánh Yên Hạ,,,,,,,,,,,,,,,,,,,,
3106,89,,Xã Dương Quỳ,Xã Dương Quỳ,,,,,,,,,,,,,,,,,,,,
3109,89,,Xã Nậm Tha,Xã Nậm Tha,,,,,,,,,,,,,,,,,,,,
3112,89,,Xã Minh Lương,Xã Minh Lương,,,,,,,,,,,,,,,,,,,,
3115,89,,Xã Thẩm Dương,Xã Thẩm Dương,,,,,,,,,,,,,,,,,,,,
3118,89,,Xã Liêm Phú,Xã Liêm Phú,,,,,,,,,,,,,,,,,,,,
3121,89,,Xã Nậm Xây,Xã Nậm Xây,,,,,,,,,,,,,,,,,,,,
62,1,,Tỉnh Kon Tum,Tỉnh Kon Tum,,,,,,,,,,,,,,,,,,,,
608,62,,Thành phố Kon Tum,Thành phố Kon Tum,,,,,,,,,,,,,,,,,,,,
23281,608,,Phường Quang Trung,Phường Quang Trung,,,,,,,,,,,,,,,,,,,,
23284,608,,Phường Duy Tân,Phường Duy Tân,,,,,,,,,,,,,,,,,,,,
23287,608,,Phường Quyết Thắng,Phường Quyết Thắng,,,,,,,,,,,,,,,,,,,,
23290,608,,Phường Trường Chinh,Phường Trường Chinh,,,,,,,,,,,,,,,,,,,,
23293,608,,Phường Thắng Lợi,Phường Thắng Lợi,,,,,,,,,,,,,,,,,,,,
23296,608,,Phường Ngô Mây,Phường Ngô Mây,,,,,,,,,,,,,,,,,,,,
23299,608,,Phường Thống Nhất,Phường Thống Nhất,,,,,,,,,,,,,,,,,,,,
23302,608,,Phường Lê Lợi,Phường Lê Lợi,,,,,,,,,,,,,,,,,,,,
23305,608,,Phường Nguyễn Trãi,Phường Nguyễn Trãi,,,,,,,,,,,,,,,,,,,,
23308,608,,Phường Trần Hưng Đạo,Phường Trần Hưng Đạo,,,,,,,,,,,,,,,,,,,,
23311,608,,Xã Đắk Cấm,Xã Đắk Cấm,,,,,,,,,,,,,,,,,,,,
23314,608,,Xã Kroong,Xã Kroong,,,,,,,,,,,,,,,,,,,,
23317,608,,Xã Ngọk Bay,Xã Ngọk Bay,,,,,,,,,,,,,,,,,,,,
23320,608,,Xã Vinh Quang,Xã Vinh Quang,,,,,,,,,,,,,,,,,,,,
23323,608,,Xã Đắk Blà,Xã Đắk Blà,,,,,,,,,,,,,,,,,,,,
23326,608,,Xã Ia Chim,Xã Ia Chim,,,,,,,,,,,,,,,,,,,,
23327,608,,Xã Đăk Năng,Xã Đăk Năng,,,,,,,,,,,,,,,,,,,,
23329,608,,Xã Đoàn Kết,Xã Đoàn Kết,,,,,,,,,,,,,,,,,,,,
23332,608,,Xã Chư Hreng,Xã Chư Hreng,,,,,,,,,,,,,,,,,,,,
23335,608,,Xã Đắk Rơ Wa,Xã Đắk Rơ Wa,,,,,,,,,,,,,,,,,,,,
23338,608,,Xã Hòa Bình,Xã Hòa Bình,,,,,,,,,,,,,,,,,,,,
610,62,,Huyện Đắk Glei,Huyện Đắk Glei,,,,,,,,,,,,,,,,,,,,
23341,610,,Thị trấn Đắk Glei,Thị trấn Đắk Glei,,,,,,,,,,,,,,,,,,,,
23344,610,,Xã Đắk Plô,Xã Đắk Plô,,,,,,,,,,,,,,,,,,,,
23347,610,,Xã Đắk Man,Xã Đắk Man,,,,,,,,,,,,,,,,,,,,
23350,610,,Xã Đắk Nhoong,Xã Đắk Nhoong,,,,,,,,,,,,,,,,,,,,
23353,610,,Xã Đắk Pék,Xã Đắk Pék,,,,,,,,,,,,,,,,,,,,
23356,610,,Xã Đắk Choong,Xã Đắk Choong,,,,,,,,,,,,,,,,,,,,
23359,610,,Xã Xốp,Xã Xốp,,,,,,,,,,,,,,,,,,,,
23362,610,,Xã Mường Hoong,Xã Mường Hoong,,,,,,,,,,,,,,,,,,,,
23365,610,,Xã Ngọc Linh,Xã Ngọc Linh,,,,,,,,,,,,,,,,,,,,
23368,610,,Xã Đắk Long,Xã Đắk Long,,,,,,,,,,,,,,,,,,,,
23371,610,,Xã Đắk KRoong,Xã Đắk KRoong,,,,,,,,,,,,,,,,,,,,
23374,610,,Xã Đắk Môn,Xã Đắk Môn,,,,,,,,,,,,,,,,,,,,
611,62,,Huyện Ngọc Hồi,Huyện Ngọc Hồi,,,,,,,,,,,,,,,,,,,,
23377,611,,Thị trấn Plei Cần,Thị trấn Plei Cần,,,,,,,,,,,,,,,,,,,,
23380,611,,Xã Đắk Ang,Xã Đắk Ang,,,,,,,,,,,,,,,,,,,,
23383,611,,Xã Đắk Dục,Xã Đắk Dục,,,,,,,,,,,,,,,,,,,,
23386,611,,Xã Đắk Nông,Xã Đắk Nông,,,,,,,,,,,,,,,,,,,,
23389,611,,Xã Đắk Xú,Xã Đắk Xú,,,,,,,,,,,,,,,,,,,,
23392,611,,Xã Đắk Kan,Xã Đắk Kan,,,,,,,,,,,,,,,,,,,,
23395,611,,Xã Pờ Y,Xã Pờ Y,,,,,,,,,,,,,,,,,,,,
23398,611,,Xã Sa Loong,Xã Sa Loong,,,,,,,,,,,,,,,,,,,,
612,62,,Huyện Đắk Tô,Huyện Đắk Tô,,,,,,,,,,,,,,,,,,,,
23401,612,,Thị trấn Đắk Tô,Thị trấn Đắk Tô,,,,,,,,,,,,,,,,,,,,
23427,612,,Xã Đắk Rơ Nga,Xã Đắk Rơ Nga,,,,,,,,,,,,,,,,,,,,
23428,612,,Xã Ngọk Tụ,Xã Ngọk Tụ,,,,,,,,,,,,,,,,,,,,
23430,612,,Xã Đắk Trăm,Xã Đắk Trăm,,,,,,,,,,,,,,,,,,,,
23431,612,,Xã Văn Lem,Xã Văn Lem,,,,,,,,,,,,,,,,,,,,
23434,612,,Xã Kon Đào,Xã Kon Đào,,,,,,,,,,,,,,,,,,,,
23437,612,,Xã Tân Cảnh,Xã Tân Cảnh,,,,,,,,,,,,,,,,,,,,
23440,612,,Xã Diên Bình,Xã Diên Bình,,,,,,,,,,,,,,,,,,,,
23443,612,,Xã Pô Kô,Xã Pô Kô,,,,,,,,,,,,,,,,,,,,
613,62,,Huyện Kon Plông,Huyện Kon Plông,,,,,,,,,,,,,,,,,,,,
23452,613,,Xã Đắk Nên,Xã Đắk Nên,,,,,,,,,,,,,,,,,,,,
23455,613,,Xã Đắk Ring,Xã Đắk Ring,,,,,,,,,,,,,,,,,,,,
23458,613,,Xã Măng Buk,Xã Măng Buk,,,,,,,,,,,,,,,,,,,,
23461,613,,Xã Đắk Tăng,Xã Đắk Tăng,,,,,,,,,,,,,,,,,,,,
23464,613,,Xã Ngok Tem,Xã Ngok Tem,,,,,,,,,,,,,,,,,,,,
23467,613,,Xã Pờ Ê,Xã Pờ Ê,,,,,,,,,,,,,,,,,,,,
23470,613,,Xã Măng Cành,Xã Măng Cành,,,,,,,,,,,,,,,,,,,,
23473,613,,Xã Đắk Long,Xã Đắk Long,,,,,,,,,,,,,,,,,,,,
23476,613,,Xã Hiếu,Xã Hiếu,,,,,,,,,,,,,,,,,,,,
614,62,,Huyện Kon Rẫy,Huyện Kon Rẫy,,,,,,,,,,,,,,,,,,,,
23479,614,,Thị trấn Đắk Rve,Thị trấn Đắk Rve,,,,,,,,,,,,,,,,,,,,
23482,614,,Xã Đắk Kôi,Xã Đắk Kôi,,,,,,,,,,,,,,,,,,,,
23485,614,,Xã Đắk Tơ Lung,Xã Đắk Tơ Lung,,,,,,,,,,,,,,,,,,,,
23488,614,,Xã Đắk Ruồng,Xã Đắk Ruồng,,,,,,,,,,,,,,,,,,,,
23491,614,,Xã Đắk Pne,Xã Đắk Pne,,,,,,,,,,,,,,,,,,,,
23494,614,,Xã Đắk Tờ Re,Xã Đắk Tờ Re,,,,,,,,,,,,,,,,,,,,
23497,614,,Xã Tân Lập,Xã Tân Lập,,,,,,,,,,,,,,,,,,,,
615,62,,Huyện Đắk Hà,Huyện Đắk Hà,,,,,,,,,,,,,,,,,,,,
23500,615,,Thị trấn Đắk Hà,Thị trấn Đắk Hà,,,,,,,,,,,,,,,,,,,,
23503,615,,Xã Đắk PXi,Xã Đắk PXi,,,,,,,,,,,,,,,,,,,,
23506,615,,Xã Đắk HRing,Xã Đắk HRing,,,,,,,,,,,,,,,,,,,,
23509,615,,Xã Đắk Ui,Xã Đắk Ui,,,,,,,,,,,,,,,,,,,,
23512,615,,Xã Đắk Mar,Xã Đắk Mar,,,,,,,,,,,,,,,,,,,,
23515,615,,Xã Ngok Wang,Xã Ngok Wang,,,,,,,,,,,,,,,,,,,,
23518,615,,Xã Ngok Réo,Xã Ngok Réo,,,,,,,,,,,,,,,,,,,,
23521,615,,Xã Hà Mòn,Xã Hà Mòn,,,,,,,,,,,,,,,,,,,,
23524,615,,Xã Đắk La,Xã Đắk La,,,,,,,,,,,,,,,,,,,,
616,62,,Huyện Sa Thầy,Huyện Sa Thầy,,,,,,,,,,,,,,,,,,,,
23527,616,,Thị trấn Sa Thầy,Thị trấn Sa Thầy,,,,,,,,,,,,,,,,,,,,
23530,616,,Xã Rơ Kơi,Xã Rơ Kơi,,,,,,,,,,,,,,,,,,,,
23533,616,,Xã Sa Nhơn,Xã Sa Nhơn,,,,,,,,,,,,,,,,,,,,
23534,616,,Xã Hơ Moong,Xã Hơ Moong,,,,,,,,,,,,,,,,,,,,
23536,616,,Xã Mô Rai,Xã Mô Rai,,,,,,,,,,,,,,,,,,,,
23539,616,,Xã Sa Sơn,Xã Sa Sơn,,,,,,,,,,,,,,,,,,,,
23542,616,,Xã Sa Nghĩa,Xã Sa Nghĩa,,,,,,,,,,,,,,,,,,,,
23545,616,,Xã Sa Bình,Xã Sa Bình,,,,,,,,,,,,,,,,,,,,
23548,616,,Xã Ya Xiêr,Xã Ya Xiêr,,,,,,,,,,,,,,,,,,,,
23551,616,,Xã Ya Tăng,Xã Ya Tăng,,,,,,,,,,,,,,,,,,,,
23554,616,,Xã Ya ly,Xã Ya ly,,,,,,,,,,,,,,,,,,,,
617,62,,Huyện Tu Mơ Rông,Huyện Tu Mơ Rông,,,,,,,,,,,,,,,,,,,,
23404,617,,Xã Ngọk Lây,Xã Ngọk Lây,,,,,,,,,,,,,,,,,,,,
23407,617,,Xã Đắk Na,Xã Đắk Na,,,,,,,,,,,,,,,,,,,,
23410,617,,Xã Măng Ri,Xã Măng Ri,,,,,,,,,,,,,,,,,,,,
23413,617,,Xã Ngok Yêu,Xã Ngok Yêu,,,,,,,,,,,,,,,,,,,,
23416,617,,Xã Đắk Sao,Xã Đắk Sao,,,,,,,,,,,,,,,,,,,,
23417,617,,Xã Đắk Rơ Ông,Xã Đắk Rơ Ông,,,,,,,,,,,,,,,,,,,,
23419,617,,Xã Đắk Tơ Kan,Xã Đắk Tơ Kan,,,,,,,,,,,,,,,,,,,,
23422,617,,Xã Tu Mơ Rông,Xã Tu Mơ Rông,,,,,,,,,,,,,,,,,,,,
23425,617,,Xã Đắk Hà,Xã Đắk Hà,,,,,,,,,,,,,,,,,,,,
23446,617,,Xã Tê Xăng,Xã Tê Xăng,,,,,,,,,,,,,,,,,,,,
23449,617,,Xã Văn Xuôi,Xã Văn Xuôi,,,,,,,,,,,,,,,,,,,,
12,1,,Tỉnh Lai Châu,Tỉnh Lai Châu,,,,,,,,,,,,,,,,,,,,
105,12,,Thị xã Lai Châu,Thị xã Lai Châu,,,,,,,,,,,,,,,,,,,,
3386,105,,Phường Quyết Thắng,Phường Quyết Thắng,,,,,,,,,,,,,,,,,,,,
3387,105,,Phường Tân Phong,Phường Tân Phong,,,,,,,,,,,,,,,,,,,,
3389,105,,Phường Đoàn Kết,Phường Đoàn Kết,,,,,,,,,,,,,,,,,,,,
3403,105,,Xã Nậm Loỏng,Xã Nậm Loỏng,,,,,,,,,,,,,,,,,,,,
3409,105,,Xã San Thàng,Xã San Thàng,,,,,,,,,,,,,,,,,,,,
106,12,,Huyện Tam Đường,Huyện Tam Đường,,,,,,,,,,,,,,,,,,,,
3390,106,,Thị trấn Tam Đường,Thị trấn Tam Đường,,,,,,,,,,,,,,,,,,,,
3394,106,,Xã Thèn Sin,Xã Thèn Sin,,,,,,,,,,,,,,,,,,,,
3397,106,,Xã Sùng Phài,Xã Sùng Phài,,,,,,,,,,,,,,,,,,,,
3400,106,,Xã Tả Lèng,Xã Tả Lèng,,,,,,,,,,,,,,,,,,,,
3405,106,,Xã Giang Ma,Xã Giang Ma,,,,,,,,,,,,,,,,,,,,
3406,106,,Xã Hồ Thầu,Xã Hồ Thầu,,,,,,,,,,,,,,,,,,,,
3412,106,,Xã Bình Lư,Xã Bình Lư,,,,,,,,,,,,,,,,,,,,
3413,106,,Xã Sơn Bình,Xã Sơn Bình,,,,,,,,,,,,,,,,,,,,
3415,106,,Xã Nùng Nàng,Xã Nùng Nàng,,,,,,,,,,,,,,,,,,,,
3418,106,,Xã Bản Giang,Xã Bản Giang,,,,,,,,,,,,,,,,,,,,
3421,106,,Xã Bản Hon,Xã Bản Hon,,,,,,,,,,,,,,,,,,,,
3424,106,,Xã Bản Bo,Xã Bản Bo,,,,,,,,,,,,,,,,,,,,
3427,106,,Xã Nà Tăm,Xã Nà Tăm,,,,,,,,,,,,,,,,,,,,
3430,106,,Xã Khun Há,Xã Khun Há,,,,,,,,,,,,,,,,,,,,
107,12,,Huyện Mường Tè,Huyện Mường Tè,,,,,,,,,,,,,,,,,,,,
3433,107,,Thị trấn Mường Tè,Thị trấn Mường Tè,,,,,,,,,,,,,,,,,,,,
3436,107,,Xã Thu Lũm,Xã Thu Lũm,,,,,,,,,,,,,,,,,,,,
3439,107,,Xã Ka Lăng,Xã Ka Lăng,,,,,,,,,,,,,,,,,,,,
3442,107,,Xã Pa ủ,Xã Pa ủ,,,,,,,,,,,,,,,,,,,,
3445,107,,Xã Mường Tè,Xã Mường Tè,,,,,,,,,,,,,,,,,,,,
3448,107,,Xã Pa Vệ Sử,Xã Pa Vệ Sử,,,,,,,,,,,,,,,,,,,,
3451,107,,Xã Mù Cả,Xã Mù Cả,,,,,,,,,,,,,,,,,,,,
3454,107,,Xã Bun Tở,Xã Bun Tở,,,,,,,,,,,,,,,,,,,,
3457,107,,Xã Nậm Khao,Xã Nậm Khao,,,,,,,,,,,,,,,,,,,,
3460,107,,Xã Hua Bun,Xã Hua Bun,,,,,,,,,,,,,,,,,,,,
3463,107,,Xã Tà Tổng,Xã Tà Tổng,,,,,,,,,,,,,,,,,,,,
3466,107,,Xã Bun Nưa,Xã Bun Nưa,,,,,,,,,,,,,,,,,,,,
3469,107,,Xã Kan Hồ,Xã Kan Hồ,,,,,,,,,,,,,,,,,,,,
3472,107,,Xã Mường Mô,Xã Mường Mô,,,,,,,,,,,,,,,,,,,,
3474,107,,Xã Nậm Manh,Xã Nậm Manh,,,,,,,,,,,,,,,,,,,,
3475,107,,Xã Nậm Hàng,Xã Nậm Hàng,,,,,,,,,,,,,,,,,,,,
108,12,,Huyện Sìn Hồ,Huyện Sìn Hồ,,,,,,,,,,,,,,,,,,,,
3478,108,,Thị trấn Sìn Hồ,Thị trấn Sìn Hồ,,,,,,,,,,,,,,,,,,,,
3481,108,,Xã Lê Lợi,Xã Lê Lợi,,,,,,,,,,,,,,,,,,,,
3484,108,,Xã Pú Đao,Xã Pú Đao,,,,,,,,,,,,,,,,,,,,
3487,108,,Xã Chăn Nưa,Xã Chăn Nưa,,,,,,,,,,,,,,,,,,,,
3493,108,,Xã Pa Tần,Xã Pa Tần,,,,,,,,,,,,,,,,,,,,
3496,108,,Xã Phìn Hồ,Xã Phìn Hồ,,,,,,,,,,,,,,,,,,,,
3499,108,,Xã Hồng Thu,Xã Hồng Thu,,,,,,,,,,,,,,,,,,,,
3502,108,,Xã Nậm Ban,Xã Nậm Ban,,,,,,,,,,,,,,,,,,,,
3505,108,,Xã Phăng Sô Lin,Xã Phăng Sô Lin,,,,,,,,,,,,,,,,,,,,
3508,108,,Xã Ma Quai,Xã Ma Quai,,,,,,,,,,,,,,,,,,,,
3511,108,,Xã Tả Phìn,Xã Tả Phìn,,,,,,,,,,,,,,,,,,,,
3514,108,,Xã Sà Dề Phìn,Xã Sà Dề Phìn,,,,,,,,,,,,,,,,,,,,
3517,108,,Xã Nậm Tăm,Xã Nậm Tăm,,,,,,,,,,,,,,,,,,,,
3520,108,,Xã Tả Ngảo,Xã Tả Ngảo,,,,,,,,,,,,,,,,,,,,
3523,108,,Xã Pu Sam Cáp,Xã Pu Sam Cáp,,,,,,,,,,,,,,,,,,,,
3526,108,,Xã Nậm Cha,Xã Nậm Cha,,,,,,,,,,,,,,,,,,,,
3529,108,,Xã Làng Mô,Xã Làng Mô,,,,,,,,,,,,,,,,,,,,
3532,108,,Xã Noong Hẻo,Xã Noong Hẻo,,,,,,,,,,,,,,,,,,,,
3535,108,,Xã Nậm Mạ,Xã Nậm Mạ,,,,,,,,,,,,,,,,,,,,
3538,108,,Xã Căn Co,Xã Căn Co,,,,,,,,,,,,,,,,,,,,
3541,108,,Xã Tủa Sín Chải,Xã Tủa Sín Chải,,,,,,,,,,,,,,,,,,,,
3544,108,,Xã Nậm Cuổi,Xã Nậm Cuổi,,,,,,,,,,,,,,,,,,,,
3547,108,,Xã Nậm Hăn,Xã Nậm Hăn,,,,,,,,,,,,,,,,,,,,
109,12,,Huyện Phong Thổ,Huyện Phong Thổ,,,,,,,,,,,,,,,,,,,,
3391,109,,Xã Lả Nhì Thàng,Xã Lả Nhì Thàng,,,,,,,,,,,,,,,,,,,,
3490,109,,Xã Huổi Luông,Xã Huổi Luông,,,,,,,,,,,,,,,,,,,,
3549,109,,Thị trấn Phong Thổ,Thị trấn Phong Thổ,,,,,,,,,,,,,,,,,,,,
3550,109,,Xã Sì Lờ Lầu,Xã Sì Lờ Lầu,,,,,,,,,,,,,,,,,,,,
3553,109,,Xã Mồ Sì San,Xã Mồ Sì San,,,,,,,,,,,,,,,,,,,,
3556,109,,Xã Ma Li Chải,Xã Ma Li Chải,,,,,,,,,,,,,,,,,,,,
3559,109,,Xã Pa Vây Sử,Xã Pa Vây Sử,,,,,,,,,,,,,,,,,,,,
3562,109,,Xã Vàng Ma Chải,Xã Vàng Ma Chải,,,,,,,,,,,,,,,,,,,,
3565,109,,Xã Tông Qua Lìn,Xã Tông Qua Lìn,,,,,,,,,,,,,,,,,,,,
3568,109,,Xã Mù Sang,Xã Mù Sang,,,,,,,,,,,,,,,,,,,,
3571,109,,Xã Dào San,Xã Dào San,,,,,,,,,,,,,,,,,,,,
3574,109,,Xã Ma Ly Pho,Xã Ma Ly Pho,,,,,,,,,,,,,,,,,,,,
3577,109,,Xã Bản Lang,Xã Bản Lang,,,,,,,,,,,,,,,,,,,,
3580,109,,Xã Hoang Thèn,Xã Hoang Thèn,,,,,,,,,,,,,,,,,,,,
3583,109,,Xã Khổng Lào,Xã Khổng Lào,,,,,,,,,,,,,,,,,,,,
3586,109,,Xã Nậm Xe,Xã Nậm Xe,,,,,,,,,,,,,,,,,,,,
3589,109,,Xã Mường So,Xã Mường So,,,,,,,,,,,,,,,,,,,,
3592,109,,Xã Sin Suối Hồ,Xã Sin Suối Hồ,,,,,,,,,,,,,,,,,,,,
110,12,,Huyện Than Uyên,Huyện Than Uyên,,,,,,,,,,,,,,,,,,,,
3595,110,,Thị trấn Than Uyên,Thị trấn Than Uyên,,,,,,,,,,,,,,,,,,,,
3618,110,,Xã Phúc Than,Xã Phúc Than,,,,,,,,,,,,,,,,,,,,
3619,110,,Xã Mường Than,Xã Mường Than,,,,,,,,,,,,,,,,,,,,
3625,110,,Xã Mường Mít,Xã Mường Mít,,,,,,,,,,,,,,,,,,,,
3628,110,,Xã Pha Mu,Xã Pha Mu,,,,,,,,,,,,,,,,,,,,
3631,110,,Xã Mường Cang,Xã Mường Cang,,,,,,,,,,,,,,,,,,,,
3632,110,,Xã Hua Nà,Xã Hua Nà,,,,,,,,,,,,,,,,,,,,
3634,110,,Xã Tà Hừa,Xã Tà Hừa,,,,,,,,,,,,,,,,,,,,
3637,110,,Xã Mường Kim,Xã Mường Kim,,,,,,,,,,,,,,,,,,,,
3638,110,,Xã Tà Mung,Xã Tà Mung,,,,,,,,,,,,,,,,,,,,
3640,110,,Xã Tà Gia,Xã Tà Gia,,,,,,,,,,,,,,,,,,,,
3643,110,,Xã Khoen On,Xã Khoen On,,,,,,,,,,,,,,,,,,,,
111,12,,Huyện Tân Uyên,Huyện Tân Uyên,,,,,,,,,,,,,,,,,,,,
3598,111,,Thị trấn Tân Uyên,Thị trấn Tân Uyên,,,,,,,,,,,,,,,,,,,,
3601,111,,Xã Mường Khoa,Xã Mường Khoa,,,,,,,,,,,,,,,,,,,,
3602,111,,Xã Phúc Khoa,Xã Phúc Khoa,,,,,,,,,,,,,,,,,,,,
3604,111,,Xã Thân Thuộc,Xã Thân Thuộc,,,,,,,,,,,,,,,,,,,,
3605,111,,Xã Trung Đồng,Xã Trung Đồng,,,,,,,,,,,,,,,,,,,,
3607,111,,Xã Hố Mít,Xã Hố Mít,,,,,,,,,,,,,,,,,,,,
3610,111,,Xã Nậm Cần,Xã Nậm Cần,,,,,,,,,,,,,,,,,,,,
3613,111,,Xã Nậm Sỏ,Xã Nậm Sỏ,,,,,,,,,,,,,,,,,,,,
3616,111,,Xã Pắc Ta,Xã Pắc Ta,,,,,,,,,,,,,,,,,,,,
3622,111,,Xã Tà Mít,Xã Tà Mít,,,,,,,,,,,,,,,,,,,,
14,1,,Tỉnh Sơn La,Tỉnh Sơn La,,,,,,,,,,,,,,,,,,,,
116,14,,Thành phố Sơn La,Thành phố Sơn La,,,,,,,,,,,,,,,,,,,,
3646,116,,Phường Chiềng Lề,Phường Chiềng Lề,,,,,,,,,,,,,,,,,,,,
3649,116,,Phường Tô Hiệu,Phường Tô Hiệu,,,,,,,,,,,,,,,,,,,,
3652,116,,Phường Quyết Thắng,Phường Quyết Thắng,,,,,,,,,,,,,,,,,,,,
3655,116,,Phường Quyết Tâm,Phường Quyết Tâm,,,,,,,,,,,,,,,,,,,,
3658,116,,Xã Chiềng Cọ,Xã Chiềng Cọ,,,,,,,,,,,,,,,,,,,,
3661,116,,Xã Chiềng Đen,Xã Chiềng Đen,,,,,,,,,,,,,,,,,,,,
3664,116,,Xã Chiềng Xôm,Xã Chiềng Xôm,,,,,,,,,,,,,,,,,,,,
3667,116,,Phường Chiềng An,Phường Chiềng An,,,,,,,,,,,,,,,,,,,,
3670,116,,Phường Chiềng Cơi,Phường Chiềng Cơi,,,,,,,,,,,,,,,,,,,,
3673,116,,Xã Chiềng Ngần,Xã Chiềng Ngần,,,,,,,,,,,,,,,,,,,,
3676,116,,Xã Hua La,Xã Hua La,,,,,,,,,,,,,,,,,,,,
3679,116,,Phường Chiềng Sinh,Phường Chiềng Sinh,,,,,,,,,,,,,,,,,,,,
118,14,,Huyện Quỳnh Nhai,Huyện Quỳnh Nhai,,,,,,,,,,,,,,,,,,,,
3682,118,,Xã Mường Chiên,Xã Mường Chiên,,,,,,,,,,,,,,,,,,,,
3685,118,,Xã Cà Nàng,Xã Cà Nàng,,,,,,,,,,,,,,,,,,,,
3688,118,,Xã Chiềng Khay,Xã Chiềng Khay,,,,,,,,,,,,,,,,,,,,
3691,118,,Xã Pha Khinh,Xã Pha Khinh,,,,,,,,,,,,,,,,,,,,
3694,118,,Xã Mường Giôn,Xã Mường Giôn,,,,,,,,,,,,,,,,,,,,
3697,118,,Xã Pắc Ma,Xã Pắc Ma,,,,,,,,,,,,,,,,,,,,
3700,118,,Xã Chiềng Ơn,Xã Chiềng Ơn,,,,,,,,,,,,,,,,,,,,
3703,118,,Xã Mường Giàng,Xã Mường Giàng,,,,,,,,,,,,,,,,,,,,
3706,118,,Xã Chiềng Bằng,Xã Chiềng Bằng,,,,,,,,,,,,,,,,,,,,
3709,118,,Xã Mường Sại,Xã Mường Sại,,,,,,,,,,,,,,,,,,,,
3712,118,,Xã Nậm ét,Xã Nậm ét,,,,,,,,,,,,,,,,,,,,
3715,118,,Xã Liệp Muội,Xã Liệp Muội,,,,,,,,,,,,,,,,,,,,
3718,118,,Xã Chiềng Khoang,Xã Chiềng Khoang,,,,,,,,,,,,,,,,,,,,
119,14,,Huyện Thuận Châu,Huyện Thuận Châu,,,,,,,,,,,,,,,,,,,,
3721,119,,Thị trấn Thuận Châu,Thị trấn Thuận Châu,,,,,,,,,,,,,,,,,,,,
3724,119,,Xã Phỏng Lái,Xã Phỏng Lái,,,,,,,,,,,,,,,,,,,,
3727,119,,Xã Mường é,Xã Mường é,,,,,,,,,,,,,,,,,,,,
3730,119,,Xã Chiềng Pha,Xã Chiềng Pha,,,,,,,,,,,,,,,,,,,,
3733,119,,Xã Chiềng La,Xã Chiềng La,,,,,,,,,,,,,,,,,,,,
3736,119,,Xã Chiềng Ngàm,Xã Chiềng Ngàm,,,,,,,,,,,,,,,,,,,,
3739,119,,Xã Liệp Tè,Xã Liệp Tè,,,,,,,,,,,,,,,,,,,,
3742,119,,Xã é Tòng,Xã é Tòng,,,,,,,,,,,,,,,,,,,,
3745,119,,Xã Phỏng Lập,Xã Phỏng Lập,,,,,,,,,,,,,,,,,,,,
3748,119,,Xã Chiềng Sơ,Xã Chiềng Sơ,,,,,,,,,,,,,,,,,,,,
3751,119,,Xã Chiềng Ly,Xã Chiềng Ly,,,,,,,,,,,,,,,,,,,,
3754,119,,Xã Nong Lay,Xã Nong Lay,,,,,,,,,,,,,,,,,,,,
3757,119,,Xã Mường Khiêng,Xã Mường Khiêng,,,,,,,,,,,,,,,,,,,,
3760,119,,Xã Mường Bám,Xã Mường Bám,,,,,,,,,,,,,,,,,,,,
3763,119,,Xã Long Hẹ,Xã Long Hẹ,,,,,,,,,,,,,,,,,,,,
3766,119,,Xã Chiềng Bôm,Xã Chiềng Bôm,,,,,,,,,,,,,,,,,,,,
3769,119,,Xã Thôn Mòn,Xã Thôn Mòn,,,,,,,,,,,,,,,,,,,,
3772,119,,Xã Tòng Lệnh,Xã Tòng Lệnh,,,,,,,,,,,,,,,,,,,,
3775,119,,Xã Tòng Cọ,Xã Tòng Cọ,,,,,,,,,,,,,,,,,,,,
3778,119,,Xã Bó Mười,Xã Bó Mười,,,,,,,,,,,,,,,,,,,,
3781,119,,Xã Co Mạ,Xã Co Mạ,,,,,,,,,,,,,,,,,,,,
3784,119,,Xã Púng Tra,Xã Púng Tra,,,,,,,,,,,,,,,,,,,,
3787,119,,Xã Chiềng Pấc,Xã Chiềng Pấc,,,,,,,,,,,,,,,,,,,,
3790,119,,Xã Nậm Lầu,Xã Nậm Lầu,,,,,,,,,,,,,,,,,,,,
3793,119,,Xã Bon Phặng,Xã Bon Phặng,,,,,,,,,,,,,,,,,,,,
3796,119,,Xã Co Tòng,Xã Co Tòng,,,,,,,,,,,,,,,,,,,,
3799,119,,Xã Muội Nọi,Xã Muội Nọi,,,,,,,,,,,,,,,,,,,,
3802,119,,Xã Pá Lông,Xã Pá Lông,,,,,,,,,,,,,,,,,,,,
3805,119,,Xã Bản Lầm,Xã Bản Lầm,,,,,,,,,,,,,,,,,,,,
120,14,,Huyện Mường La,Huyện Mường La,,,,,,,,,,,,,,,,,,,,
3808,120,,Thị trấn Ít Ong,Thị trấn Ít Ong,,,,,,,,,,,,,,,,,,,,
3811,120,,Xã Nậm Giôn,Xã Nậm Giôn,,,,,,,,,,,,,,,,,,,,
3814,120,,Xã Chiềng Lao,Xã Chiềng Lao,,,,,,,,,,,,,,,,,,,,
3817,120,,Xã Hua Trai,Xã Hua Trai,,,,,,,,,,,,,,,,,,,,
3820,120,,Xã Ngọc Chiến,Xã Ngọc Chiến,,,,,,,,,,,,,,,,,,,,
3823,120,,Xã Mường Trai,Xã Mường Trai,,,,,,,,,,,,,,,,,,,,
3826,120,,Xã Nậm Păm,Xã Nậm Păm,,,,,,,,,,,,,,,,,,,,
3829,120,,Xã Chiềng Muôn,Xã Chiềng Muôn,,,,,,,,,,,,,,,,,,,,
3832,120,,Xã Chiềng Ân,Xã Chiềng Ân,,,,,,,,,,,,,,,,,,,,
3835,120,,Xã Pi Toong,Xã Pi Toong,,,,,,,,,,,,,,,,,,,,
3838,120,,Xã Chiềng Công,Xã Chiềng Công,,,,,,,,,,,,,,,,,,,,
3841,120,,Xã Tạ Bú,Xã Tạ Bú,,,,,,,,,,,,,,,,,,,,
3844,120,,Xã Chiềng San,Xã Chiềng San,,,,,,,,,,,,,,,,,,,,
3847,120,,Xã Mường Bú,Xã Mường Bú,,,,,,,,,,,,,,,,,,,,
3850,120,,Xã Chiềng Hoa,Xã Chiềng Hoa,,,,,,,,,,,,,,,,,,,,
3853,120,,Xã Mường Chùm,Xã Mường Chùm,,,,,,,,,,,,,,,,,,,,
121,14,,Huyện Bắc Yên,Huyện Bắc Yên,,,,,,,,,,,,,,,,,,,,
3856,121,,Thị trấn Bắc Yên,Thị trấn Bắc Yên,,,,,,,,,,,,,,,,,,,,
3859,121,,Xã Phiêng Ban,Xã Phiêng Ban,,,,,,,,,,,,,,,,,,,,
3862,121,,Xã Hang Chú,Xã Hang Chú,,,,,,,,,,,,,,,,,,,,
3865,121,,Xã Xín Vàng,Xã Xín Vàng,,,,,,,,,,,,,,,,,,,,
3868,121,,Xã Tà Xùa,Xã Tà Xùa,,,,,,,,,,,,,,,,,,,,
3869,121,,Xã Háng Đồng,Xã Háng Đồng,,,,,,,,,,,,,,,,,,,,
3871,121,,Xã Bắc Ngà,Xã Bắc Ngà,,,,,,,,,,,,,,,,,,,,
3874,121,,Xã Làng Chếu,Xã Làng Chếu,,,,,,,,,,,,,,,,,,,,
3877,121,,Xã Chim Vàn,Xã Chim Vàn,,,,,,,,,,,,,,,,,,,,
3880,121,,Xã Mường Khoa,Xã Mường Khoa,,,,,,,,,,,,,,,,,,,,
3883,121,,Xã Song Pe,Xã Song Pe,,,,,,,,,,,,,,,,,,,,
3886,121,,Xã Hồng Ngài,Xã Hồng Ngài,,,,,,,,,,,,,,,,,,,,
3889,121,,Xã Tạ Khoa,Xã Tạ Khoa,,,,,,,,,,,,,,,,,,,,
3890,121,,Xã Hua Nhàn,Xã Hua Nhàn,,,,,,,,,,,,,,,,,,,,
3892,121,,Xã Phiêng Kôn,Xã Phiêng Kôn,,,,,,,,,,,,,,,,,,,,
3895,121,,Xã Chiềng Sại,Xã Chiềng Sại,,,,,,,,,,,,,,,,,,,,
122,14,,Huyện Phù Yên,Huyện Phù Yên,,,,,,,,,,,,,,,,,,,,
3898,122,,Thị trấn Phù Yên,Thị trấn Phù Yên,,,,,,,,,,,,,,,,,,,,
3901,122,,Xã Suối Tọ,Xã Suối Tọ,,,,,,,,,,,,,,,,,,,,
3904,122,,Xã Mường Thải,Xã Mường Thải,,,,,,,,,,,,,,,,,,,,
3907,122,,Xã Mường Cơi,Xã Mường Cơi,,,,,,,,,,,,,,,,,,,,
3910,122,,Xã Quang Huy,Xã Quang Huy,,,,,,,,,,,,,,,,,,,,
3913,122,,Xã Huy Bắc,Xã Huy Bắc,,,,,,,,,,,,,,,,,,,,
3916,122,,Xã Huy Thượng,Xã Huy Thượng,,,,,,,,,,,,,,,,,,,,
3919,122,,Xã Tân Lang,Xã Tân Lang,,,,,,,,,,,,,,,,,,,,
3922,122,,Xã Gia Phù,Xã Gia Phù,,,,,,,,,,,,,,,,,,,,
3925,122,,Xã Tường Phù,Xã Tường Phù,,,,,,,,,,,,,,,,,,,,
3928,122,,Xã Huy Hạ,Xã Huy Hạ,,,,,,,,,,,,,,,,,,,,
3931,122,,Xã Huy Tân,Xã Huy Tân,,,,,,,,,,,,,,,,,,,,
3934,122,,Xã Mường Lang,Xã Mường Lang,,,,,,,,,,,,,,,,,,,,
3937,122,,Xã Suối Bau,Xã Suối Bau,,,,,,,,,,,,,,,,,,,,
3940,122,,Xã Huy Tường,Xã Huy Tường,,,,,,,,,,,,,,,,,,,,
3943,122,,Xã Mường Do,Xã Mường Do,,,,,,,,,,,,,,,,,,,,
3946,122,,Xã Sập Xa,Xã Sập Xa,,,,,,,,,,,,,,,,,,,,
3949,122,,Xã Tường Thượng,Xã Tường Thượng,,,,,,,,,,,,,,,,,,,,
3952,122,,Xã Tường Tiến,Xã Tường Tiến,,,,,,,,,,,,,,,,,,,,
3955,122,,Xã Tường Phong,Xã Tường Phong,,,,,,,,,,,,,,,,,,,,
3958,122,,Xã Tường Hạ,Xã Tường Hạ,,,,,,,,,,,,,,,,,,,,
3961,122,,Xã Kim Bon,Xã Kim Bon,,,,,,,,,,,,,,,,,,,,
3964,122,,Xã Mường Bang,Xã Mường Bang,,,,,,,,,,,,,,,,,,,,
3967,122,,Xã Đá Đỏ,Xã Đá Đỏ,,,,,,,,,,,,,,,,,,,,
3970,122,,Xã Tân Phong,Xã Tân Phong,,,,,,,,,,,,,,,,,,,,
3973,122,,Xã Nam Phong,Xã Nam Phong,,,,,,,,,,,,,,,,,,,,
3976,122,,Xã Bắc Phong,Xã Bắc Phong,,,,,,,,,,,,,,,,,,,,
123,14,,Huyện Mộc Châu,Huyện Mộc Châu,,,,,,,,,,,,,,,,,,,,
3979,123,,Thị trấn Mộc Châu,Thị trấn Mộc Châu,,,,,,,,,,,,,,,,,,,,
3982,123,,Thị trấn NT Mộc Châu,Thị trấn NT Mộc Châu,,,,,,,,,,,,,,,,,,,,
3985,123,,Xã Chiềng Sơn,Xã Chiềng Sơn,,,,,,,,,,,,,,,,,,,,
3988,123,,Xã Tân Hợp,Xã Tân Hợp,,,,,,,,,,,,,,,,,,,,
3991,123,,Xã Qui Hướng,Xã Qui Hướng,,,,,,,,,,,,,,,,,,,,
3994,123,,Xã Suối Bàng,Xã Suối Bàng,,,,,,,,,,,,,,,,,,,,
3997,123,,Xã Tân Lập,Xã Tân Lập,,,,,,,,,,,,,,,,,,,,
4000,123,,Xã Nà Mường,Xã Nà Mường,,,,,,,,,,,,,,,,,,,,
4003,123,,Xã Tà Lai,Xã Tà Lai,,,,,,,,,,,,,,,,,,,,
4006,123,,Xã Song Khủa,Xã Song Khủa,,,,,,,,,,,,,,,,,,,,
4009,123,,Xã Liên Hoà,Xã Liên Hoà,,,,,,,,,,,,,,,,,,,,
4012,123,,Xã Chiềng Hắc,Xã Chiềng Hắc,,,,,,,,,,,,,,,,,,,,
4015,123,,Xã Hua Păng,Xã Hua Păng,,,,,,,,,,,,,,,,,,,,
4018,123,,Xã Tô Múa,Xã Tô Múa,,,,,,,,,,,,,,,,,,,,
4021,123,,Xã Mường Tè,Xã Mường Tè,,,,,,,,,,,,,,,,,,,,
4024,123,,Xã Chiềng Khừa,Xã Chiềng Khừa,,,,,,,,,,,,,,,,,,,,
4027,123,,Xã Mường Sang,Xã Mường Sang,,,,,,,,,,,,,,,,,,,,
4030,123,,Xã Đông Sang,Xã Đông Sang,,,,,,,,,,,,,,,,,,,,
4033,123,,Xã Phiêng Luông,Xã Phiêng Luông,,,,,,,,,,,,,,,,,,,,
4036,123,,Xã Chiềng Khoa,Xã Chiềng Khoa,,,,,,,,,,,,,,,,,,,,
4039,123,,Xã Mường Men,Xã Mường Men,,,,,,,,,,,,,,,,,,,,
4042,123,,Xã Quang Minh,Xã Quang Minh,,,,,,,,,,,,,,,,,,,,
4045,123,,Xã Lóng Sập,Xã Lóng Sập,,,,,,,,,,,,,,,,,,,,
4048,123,,Xã Vân Hồ,Xã Vân Hồ,,,,,,,,,,,,,,,,,,,,
4051,123,,Xã Lóng Luông,Xã Lóng Luông,,,,,,,,,,,,,,,,,,,,
4054,123,,Xã Chiềng Yên,Xã Chiềng Yên,,,,,,,,,,,,,,,,,,,,
4056,123,,Xã Chiềng Xuân,Xã Chiềng Xuân,,,,,,,,,,,,,,,,,,,,
4057,123,,Xã Xuân Nha,Xã Xuân Nha,,,,,,,,,,,,,,,,,,,,
4058,123,,Xã Tân Xuân,Xã Tân Xuân,,,,,,,,,,,,,,,,,,,,
124,14,,Huyện Yên Châu,Huyện Yên Châu,,,,,,,,,,,,,,,,,,,,
4060,124,,Thị trấn Yên Châu,Thị trấn Yên Châu,,,,,,,,,,,,,,,,,,,,
4063,124,,Xã Chiềng Đông,Xã Chiềng Đông,,,,,,,,,,,,,,,,,,,,
4066,124,,Xã Sập Vạt,Xã Sập Vạt,,,,,,,,,,,,,,,,,,,,
4069,124,,Xã Chiềng Sàng,Xã Chiềng Sàng,,,,,,,,,,,,,,,,,,,,
4072,124,,Xã Chiềng Pằn,Xã Chiềng Pằn,,,,,,,,,,,,,,,,,,,,
4075,124,,Xã Viêng Lán,Xã Viêng Lán,,,,,,,,,,,,,,,,,,,,
4078,124,,Xã Chiềng Hặc,Xã Chiềng Hặc,,,,,,,,,,,,,,,,,,,,
4081,124,,Xã Mường Lựm,Xã Mường Lựm,,,,,,,,,,,,,,,,,,,,
4084,124,,Xã Chiềng On,Xã Chiềng On,,,,,,,,,,,,,,,,,,,,
4087,124,,Xã Yên Sơn,Xã Yên Sơn,,,,,,,,,,,,,,,,,,,,
4090,124,,Xã Chiềng Khoi,Xã Chiềng Khoi,,,,,,,,,,,,,,,,,,,,
4093,124,,Xã Tú Nang,Xã Tú Nang,,,,,,,,,,,,,,,,,,,,
4096,124,,Xã Lóng Phiêng,Xã Lóng Phiêng,,,,,,,,,,,,,,,,,,,,
4099,124,,Xã Phiêng Khoài,Xã Phiêng Khoài,,,,,,,,,,,,,,,,,,,,
4102,124,,Xã Chiềng Tương,Xã Chiềng Tương,,,,,,,,,,,,,,,,,,,,
125,14,,Huyện Mai Sơn,Huyện Mai Sơn,,,,,,,,,,,,,,,,,,,,
4105,125,,Thị trấn Hát Lót,Thị trấn Hát Lót,,,,,,,,,,,,,,,,,,,,
4108,125,,Xã Chiềng Sung,Xã Chiềng Sung,,,,,,,,,,,,,,,,,,,,
4111,125,,Xã Mường Bằng,Xã Mường Bằng,,,,,,,,,,,,,,,,,,,,
4114,125,,Xã Chiềng Chăn,Xã Chiềng Chăn,,,,,,,,,,,,,,,,,,,,
4117,125,,Xã Mương Tranh,Xã Mương Tranh,,,,,,,,,,,,,,,,,,,,
4120,125,,Xã Chiềng Ban,Xã Chiềng Ban,,,,,,,,,,,,,,,,,,,,
4123,125,,Xã Chiềng Mung,Xã Chiềng Mung,,,,,,,,,,,,,,,,,,,,
4126,125,,Xã Mường Bon,Xã Mường Bon,,,,,,,,,,,,,,,,,,,,
4129,125,,Xã Chiềng Chung,Xã Chiềng Chung,,,,,,,,,,,,,,,,,,,,
4132,125,,Xã Chiềng Mai,Xã Chiềng Mai,,,,,,,,,,,,,,,,,,,,
4135,125,,Xã Hát Lót,Xã Hát Lót,,,,,,,,,,,,,,,,,,,,
4136,125,,Xã Nà Pó,Xã Nà Pó,,,,,,,,,,,,,,,,,,,,
4138,125,,Xã Cò  Nòi,Xã Cò  Nòi,,,,,,,,,,,,,,,,,,,,
4141,125,,Xã Chiềng Nơi,Xã Chiềng Nơi,,,,,,,,,,,,,,,,,,,,
4144,125,,Xã Phiêng Cằm,Xã Phiêng Cằm,,,,,,,,,,,,,,,,,,,,
4147,125,,Xã Chiềng Dong,Xã Chiềng Dong,,,,,,,,,,,,,,,,,,,,
4150,125,,Xã Chiềng Kheo,Xã Chiềng Kheo,,,,,,,,,,,,,,,,,,,,
4153,125,,Xã Chiềng Ve,Xã Chiềng Ve,,,,,,,,,,,,,,,,,,,,
4156,125,,Xã Chiềng Lương,Xã Chiềng Lương,,,,,,,,,,,,,,,,,,,,
4159,125,,Xã Phiêng Pằn,Xã Phiêng Pằn,,,,,,,,,,,,,,,,,,,,
4162,125,,Xã Nà Ơt,Xã Nà Ơt,,,,,,,,,,,,,,,,,,,,
4165,125,,Xã Tà Hộc,Xã Tà Hộc,,,,,,,,,,,,,,,,,,,,
126,14,,Huyện Sông Mã,Huyện Sông Mã,,,,,,,,,,,,,,,,,,,,
4168,126,,Thị trấn Sông Mã,Thị trấn Sông Mã,,,,,,,,,,,,,,,,,,,,
4171,126,,Xã Bó Sinh,Xã Bó Sinh,,,,,,,,,,,,,,,,,,,,
4174,126,,Xã Pú Pẩu,Xã Pú Pẩu,,,,,,,,,,,,,,,,,,,,
4177,126,,Xã Chiềng Phung,Xã Chiềng Phung,,,,,,,,,,,,,,,,,,,,
4180,126,,Xã Chiềng En,Xã Chiềng En,,,,,,,,,,,,,,,,,,,,
4183,126,,Xã Mường Lầm,Xã Mường Lầm,,,,,,,,,,,,,,,,,,,,
4186,126,,Xã Nậm Ty,Xã Nậm Ty,,,,,,,,,,,,,,,,,,,,
4189,126,,Xã Đứa Mòn,Xã Đứa Mòn,,,,,,,,,,,,,,,,,,,,
4192,126,,Xã Yên Hưng,Xã Yên Hưng,,,,,,,,,,,,,,,,,,,,
4195,126,,Xã Chiềng Sơ,Xã Chiềng Sơ,,,,,,,,,,,,,,,,,,,,
4198,126,,Xã Nà Ngựu,Xã Nà Ngựu,,,,,,,,,,,,,,,,,,,,
4201,126,,Xã Nậm Mằn,Xã Nậm Mằn,,,,,,,,,,,,,,,,,,,,
4204,126,,Xã Chiềng Khoong,Xã Chiềng Khoong,,,,,,,,,,,,,,,,,,,,
4207,126,,Xã Chiềng Cang,Xã Chiềng Cang,,,,,,,,,,,,,,,,,,,,
4210,126,,Xã Huổi Một,Xã Huổi Một,,,,,,,,,,,,,,,,,,,,
4213,126,,Xã Mường Sai,Xã Mường Sai,,,,,,,,,,,,,,,,,,,,
4216,126,,Xã Mường Cai,Xã Mường Cai,,,,,,,,,,,,,,,,,,,,
4219,126,,Xã Mường Hung,Xã Mường Hung,,,,,,,,,,,,,,,,,,,,
4222,126,,Xã Chiềng Khương,Xã Chiềng Khương,,,,,,,,,,,,,,,,,,,,
127,14,,Huyện Sốp Cộp,Huyện Sốp Cộp,,,,,,,,,,,,,,,,,,,,
4225,127,,Xã Sam Kha,Xã Sam Kha,,,,,,,,,,,,,,,,,,,,
4228,127,,Xã Púng Bánh,Xã Púng Bánh,,,,,,,,,,,,,,,,,,,,
4231,127,,Xã Xốp Cộp,Xã Xốp Cộp,,,,,,,,,,,,,,,,,,,,
4234,127,,Xã Dồm Cang,Xã Dồm Cang,,,,,,,,,,,,,,,,,,,,
4237,127,,Xã Nậm Lạnh,Xã Nậm Lạnh,,,,,,,,,,,,,,,,,,,,
4240,127,,Xã Mường Lèo,Xã Mường Lèo,,,,,,,,,,,,,,,,,,,,
4243,127,,Xã Mường Và,Xã Mường Và,,,,,,,,,,,,,,,,,,,,
4246,127,,Xã Mường Lạn,Xã Mường Lạn,,,,,,,,,,,,,,,,,,,,
64,1,,Tỉnh Gia Lai,Tỉnh Gia Lai,,,,,,,,,,,,,,,,,,,,
622,64,,Thành phố Pleiku,Thành phố Pleiku,,,,,,,,,,,,,,,,,,,,
23557,622,,Phường Yên Đỗ,Phường Yên Đỗ,,,,,,,,,,,,,,,,,,,,
23560,622,,Phường Diên Hồng,Phường Diên Hồng,,,,,,,,,,,,,,,,,,,,
23563,622,,Phường Ia Kring,Phường Ia Kring,,,,,,,,,,,,,,,,,,,,
23566,622,,Phường Hội Thương,Phường Hội Thương,,,,,,,,,,,,,,,,,,,,
23569,622,,Phường Hội Phú,Phường Hội Phú,,,,,,,,,,,,,,,,,,,,
23570,622,,Phường Phù Đổng,Phường Phù Đổng,,,,,,,,,,,,,,,,,,,,
23572,622,,Phường Hoa Lư,Phường Hoa Lư,,,,,,,,,,,,,,,,,,,,
23575,622,,Phường Tây Sơn,Phường Tây Sơn,,,,,,,,,,,,,,,,,,,,
23578,622,,Phường Thống Nhất,Phường Thống Nhất,,,,,,,,,,,,,,,,,,,,
23579,622,,Phường Đống Đa,Phường Đống Đa,,,,,,,,,,,,,,,,,,,,
23581,622,,Phường Trà Bá,Phường Trà Bá,,,,,,,,,,,,,,,,,,,,
23582,622,,Phường Thắng Lợi,Phường Thắng Lợi,,,,,,,,,,,,,,,,,,,,
23584,622,,Phường Yên Thế,Phường Yên Thế,,,,,,,,,,,,,,,,,,,,
23586,622,,Phường Chi Lăng,Phường Chi Lăng,,,,,,,,,,,,,,,,,,,,
23587,622,,Xã Chư HDrông,Xã Chư HDrông,,,,,,,,,,,,,,,,,,,,
23590,622,,Xã Biển Hồ,Xã Biển Hồ,,,,,,,,,,,,,,,,,,,,
23593,622,,Xã Tân Sơn,Xã Tân Sơn,,,,,,,,,,,,,,,,,,,,
23596,622,,Xã Trà Đa,Xã Trà Đa,,,,,,,,,,,,,,,,,,,,
23599,622,,Xã Chư Á,Xã Chư Á,,,,,,,,,,,,,,,,,,,,
23602,622,,Xã An Phú,Xã An Phú,,,,,,,,,,,,,,,,,,,,
23605,622,,Xã Diên Phú,Xã Diên Phú,,,,,,,,,,,,,,,,,,,,
23608,622,,Xã Ia Kênh,Xã Ia Kênh,,,,,,,,,,,,,,,,,,,,
23611,622,,Xã Gào,Xã Gào,,,,,,,,,,,,,,,,,,,,
623,64,,Thị xã An Khê,Thị xã An Khê,,,,,,,,,,,,,,,,,,,,
23614,623,,Phường An Bình,Phường An Bình,,,,,,,,,,,,,,,,,,,,
23617,623,,Phường Tây Sơn,Phường Tây Sơn,,,,,,,,,,,,,,,,,,,,
23620,623,,Phường An Phú,Phường An Phú,,,,,,,,,,,,,,,,,,,,
23623,623,,Phường An Tân,Phường An Tân,,,,,,,,,,,,,,,,,,,,
23626,623,,Xã Tú An,Xã Tú An,,,,,,,,,,,,,,,,,,,,
23627,623,,Xã Xuân An,Xã Xuân An,,,,,,,,,,,,,,,,,,,,
23629,623,,Xã Cửu An,Xã Cửu An,,,,,,,,,,,,,,,,,,,,
23630,623,,Phường An Phước,Phường An Phước,,,,,,,,,,,,,,,,,,,,
23632,623,,Xã Song An,Xã Song An,,,,,,,,,,,,,,,,,,,,
23633,623,,Phường Ngô Mây,Phường Ngô Mây,,,,,,,,,,,,,,,,,,,,
23635,623,,Xã Thành An,Xã Thành An,,,,,,,,,,,,,,,,,,,,
624,64,,Thị xã Ayun Pa,Thị xã Ayun Pa,,,,,,,,,,,,,,,,,,,,
24041,624,,Phường Cheo Reo,Phường Cheo Reo,,,,,,,,,,,,,,,,,,,,
24042,624,,Phường Hòa Bình,Phường Hòa Bình,,,,,,,,,,,,,,,,,,,,
24044,624,,Phường Đoàn Kết,Phường Đoàn Kết,,,,,,,,,,,,,,,,,,,,
24045,624,,Phường Sông Bờ,Phường Sông Bờ,,,,,,,,,,,,,,,,,,,,
24064,624,,Xã Ia RBol,Xã Ia RBol,,,,,,,,,,,,,,,,,,,,
24065,624,,Xã Chư Băh,Xã Chư Băh,,,,,,,,,,,,,,,,,,,,
24070,624,,Xã Ia RTô,Xã Ia RTô,,,,,,,,,,,,,,,,,,,,
24073,624,,Xã Ia Sao,Xã Ia Sao,,,,,,,,,,,,,,,,,,,,
625,64,,Huyện KBang,Huyện KBang,,,,,,,,,,,,,,,,,,,,
23638,625,,Thị trấn KBang,Thị trấn KBang,,,,,,,,,,,,,,,,,,,,
23641,625,,Xã Kon Pne,Xã Kon Pne,,,,,,,,,,,,,,,,,,,,
23644,625,,Xã Đăk Roong,Xã Đăk Roong,,,,,,,,,,,,,,,,,,,,
23647,625,,Xã Sơn Lang,Xã Sơn Lang,,,,,,,,,,,,,,,,,,,,
23650,625,,Xã KRong,Xã KRong,,,,,,,,,,,,,,,,,,,,
23653,625,,Xã Sơ Pai,Xã Sơ Pai,,,,,,,,,,,,,,,,,,,,
23656,625,,Xã Lơ Ku,Xã Lơ Ku,,,,,,,,,,,,,,,,,,,,
23659,625,,Xã Đông,Xã Đông,,,,,,,,,,,,,,,,,,,,
23660,625,,Xã Đak SMar,Xã Đak SMar,,,,,,,,,,,,,,,,,,,,
23662,625,,Xã Nghĩa An,Xã Nghĩa An,,,,,,,,,,,,,,,,,,,,
23665,625,,Xã Tơ Tung,Xã Tơ Tung,,,,,,,,,,,,,,,,,,,,
23668,625,,Xã Kông Lơng Khơng,Xã Kông Lơng Khơng,,,,,,,,,,,,,,,,,,,,
23671,625,,Xã Kông Pla,Xã Kông Pla,,,,,,,,,,,,,,,,,,,,
23674,625,,Xã Đăk HLơ,Xã Đăk HLơ,,,,,,,,,,,,,,,,,,,,
626,64,,Huyện Đăk Đoa,Huyện Đăk Đoa,,,,,,,,,,,,,,,,,,,,
23677,626,,Thị trấn Đăk Đoa,Thị trấn Đăk Đoa,,,,,,,,,,,,,,,,,,,,
23680,626,,Xã Hà Đông,Xã Hà Đông,,,,,,,,,,,,,,,,,,,,
23683,626,,Xã Đăk Sơmei,Xã Đăk Sơmei,,,,,,,,,,,,,,,,,,,,
23684,626,,Xã Đăk Krong,Xã Đăk Krong,,,,,,,,,,,,,,,,,,,,
23686,626,,Xã Hải Yang,Xã Hải Yang,,,,,,,,,,,,,,,,,,,,
23689,626,,Xã Kon Gang,Xã Kon Gang,,,,,,,,,,,,,,,,,,,,
23692,626,,Xã Hà Bầu,Xã Hà Bầu,,,,,,,,,,,,,,,,,,,,
23695,626,,Xã Nam Yang,Xã Nam Yang,,,,,,,,,,,,,,,,,,,,
23698,626,,Xã K' Dang,Xã K' Dang,,,,,,,,,,,,,,,,,,,,
23701,626,,Xã H' Neng,Xã H' Neng,,,,,,,,,,,,,,,,,,,,
23704,626,,Xã Tân Bình,Xã Tân Bình,,,,,,,,,,,,,,,,,,,,
23707,626,,Xã Glar,Xã Glar,,,,,,,,,,,,,,,,,,,,
23710,626,,Xã A Dơk,Xã A Dơk,,,,,,,,,,,,,,,,,,,,
23713,626,,Xã Trang,Xã Trang,,,,,,,,,,,,,,,,,,,,
23714,626,,Xã HNol,Xã HNol,,,,,,,,,,,,,,,,,,,,
23716,626,,Xã Ia Pết,Xã Ia Pết,,,,,,,,,,,,,,,,,,,,
23719,626,,Xã Ia Băng,Xã Ia Băng,,,,,,,,,,,,,,,,,,,,
627,64,,Huyện Chư Păh,Huyện Chư Păh,,,,,,,,,,,,,,,,,,,,
23722,627,,Thị trấn Phú Hòa,Thị trấn Phú Hòa,,,,,,,,,,,,,,,,,,,,
23725,627,,Xã Hà Tây,Xã Hà Tây,,,,,,,,,,,,,,,,,,,,
23728,627,,Xã Ia Khươl,Xã Ia Khươl,,,,,,,,,,,,,,,,,,,,
23731,627,,Xã Ia Phí,Xã Ia Phí,,,,,,,,,,,,,,,,,,,,
23734,627,,Xã Ia Ly,Xã Ia Ly,,,,,,,,,,,,,,,,,,,,
23737,627,,Xã Ia Mơ Nông,Xã Ia Mơ Nông,,,,,,,,,,,,,,,,,,,,
23738,627,,Xã Ia Kreng,Xã Ia Kreng,,,,,,,,,,,,,,,,,,,,
23740,627,,Xã Đăk Tơ Ver,Xã Đăk Tơ Ver,,,,,,,,,,,,,,,,,,,,
23743,627,,Xã Hòa Phú,Xã Hòa Phú,,,,,,,,,,,,,,,,,,,,
23746,627,,Xã Chư Đăng Ya,Xã Chư Đăng Ya,,,,,,,,,,,,,,,,,,,,
23749,627,,Xã Ia Ka,Xã Ia Ka,,,,,,,,,,,,,,,,,,,,
23752,627,,Xã Ia Nhin,Xã Ia Nhin,,,,,,,,,,,,,,,,,,,,
23755,627,,Xã Nghĩa Hòa,Xã Nghĩa Hòa,,,,,,,,,,,,,,,,,,,,
23758,627,,Xã Chư Jôr,Xã Chư Jôr,,,,,,,,,,,,,,,,,,,,
23761,627,,Xã Nghĩa Hưng,Xã Nghĩa Hưng,,,,,,,,,,,,,,,,,,,,
628,64,,Huyện Ia Grai,Huyện Ia Grai,,,,,,,,,,,,,,,,,,,,
23764,628,,Thị trấn Ia Kha,Thị trấn Ia Kha,,,,,,,,,,,,,,,,,,,,
23767,628,,Xã Ia Sao,Xã Ia Sao,,,,,,,,,,,,,,,,,,,,
23768,628,,Xã Ia Yok,Xã Ia Yok,,,,,,,,,,,,,,,,,,,,
23770,628,,Xã Ia Hrung,Xã Ia Hrung,,,,,,,,,,,,,,,,,,,,
23771,628,,Xã Ia Bă,Xã Ia Bă,,,,,,,,,,,,,,,,,,,,
23773,628,,Xã Ia Khai,Xã Ia Khai,,,,,,,,,,,,,,,,,,,,
23776,628,,Xã Ia KRai,Xã Ia KRai,,,,,,,,,,,,,,,,,,,,
23778,628,,Xã Ia Grăng,Xã Ia Grăng,,,,,,,,,,,,,,,,,,,,
23779,628,,Xã Ia Tô,Xã Ia Tô,,,,,,,,,,,,,,,,,,,,
23782,628,,Xã Ia O,Xã Ia O,,,,,,,,,,,,,,,,,,,,
23785,628,,Xã Ia Dêr,Xã Ia Dêr,,,,,,,,,,,,,,,,,,,,
23788,628,,Xã Ia Chia,Xã Ia Chia,,,,,,,,,,,,,,,,,,,,
23791,628,,Xã Ia Pếch,Xã Ia Pếch,,,,,,,,,,,,,,,,,,,,
629,64,,Huyện Mang Yang,Huyện Mang Yang,,,,,,,,,,,,,,,,,,,,
23794,629,,Thị trấn Kon Dơng,Thị trấn Kon Dơng,,,,,,,,,,,,,,,,,,,,
23797,629,,Xã Ayun,Xã Ayun,,,,,,,,,,,,,,,,,,,,
23798,629,,Xã Đak Jơ Ta,Xã Đak Jơ Ta,,,,,,,,,,,,,,,,,,,,
23799,629,,Xã Đak Ta Ley,Xã Đak Ta Ley,,,,,,,,,,,,,,,,,,,,
23800,629,,Xã Hà Ra,Xã Hà Ra,,,,,,,,,,,,,,,,,,,,
23803,629,,Xã Đăk Yă,Xã Đăk Yă,,,,,,,,,,,,,,,,,,,,
23806,629,,Xã Đăk Djrăng,Xã Đăk Djrăng,,,,,,,,,,,,,,,,,,,,
23809,629,,Xã Lơ Pang,Xã Lơ Pang,,,,,,,,,,,,,,,,,,,,
23812,629,,Xã Kon Thụp,Xã Kon Thụp,,,,,,,,,,,,,,,,,,,,
23815,629,,Xã Đê Ar,Xã Đê Ar,,,,,,,,,,,,,,,,,,,,
23818,629,,Xã Kon Chiêng,Xã Kon Chiêng,,,,,,,,,,,,,,,,,,,,
23821,629,,Xã Đăk Trôi,Xã Đăk Trôi,,,,,,,,,,,,,,,,,,,,
630,64,,Huyện Kông Chro,Huyện Kông Chro,,,,,,,,,,,,,,,,,,,,
23824,630,,Thị trấn Kông Chro,Thị trấn Kông Chro,,,,,,,,,,,,,,,,,,,,
23827,630,,Xã Chư Krêy,Xã Chư Krêy,,,,,,,,,,,,,,,,,,,,
23830,630,,Xã An Trung,Xã An Trung,,,,,,,,,,,,,,,,,,,,
23833,630,,Xã Kông Yang,Xã Kông Yang,,,,,,,,,,,,,,,,,,,,
23836,630,,Xã Đăk Tơ Pang,Xã Đăk Tơ Pang,,,,,,,,,,,,,,,,,,,,
23839,630,,Xã SRó,Xã SRó,,,,,,,,,,,,,,,,,,,,
23840,630,,Xã Đắk Kơ Ning,Xã Đắk Kơ Ning,,,,,,,,,,,,,,,,,,,,
23842,630,,Xã Đăk Song,Xã Đăk Song,,,,,,,,,,,,,,,,,,,,
23843,630,,Xã Đăk Pling,Xã Đăk Pling,,,,,,,,,,,,,,,,,,,,
23845,630,,Xã Yang Trung,Xã Yang Trung,,,,,,,,,,,,,,,,,,,,
23846,630,,Xã Đăk Pơ Pho,Xã Đăk Pơ Pho,,,,,,,,,,,,,,,,,,,,
23848,630,,Xã Ya Ma,Xã Ya Ma,,,,,,,,,,,,,,,,,,,,
23851,630,,Xã Chơ Long,Xã Chơ Long,,,,,,,,,,,,,,,,,,,,
23854,630,,Xã Yang Nam,Xã Yang Nam,,,,,,,,,,,,,,,,,,,,
631,64,,Huyện Đức Cơ,Huyện Đức Cơ,,,,,,,,,,,,,,,,,,,,
23857,631,,Thị trấn Chư Ty,Thị trấn Chư Ty,,,,,,,,,,,,,,,,,,,,
23860,631,,Xã Ia Dơk,Xã Ia Dơk,,,,,,,,,,,,,,,,,,,,
23863,631,,Xã Ia Krêl,Xã Ia Krêl,,,,,,,,,,,,,,,,,,,,
23866,631,,Xã Ia Din,Xã Ia Din,,,,,,,,,,,,,,,,,,,,
23869,631,,Xã Ia Kla,Xã Ia Kla,,,,,,,,,,,,,,,,,,,,
23872,631,,Xã Ia Dom,Xã Ia Dom,,,,,,,,,,,,,,,,,,,,
23875,631,,Xã Ia Lang,Xã Ia Lang,,,,,,,,,,,,,,,,,,,,
23878,631,,Xã Ia Kriêng,Xã Ia Kriêng,,,,,,,,,,,,,,,,,,,,
23881,631,,Xã Ia Pnôn,Xã Ia Pnôn,,,,,,,,,,,,,,,,,,,,
23884,631,,Xã Ia Nan,Xã Ia Nan,,,,,,,,,,,,,,,,,,,,
632,64,,Huyện Chư Prông,Huyện Chư Prông,,,,,,,,,,,,,,,,,,,,
23887,632,,Thị trấn Chư Prông,Thị trấn Chư Prông,,,,,,,,,,,,,,,,,,,,
23888,632,,Xã Ia Kly,Xã Ia Kly,,,,,,,,,,,,,,,,,,,,
23890,632,,Xã Bình Giáo,Xã Bình Giáo,,,,,,,,,,,,,,,,,,,,
23893,632,,Xã Ia Drăng,Xã Ia Drăng,,,,,,,,,,,,,,,,,,,,
23896,632,,Xã Thăng Hưng,Xã Thăng Hưng,,,,,,,,,,,,,,,,,,,,
23899,632,,Xã Bàu Cạn,Xã Bàu Cạn,,,,,,,,,,,,,,,,,,,,
23902,632,,Xã Ia Phìn,Xã Ia Phìn,,,,,,,,,,,,,,,,,,,,
23905,632,,Xã Ia Băng,Xã Ia Băng,,,,,,,,,,,,,,,,,,,,
23908,632,,Xã Ia Tôr,Xã Ia Tôr,,,,,,,,,,,,,,,,,,,,
23911,632,,Xã Ia Boòng,Xã Ia Boòng,,,,,,,,,,,,,,,,,,,,
23914,632,,Xã Ia O,Xã Ia O,,,,,,,,,,,,,,,,,,,,
23917,632,,Xã Ia Púch,Xã Ia Púch,,,,,,,,,,,,,,,,,,,,
23920,632,,Xã Ia Me,Xã Ia Me,,,,,,,,,,,,,,,,,,,,
23923,632,,Xã Ia Vê,Xã Ia Vê,,,,,,,,,,,,,,,,,,,,
23924,632,,Xã Ia Bang,Xã Ia Bang,,,,,,,,,,,,,,,,,,,,
23926,632,,Xã Ia Pia,Xã Ia Pia,,,,,,,,,,,,,,,,,,,,
23929,632,,Xã Ia Ga,Xã Ia Ga,,,,,,,,,,,,,,,,,,,,
23932,632,,Xã Ia Lâu,Xã Ia Lâu,,,,,,,,,,,,,,,,,,,,
23935,632,,Xã Ia Piơr,Xã Ia Piơr,,,,,,,,,,,,,,,,,,,,
23938,632,,Xã Ia Mơ,Xã Ia Mơ,,,,,,,,,,,,,,,,,,,,
633,64,,Huyện Chư Sê,Huyện Chư Sê,,,,,,,,,,,,,,,,,,,,
23941,633,,Thị trấn Chư Sê,Thị trấn Chư Sê,,,,,,,,,,,,,,,,,,,,
23944,633,,Xã Ia Tiêm,Xã Ia Tiêm,,,,,,,,,,,,,,,,,,,,
23945,633,,Xã Chư Pơng,Xã Chư Pơng,,,,,,,,,,,,,,,,,,,,
23946,633,,Xã Bar Măih,Xã Bar Măih,,,,,,,,,,,,,,,,,,,,
23947,633,,Xã Bờ Ngoong,Xã Bờ Ngoong,,,,,,,,,,,,,,,,,,,,
23950,633,,Xã Ia Glai,Xã Ia Glai,,,,,,,,,,,,,,,,,,,,
23953,633,,Xã AL Bá,Xã AL Bá,,,,,,,,,,,,,,,,,,,,
23954,633,,Xã Kông HTok,Xã Kông HTok,,,,,,,,,,,,,,,,,,,,
23956,633,,Xã AYun,Xã AYun,,,,,,,,,,,,,,,,,,,,
23959,633,,Xã Ia HLốp,Xã Ia HLốp,,,,,,,,,,,,,,,,,,,,
23962,633,,Xã Ia Blang,Xã Ia Blang,,,,,,,,,,,,,,,,,,,,
23965,633,,Xã Dun,Xã Dun,,,,,,,,,,,,,,,,,,,,
23966,633,,Xã Ia Pal,Xã Ia Pal,,,,,,,,,,,,,,,,,,,,
23968,633,,Xã H Bông,Xã H Bông,,,,,,,,,,,,,,,,,,,,
23977,633,,Xã Ia Ko,Xã Ia Ko,,,,,,,,,,,,,,,,,,,,
634,64,,Huyện Đăk Pơ,Huyện Đăk Pơ,,,,,,,,,,,,,,,,,,,,
23989,634,,Xã Hà Tam,Xã Hà Tam,,,,,,,,,,,,,,,,,,,,
23992,634,,Xã An Thành,Xã An Thành,,,,,,,,,,,,,,,,,,,,
23995,634,,Xã Đăk Pơ,Xã Đăk Pơ,,,,,,,,,,,,,,,,,,,,
23998,634,,Xã Yang Bắc,Xã Yang Bắc,,,,,,,,,,,,,,,,,,,,
24001,634,,Xã Cư An,Xã Cư An,,,,,,,,,,,,,,,,,,,,
24004,634,,Xã Tân An,Xã Tân An,,,,,,,,,,,,,,,,,,,,
24007,634,,Xã Phú An,Xã Phú An,,,,,,,,,,,,,,,,,,,,
24010,634,,Xã Ya Hội,Xã Ya Hội,,,,,,,,,,,,,,,,,,,,
635,64,,Huyện Ia Pa,Huyện Ia Pa,,,,,,,,,,,,,,,,,,,,
24013,635,,Xã Pờ Tó,Xã Pờ Tó,,,,,,,,,,,,,,,,,,,,
24016,635,,Xã Chư Răng,Xã Chư Răng,,,,,,,,,,,,,,,,,,,,
24019,635,,Xã Ia KDăm,Xã Ia KDăm,,,,,,,,,,,,,,,,,,,,
24022,635,,Xã Kim Tân,Xã Kim Tân,,,,,,,,,,,,,,,,,,,,
24025,635,,Xã Chư Mố,Xã Chư Mố,,,,,,,,,,,,,,,,,,,,
24028,635,,Xã Ia Tul,Xã Ia Tul,,,,,,,,,,,,,,,,,,,,
24031,635,,Xã Ia Ma Rơn,Xã Ia Ma Rơn,,,,,,,,,,,,,,,,,,,,
24034,635,,Xã Ia Broăi,Xã Ia Broăi,,,,,,,,,,,,,,,,,,,,
24037,635,,Xã Ia Trok,Xã Ia Trok,,,,,,,,,,,,,,,,,,,,
637,64,,Huyện Krông Pa,Huyện Krông Pa,,,,,,,,,,,,,,,,,,,,
24076,637,,Thị trấn Phú Túc,Thị trấn Phú Túc,,,,,,,,,,,,,,,,,,,,
24079,637,,Xã Ia RSai,Xã Ia RSai,,,,,,,,,,,,,,,,,,,,
24082,637,,Xã Ia RSươm,Xã Ia RSươm,,,,,,,,,,,,,,,,,,,,
24085,637,,Xã Chư Gu,Xã Chư Gu,,,,,,,,,,,,,,,,,,,,
24088,637,,Xã Đất Bằng,Xã Đất Bằng,,,,,,,,,,,,,,,,,,,,
24091,637,,Xã Ia Mláh,Xã Ia Mláh,,,,,,,,,,,,,,,,,,,,
24094,637,,Xã Chư Drăng,Xã Chư Drăng,,,,,,,,,,,,,,,,,,,,
24097,637,,Xã Phú Cần,Xã Phú Cần,,,,,,,,,,,,,,,,,,,,
24100,637,,Xã Ia HDreh,Xã Ia HDreh,,,,,,,,,,,,,,,,,,,,
24103,637,,Xã Ia RMok,Xã Ia RMok,,,,,,,,,,,,,,,,,,,,
24106,637,,Xã Chư Ngọc,Xã Chư Ngọc,,,,,,,,,,,,,,,,,,,,
24109,637,,Xã Uar,Xã Uar,,,,,,,,,,,,,,,,,,,,
24112,637,,Xã Chư Rcăm,Xã Chư Rcăm,,,,,,,,,,,,,,,,,,,,
24115,637,,Xã Krông Năng,Xã Krông Năng,,,,,,,,,,,,,,,,,,,,
638,64,,Huyện Phú Thiện,Huyện Phú Thiện,,,,,,,,,,,,,,,,,,,,
24043,638,,Thị trấn Phú Thiện,Thị trấn Phú Thiện,,,,,,,,,,,,,,,,,,,,
24046,638,,Xã Chư A Thai,Xã Chư A Thai,,,,,,,,,,,,,,,,,,,,
24048,638,,Xã Ayun Hạ,Xã Ayun Hạ,,,,,,,,,,,,,,,,,,,,
24049,638,,Xã Ia Ake,Xã Ia Ake,,,,,,,,,,,,,,,,,,,,
24052,638,,Xã Ia Sol,Xã Ia Sol,,,,,,,,,,,,,,,,,,,,
24055,638,,Xã Ia Piar,Xã Ia Piar,,,,,,,,,,,,,,,,,,,,
24058,638,,Xã Ia Peng,Xã Ia Peng,,,,,,,,,,,,,,,,,,,,
24060,638,,Xã Chrôh Pơnan,Xã Chrôh Pơnan,,,,,,,,,,,,,,,,,,,,
24061,638,,Xã Ia Hiao,Xã Ia Hiao,,,,,,,,,,,,,,,,,,,,
24067,638,,Xã Ia Yeng,Xã Ia Yeng,,,,,,,,,,,,,,,,,,,,
639,64,,Huyện Chư Pưh,Huyện Chư Pưh,,,,,,,,,,,,,,,,,,,,
23942,639,,Thị trấn Nhơn Hoà,Thị trấn Nhơn Hoà,,,,,,,,,,,,,,,,,,,,
23971,639,,Xã Ia Hrú,Xã Ia Hrú,,,,,,,,,,,,,,,,,,,,
23972,639,,Xã Ia Rong,Xã Ia Rong,,,,,,,,,,,,,,,,,,,,
23974,639,,Xã Ia Dreng,Xã Ia Dreng,,,,,,,,,,,,,,,,,,,,
23978,639,,Xã Ia Hla,Xã Ia Hla,,,,,,,,,,,,,,,,,,,,
23980,639,,Xã Chư Don,Xã Chư Don,,,,,,,,,,,,,,,,,,,,
23983,639,,Xã Ia Phang,Xã Ia Phang,,,,,,,,,,,,,,,,,,,,
23986,639,,Xã Ia Le,Xã Ia Le,,,,,,,,,,,,,,,,,,,,
23987,639,,Xã Ia BLứ,Xã Ia BLứ,,,,,,,,,,,,,,,,,,,,
8000,137,,Bệnh viện ĐK huyện,Bệnh viện ĐK huyện,,,,,,,,,,,,,,,,,,,,
8001,137,,TTYT huyện,TTYT huyện,,,,,,,,,,,,,,,,,,,,
8002,137,,Phòng khám ĐKKV,Phòng khám ĐKKV,,,,,,,,,,,,,,,,,,,,
8003,137,,Bệnh xá quân y,Bệnh xá quân y,,,,,,,,,,,,,,,,,,,,
8004,137,,Cơ sở khác (không bao gồm YT tư nhân),Cơ sở khác (không bao gồm YT tư nhân),,,,,,,,,,,,,,,,,,,,
67,1,,Tỉnh Đắk Nông,Tỉnh Đắk Nông,,,,,,,,,,,,,,,,,,,,
660,67,,Thị xã Gia Nghĩa,Thị xã Gia Nghĩa,,,,,,,,,,,,,,,,,,,,
24611,660,,Phường Nghĩa Đức,Phường Nghĩa Đức,,,,,,,,,,,,,,,,,,,,
24612,660,,Phường Nghĩa Thành,Phường Nghĩa Thành,,,,,,,,,,,,,,,,,,,,
24614,660,,Phường Nghĩa Phú,Phường Nghĩa Phú,,,,,,,,,,,,,,,,,,,,
24615,660,,Phường Nghĩa Tân,Phường Nghĩa Tân,,,,,,,,,,,,,,,,,,,,
24617,660,,Phường Nghĩa Trung,Phường Nghĩa Trung,,,,,,,,,,,,,,,,,,,,
24618,660,,Xã Đăk R'Moan,Xã Đăk R'Moan,,,,,,,,,,,,,,,,,,,,
24619,660,,Xã Quảng Thành,Xã Quảng Thành,,,,,,,,,,,,,,,,,,,,
24628,660,,Xã Đắk Nia,Xã Đắk Nia,,,,,,,,,,,,,,,,,,,,
661,67,,Huyện Đăk Glong,Huyện Đăk Glong,,,,,,,,,,,,,,,,,,,,
24616,661,,Xã Quảng Sơn,Xã Quảng Sơn,,,,,,,,,,,,,,,,,,,,
24620,661,,Xã Quảng Hoà,Xã Quảng Hoà,,,,,,,,,,,,,,,,,,,,
24622,661,,Xã Đắk Ha,Xã Đắk Ha,,,,,,,,,,,,,,,,,,,,
24625,661,,Xã Đắk R'Măng,Xã Đắk R'Măng,,,,,,,,,,,,,,,,,,,,
24631,661,,Xã Quảng Khê,Xã Quảng Khê,,,,,,,,,,,,,,,,,,,,
24634,661,,Xã Đắk Plao,Xã Đắk Plao,,,,,,,,,,,,,,,,,,,,
24637,661,,Xã Đắk Som,Xã Đắk Som,,,,,,,,,,,,,,,,,,,,
662,67,,Huyện Cư Jút,Huyện Cư Jút,,,,,,,,,,,,,,,,,,,,
24640,662,,Thị trấn Ea T'Ling,Thị trấn Ea T'Ling,,,,,,,,,,,,,,,,,,,,
24643,662,,Xã Đắk Wil,Xã Đắk Wil,,,,,,,,,,,,,,,,,,,,
24646,662,,Xã Ea Pô,Xã Ea Pô,,,,,,,,,,,,,,,,,,,,
24649,662,,Xã Nam Dong,Xã Nam Dong,,,,,,,,,,,,,,,,,,,,
24652,662,,Xã Đắk DRông,Xã Đắk DRông,,,,,,,,,,,,,,,,,,,,
24655,662,,Xã Tâm Thắng,Xã Tâm Thắng,,,,,,,,,,,,,,,,,,,,
24658,662,,Xã Cư Knia,Xã Cư Knia,,,,,,,,,,,,,,,,,,,,
24661,662,,Xã Trúc Sơn,Xã Trúc Sơn,,,,,,,,,,,,,,,,,,,,
663,67,,Huyện Đắk Mil,Huyện Đắk Mil,,,,,,,,,,,,,,,,,,,,
24664,663,,Thị trấn Đắk Mil,Thị trấn Đắk Mil,,,,,,,,,,,,,,,,,,,,
24667,663,,Xã  Đắk Lao,Xã  Đắk Lao,,,,,,,,,,,,,,,,,,,,
24670,663,,Xã Đắk R'La,Xã Đắk R'La,,,,,,,,,,,,,,,,,,,,
24673,663,,Xã Đắk Gằn,Xã Đắk Gằn,,,,,,,,,,,,,,,,,,,,
24676,663,,Xã Đức Mạnh,Xã Đức Mạnh,,,,,,,,,,,,,,,,,,,,
24677,663,,Xã Đắk N'Drót,Xã Đắk N'Drót,,,,,,,,,,,,,,,,,,,,
24678,663,,Xã Long Sơn,Xã Long Sơn,,,,,,,,,,,,,,,,,,,,
24679,663,,Xã Đắk Sắk,Xã Đắk Sắk,,,,,,,,,,,,,,,,,,,,
24682,663,,Xã Thuận An,Xã Thuận An,,,,,,,,,,,,,,,,,,,,
24685,663,,Xã Đức Minh,Xã Đức Minh,,,,,,,,,,,,,,,,,,,,
664,67,,Huyện Krông Nô,Huyện Krông Nô,,,,,,,,,,,,,,,,,,,,
24688,664,,Thị trấn Đắk Mâm,Thị trấn Đắk Mâm,,,,,,,,,,,,,,,,,,,,
24691,664,,Xã Đắk Sôr,Xã Đắk Sôr,,,,,,,,,,,,,,,,,,,,
24692,664,,Xã Nam Xuân,Xã Nam Xuân,,,,,,,,,,,,,,,,,,,,
24694,664,,Xã Buôn Choah,Xã Buôn Choah,,,,,,,,,,,,,,,,,,,,
24697,664,,Xã Nam Đà,Xã Nam Đà,,,,,,,,,,,,,,,,,,,,
24699,664,,Xã Tân Thành,Xã Tân Thành,,,,,,,,,,,,,,,,,,,,
24700,664,,Xã Đắk Drô,Xã Đắk Drô,,,,,,,,,,,,,,,,,,,,
24703,664,,Xã Nâm Nung,Xã Nâm Nung,,,,,,,,,,,,,,,,,,,,
24706,664,,Xã Đức Xuyên,Xã Đức Xuyên,,,,,,,,,,,,,,,,,,,,
24709,664,,Xã Đắk Nang,Xã Đắk Nang,,,,,,,,,,,,,,,,,,,,
24712,664,,Xã Quảng Phú,Xã Quảng Phú,,,,,,,,,,,,,,,,,,,,
24715,664,,Xã Nâm N'Đir,Xã Nâm N'Đir,,,,,,,,,,,,,,,,,,,,
665,67,,Huyện Đắk Song,Huyện Đắk Song,,,,,,,,,,,,,,,,,,,,
24717,665,,Thị trấn Đức An,Thị trấn Đức An,,,,,,,,,,,,,,,,,,,,
24718,665,,Xã Đắk Môl,Xã Đắk Môl,,,,,,,,,,,,,,,,,,,,
24719,665,,Xã Đắk Hòa,Xã Đắk Hòa,,,,,,,,,,,,,,,,,,,,
24721,665,,Xã Nam Bình,Xã Nam Bình,,,,,,,,,,,,,,,,,,,,
24722,665,,Xã Thuận Hà,Xã Thuận Hà,,,,,,,,,,,,,,,,,,,,
24724,665,,Xã Thuận Hạnh,Xã Thuận Hạnh,,,,,,,,,,,,,,,,,,,,
24727,665,,Xã Đắk N'Dung,Xã Đắk N'Dung,,,,,,,,,,,,,,,,,,,,
24728,665,,Xã Nâm N'Jang,Xã Nâm N'Jang,,,,,,,,,,,,,,,,,,,,
24730,665,,Xã Trường Xuân,Xã Trường Xuân,,,,,,,,,,,,,,,,,,,,
666,67,,Huyện Đắk R'Lấp,Huyện Đắk R'Lấp,,,,,,,,,,,,,,,,,,,,
24733,666,,Thị trấn Kiến Đức,Thị trấn Kiến Đức,,,,,,,,,,,,,,,,,,,,
24745,666,,Xã Quảng Tín,Xã Quảng Tín,,,,,,,,,,,,,,,,,,,,
24750,666,,Xã Đắk Wer,Xã Đắk Wer,,,,,,,,,,,,,,,,,,,,
24751,666,,Xã Nhân Cơ,Xã Nhân Cơ,,,,,,,,,,,,,,,,,,,,
24754,666,,Xã Kiến Thành,Xã Kiến Thành,,,,,,,,,,,,,,,,,,,,
24756,666,,Xã Nghĩa Thắng,Xã Nghĩa Thắng,,,,,,,,,,,,,,,,,,,,
24757,666,,Xã Đạo Nghĩa,Xã Đạo Nghĩa,,,,,,,,,,,,,,,,,,,,
24760,666,,Xã Đắk Sin,Xã Đắk Sin,,,,,,,,,,,,,,,,,,,,
24761,666,,Xã Hưng Bình,Xã Hưng Bình,,,,,,,,,,,,,,,,,,,,
24763,666,,Xã Đắk Ru,Xã Đắk Ru,,,,,,,,,,,,,,,,,,,,
24766,666,,Xã Nhân Đạo,Xã Nhân Đạo,,,,,,,,,,,,,,,,,,,,
667,67,,Huyện Tuy Đức,Huyện Tuy Đức,,,,,,,,,,,,,,,,,,,,
24736,667,,Xã Quảng Trực,Xã Quảng Trực,,,,,,,,,,,,,,,,,,,,
24739,667,,Xã Đắk Búk So,Xã Đắk Búk So,,,,,,,,,,,,,,,,,,,,
24740,667,,Xã Quảng Tâm,Xã Quảng Tâm,,,,,,,,,,,,,,,,,,,,
24742,667,,Xã Đắk R'Tíh,Xã Đắk R'Tíh,,,,,,,,,,,,,,,,,,,,
24746,667,,Xã Đắk Ngo,Xã Đắk Ngo,,,,,,,,,,,,,,,,,,,,
24748,667,,Xã Quảng Tân,Xã Quảng Tân,,,,,,,,,,,,,,,,,,,,
11,1,,Tỉnh Điện Biên,Tỉnh Điện Biên,,,,,,,,,,,,,,,,,,,,
94,11,,Thành phố Điện Biên Phủ,Thành phố Điện Biên Phủ,,,,,,,,,,,,,,,,,,,,
3124,94,,Phường Noong Bua,Phường Noong Bua,,,,,,,,,,,,,,,,,,,,
3127,94,,Phường Him Lam,Phường Him Lam,,,,,,,,,,,,,,,,,,,,
3130,94,,Phường Thanh Bình,Phường Thanh Bình,,,,,,,,,,,,,,,,,,,,
3133,94,,Phường Tân Thanh,Phường Tân Thanh,,,,,,,,,,,,,,,,,,,,
3136,94,,Phường Mường Thanh,Phường Mường Thanh,,,,,,,,,,,,,,,,,,,,
3139,94,,Phường Nam Thanh,Phường Nam Thanh,,,,,,,,,,,,,,,,,,,,
3142,94,,Phường Thanh Trường,Phường Thanh Trường,,,,,,,,,,,,,,,,,,,,
3144,94,,Xã Tà Lèng,Xã Tà Lèng,,,,,,,,,,,,,,,,,,,,
3145,94,,Xã Thanh Minh,Xã Thanh Minh,,,,,,,,,,,,,,,,,,,,
95,11,,Thị Xã Mường Lay,Thị Xã Mường Lay,,,,,,,,,,,,,,,,,,,,
3148,95,,Phường Sông Đà,Phường Sông Đà,,,,,,,,,,,,,,,,,,,,
3151,95,,Phường Na Lay,Phường Na Lay,,,,,,,,,,,,,,,,,,,,
3184,95,,Xã Lay Nưa,Xã Lay Nưa,,,,,,,,,,,,,,,,,,,,
96,11,,Huyện Mường Nhé,Huyện Mường Nhé,,,,,,,,,,,,,,,,,,,,
3154,96,,Xã Sín Thầu,Xã Sín Thầu,,,,,,,,,,,,,,,,,,,,
3155,96,,Xã Sen Thượng,Xã Sen Thượng,,,,,,,,,,,,,,,,,,,,
3157,96,,Xã Chung Chải,Xã Chung Chải,,,,,,,,,,,,,,,,,,,,
3158,96,,Xã Leng Su Sìn,Xã Leng Su Sìn,,,,,,,,,,,,,,,,,,,,
3159,96,,Xã Pá Mỳ,Xã Pá Mỳ,,,,,,,,,,,,,,,,,,,,
3160,96,,Xã Mường Nhé,Xã Mường Nhé,,,,,,,,,,,,,,,,,,,,
3161,96,,Xã Nậm Vì,Xã Nậm Vì,,,,,,,,,,,,,,,,,,,,
3162,96,,Xã Nậm Kè,Xã Nậm Kè,,,,,,,,,,,,,,,,,,,,
3163,96,,Xã Mường Toong,Xã Mường Toong,,,,,,,,,,,,,,,,,,,,
3164,96,,Xã Quảng Lâm,Xã Quảng Lâm,,,,,,,,,,,,,,,,,,,,
3165,96,,Xã Pa Tần,Xã Pa Tần,,,,,,,,,,,,,,,,,,,,
3166,96,,Xã Chà Cang,Xã Chà Cang,,,,,,,,,,,,,,,,,,,,
3167,96,,Xã Na Cô Sa,Xã Na Cô Sa,,,,,,,,,,,,,,,,,,,,
3168,96,,Xã Nà Khoa,Xã Nà Khoa,,,,,,,,,,,,,,,,,,,,
3169,96,,Xã Nà Hỳ,Xã Nà Hỳ,,,,,,,,,,,,,,,,,,,,
3170,96,,Xã Nà Bủng,Xã Nà Bủng,,,,,,,,,,,,,,,,,,,,
97,11,,Huyện Mường Chà,Huyện Mường Chà,,,,,,,,,,,,,,,,,,,,
3172,97,,Thị Trấn Mường Chà,Thị Trấn Mường Chà,,,,,,,,,,,,,,,,,,,,
3174,97,,Xã Nậm Khăn,Xã Nậm Khăn,,,,,,,,,,,,,,,,,,,,
3175,97,,Xã Chà Tở,Xã Chà Tở,,,,,,,,,,,,,,,,,,,,
3178,97,,Xã Xá Tổng,Xã Xá Tổng,,,,,,,,,,,,,,,,,,,,
3181,97,,Xã Mường Tùng,Xã Mường Tùng,,,,,,,,,,,,,,,,,,,,
3187,97,,Xã Chà Nưa,Xã Chà Nưa,,,,,,,,,,,,,,,,,,,,
3190,97,,Xã Hừa Ngài,Xã Hừa Ngài,,,,,,,,,,,,,,,,,,,,
3193,97,,Xã Pa Ham,Xã Pa Ham,,,,,,,,,,,,,,,,,,,,
3196,97,,Xã Huổi Lèng,Xã Huổi Lèng,,,,,,,,,,,,,,,,,,,,
3197,97,,Xã Sa Lông,Xã Sa Lông,,,,,,,,,,,,,,,,,,,,
3198,97,,Xã Phìn Hồ,Xã Phìn Hồ,,,,,,,,,,,,,,,,,,,,
3199,97,,Xã Si Pa Phìn,Xã Si Pa Phìn,,,,,,,,,,,,,,,,,,,,
3200,97,,Xã Ma Thì Hồ,Xã Ma Thì Hồ,,,,,,,,,,,,,,,,,,,,
3201,97,,Xã Na Sang,Xã Na Sang,,,,,,,,,,,,,,,,,,,,
3202,97,,Xã Mường Mươn,Xã Mường Mươn,,,,,,,,,,,,,,,,,,,,
98,11,,Huyện Tủa Chùa,Huyện Tủa Chùa,,,,,,,,,,,,,,,,,,,,
3217,98,,Thị trấn Tủa Chùa,Thị trấn Tủa Chùa,,,,,,,,,,,,,,,,,,,,
3220,98,,Xã Huổi Só,Xã Huổi Só,,,,,,,,,,,,,,,,,,,,
3223,98,,Xã Xín Chải,Xã Xín Chải,,,,,,,,,,,,,,,,,,,,
3226,98,,Xã Tả Sìn Thàng,Xã Tả Sìn Thàng,,,,,,,,,,,,,,,,,,,,
3229,98,,Xã Lao Xả Phình,Xã Lao Xả Phình,,,,,,,,,,,,,,,,,,,,
3232,98,,Xã Tả Phìn,Xã Tả Phìn,,,,,,,,,,,,,,,,,,,,
3235,98,,Xã Tủa Thàng,Xã Tủa Thàng,,,,,,,,,,,,,,,,,,,,
3238,98,,Xã Trung Thu,Xã Trung Thu,,,,,,,,,,,,,,,,,,,,
3241,98,,Xã Sính Phình,Xã Sính Phình,,,,,,,,,,,,,,,,,,,,
3244,98,,Xã Sáng Nhè,Xã Sáng Nhè,,,,,,,,,,,,,,,,,,,,
3247,98,,Xã Mường Đun,Xã Mường Đun,,,,,,,,,,,,,,,,,,,,
3250,98,,Xã Mường Báng,Xã Mường Báng,,,,,,,,,,,,,,,,,,,,
99,11,,Huyện Tuần Giáo,Huyện Tuần Giáo,,,,,,,,,,,,,,,,,,,,
3253,99,,Thị trấn Tuần Giáo,Thị trấn Tuần Giáo,,,,,,,,,,,,,,,,,,,,
3259,99,,Xã Phình Sáng,Xã Phình Sáng,,,,,,,,,,,,,,,,,,,,
3262,99,,Xã Mùn Chung,Xã Mùn Chung,,,,,,,,,,,,,,,,,,,,
3265,99,,Xã Ta Ma,Xã Ta Ma,,,,,,,,,,,,,,,,,,,,
3268,99,,Xã Mường Mùn,Xã Mường Mùn,,,,,,,,,,,,,,,,,,,,
3271,99,,Xã Pú Nhung,Xã Pú Nhung,,,,,,,,,,,,,,,,,,,,
3274,99,,Xã Quài Nưa,Xã Quài Nưa,,,,,,,,,,,,,,,,,,,,
3277,99,,Xã Mường Thín,Xã Mường Thín,,,,,,,,,,,,,,,,,,,,
3280,99,,Xã Tỏa Tình,Xã Tỏa Tình,,,,,,,,,,,,,,,,,,,,
3283,99,,Xã Nà Sáy,Xã Nà Sáy,,,,,,,,,,,,,,,,,,,,
3289,99,,Xã Quài Cang,Xã Quài Cang,,,,,,,,,,,,,,,,,,,,
3295,99,,Xã Quài Tở,Xã Quài Tở,,,,,,,,,,,,,,,,,,,,
3298,99,,Xã Chiềng Sinh,Xã Chiềng Sinh,,,,,,,,,,,,,,,,,,,,
3304,99,,Xã Tênh Phông,Xã Tênh Phông,,,,,,,,,,,,,,,,,,,,
100,11,,Huyện Điện Biên,Huyện Điện Biên,,,,,,,,,,,,,,,,,,,,
3316,100,,Xã Nà Tấu,Xã Nà Tấu,,,,,,,,,,,,,,,,,,,,
3317,100,,Xã Nà Nhạn,Xã Nà Nhạn,,,,,,,,,,,,,,,,,,,,
3319,100,,Xã Mường Pồn,Xã Mường Pồn,,,,,,,,,,,,,,,,,,,,
3322,100,,Xã Thanh Nưa,Xã Thanh Nưa,,,,,,,,,,,,,,,,,,,,
3325,100,,Xã Mường Phăng,Xã Mường Phăng,,,,,,,,,,,,,,,,,,,,
3328,100,,Xã Thanh Luông,Xã Thanh Luông,,,,,,,,,,,,,,,,,,,,
3331,100,,Xã Thanh Hưng,Xã Thanh Hưng,,,,,,,,,,,,,,,,,,,,
3334,100,,Xã Thanh Xương,Xã Thanh Xương,,,,,,,,,,,,,,,,,,,,
3337,100,,Xã Thanh Chăn,Xã Thanh Chăn,,,,,,,,,,,,,,,,,,,,
3340,100,,Xã Pa Thơm,Xã Pa Thơm,,,,,,,,,,,,,,,,,,,,
3343,100,,Xã Thanh An,Xã Thanh An,,,,,,,,,,,,,,,,,,,,
3346,100,,Xã Thanh Yên,Xã Thanh Yên,,,,,,,,,,,,,,,,,,,,
3349,100,,Xã Noong Luống,Xã Noong Luống,,,,,,,,,,,,,,,,,,,,
3352,100,,Xã Noọng Hẹt,Xã Noọng Hẹt,,,,,,,,,,,,,,,,,,,,
3355,100,,Xã Sam Mứn,Xã Sam Mứn,,,,,,,,,,,,,,,,,,,,
3358,100,,Xã Núa Ngam,Xã Núa Ngam,,,,,,,,,,,,,,,,,,,,
3361,100,,Xã Na Ư,Xã Na Ư,,,,,,,,,,,,,,,,,,,,
3364,100,,Xã Mường Nhà,Xã Mường Nhà,,,,,,,,,,,,,,,,,,,,
3367,100,,Xã Mường Lói,Xã Mường Lói,,,,,,,,,,,,,,,,,,,,
101,11,,Huyện Điện Biên Đông,Huyện Điện Biên Đông,,,,,,,,,,,,,,,,,,,,
3203,101,,Thị trấn Điện Biên Đông,Thị trấn Điện Biên Đông,,,,,,,,,,,,,,,,,,,,
3205,101,,Xã Na Son,Xã Na Son,,,,,,,,,,,,,,,,,,,,
3208,101,,Xã Phì Nhừ,Xã Phì Nhừ,,,,,,,,,,,,,,,,,,,,
3211,101,,Xã Chiềng Sơ,Xã Chiềng Sơ,,,,,,,,,,,,,,,,,,,,
3214,101,,Xã Mường Luân,Xã Mường Luân,,,,,,,,,,,,,,,,,,,,
3370,101,,Xã Pú Nhi,Xã Pú Nhi,,,,,,,,,,,,,,,,,,,,
3371,101,,Xã Nong U,Xã Nong U,,,,,,,,,,,,,,,,,,,,
3373,101,,Xã Xa Dung,Xã Xa Dung,,,,,,,,,,,,,,,,,,,,
3376,101,,Xã Keo Lôm,Xã Keo Lôm,,,,,,,,,,,,,,,,,,,,
3379,101,,Xã Luân Giới,Xã Luân Giới,,,,,,,,,,,,,,,,,,,,
3382,101,,Xã Phình Giàng,Xã Phình Giàng,,,,,,,,,,,,,,,,,,,,
3383,101,,Xã Pú Hồng,Xã Pú Hồng,,,,,,,,,,,,,,,,,,,,
3384,101,,Xã Tìa Dình,Xã Tìa Dình,,,,,,,,,,,,,,,,,,,,
3385,101,,Xã Háng Lìa,Xã Háng Lìa,,,,,,,,,,,,,,,,,,,,
102,11,,Huyện Mường Ảng,Huyện Mường Ảng,,,,,,,,,,,,,,,,,,,,
3256,102,,Thị trấn Mường Ảng,Thị trấn Mường Ảng,,,,,,,,,,,,,,,,,,,,
3286,102,,Xã Mường Đăng,Xã Mường Đăng,,,,,,,,,,,,,,,,,,,,
3287,102,,Xã Ngối Cáy,Xã Ngối Cáy,,,,,,,,,,,,,,,,,,,,
3292,102,,Xã Ẳng Tở,Xã Ẳng Tở,,,,,,,,,,,,,,,,,,,,
3301,102,,Xã Búng Lao,Xã Búng Lao,,,,,,,,,,,,,,,,,,,,
3302,102,,Xã Xuân Lao,Xã Xuân Lao,,,,,,,,,,,,,,,,,,,,
3307,102,,Xã Ẳng Nưa,Xã Ẳng Nưa,,,,,,,,,,,,,,,,,,,,
3310,102,,Xã Ẳng Cang,Xã Ẳng Cang,,,,,,,,,,,,,,,,,,,,
3312,102,,Xã Nặm Lịch,Xã Nặm Lịch,,,,,,,,,,,,,,,,,,,,
3313,102,,Xã Mường Lạn,Xã Mường Lạn,,,,,,,,,,,,,,,,,,,,
1,,,Việt Nam,Việt Nam,,,,,,,,,,,,,,,,,,,,
99999,666,,Bệnh viện ĐK huyện,Bệnh viện ĐK huyện,,,,,,,,,,,,,,,,,,,,
100000,666,,TTYT huyện,TTYT huyện,,,,,,,,,,,,,,,,,,,,
100001,666,,Phòng khám ĐKKV,Phòng khám ĐKKV,,,,,,,,,,,,,,,,,,,,
100002,666,,Bệnh xá quân y,Bệnh xá quân y,,,,,,,,,,,,,,,,,,,,
100003,666,,Cơ sở khác (không bao gồm YT tư nhân),Cơ sở khác (không bao gồm YT tư nhân),,,,,,,,,,,,,,,,,,,,
100004,665,,Bệnh viện ĐK huyện,Bệnh viện ĐK huyện,,,,,,,,,,,,,,,,,,,,
100005,665,,TTYT huyện,TTYT huyện,,,,,,,,,,,,,,,,,,,,
100006,665,,Phòng khám ĐKKV,Phòng khám ĐKKV,,,,,,,,,,,,,,,,,,,,
100007,665,,Bệnh xá quân y,Bệnh xá quân y,,,,,,,,,,,,,,,,,,,,
100008,665,,Cơ sở khác (không bao gồm YT tư nhân),Cơ sở khác (không bao gồm YT tư nhân),,,,,,,,,,,,,,,,,,,,
100009,664,,Bệnh viện ĐK huyện,Bệnh viện ĐK huyện,,,,,,,,,,,,,,,,,,,,
100010,664,,TTYT huyện,TTYT huyện,,,,,,,,,,,,,,,,,,,,
100011,664,,Phòng khám ĐKKV,Phòng khám ĐKKV,,,,,,,,,,,,,,,,,,,,
100012,664,,Bệnh xá quân y,Bệnh xá quân y,,,,,,,,,,,,,,,,,,,,
100013,664,,Cơ sở khác (không bao gồm YT tư nhân),Cơ sở khác (không bao gồm YT tư nhân),,,,,,,,,,,,,,,,,,,,
100014,663,,Bệnh viện ĐK huyện,Bệnh viện ĐK huyện,,,,,,,,,,,,,,,,,,,,
100015,663,,TTYT huyện,TTYT huyện,,,,,,,,,,,,,,,,,,,,
100016,663,,Phòng khám ĐKKV,Phòng khám ĐKKV,,,,,,,,,,,,,,,,,,,,
100017,663,,Bệnh xá quân y,Bệnh xá quân y,,,,,,,,,,,,,,,,,,,,
100018,663,,Cơ sở khác (không bao gồm YT tư nhân),Cơ sở khác (không bao gồm YT tư nhân),,,,,,,,,,,,,,,,,,,,
100019,662,,Bệnh viện ĐK huyện,Bệnh viện ĐK huyện,,,,,,,,,,,,,,,,,,,,
100020,662,,TTYT huyện,TTYT huyện,,,,,,,,,,,,,,,,,,,,
100021,662,,Phòng khám ĐKKV,Phòng khám ĐKKV,,,,,,,,,,,,,,,,,,,,
100022,662,,Bệnh xá quân y,Bệnh xá quân y,,,,,,,,,,,,,,,,,,,,
100023,662,,Cơ sở khác (không bao gồm YT tư nhân),Cơ sở khác (không bao gồm YT tư nhân),,,,,,,,,,,,,,,,,,,,
100024,661,,Bệnh viện ĐK huyện,Bệnh viện ĐK huyện,,,,,,,,,,,,,,,,,,,,
100025,661,,TTYT huyện,TTYT huyện,,,,,,,,,,,,,,,,,,,,
100026,661,,Phòng khám ĐKKV,Phòng khám ĐKKV,,,,,,,,,,,,,,,,,,,,
100027,661,,Bệnh xá quân y,Bệnh xá quân y,,,,,,,,,,,,,,,,,,,,
100028,661,,Cơ sở khác (không bao gồm YT tư nhân),Cơ sở khác (không bao gồm YT tư nhân),,,,,,,,,,,,,,,,,,,,
100029,660,,Bệnh viện ĐK huyện,Bệnh viện ĐK huyện,,,,,,,,,,,,,,,,,,,,
100030,660,,TTYT huyện,TTYT huyện,,,,,,,,,,,,,,,,,,,,
100031,660,,Phòng khám ĐKKV,Phòng khám ĐKKV,,,,,,,,,,,,,,,,,,,,
100032,660,,Bệnh xá quân y,Bệnh xá quân y,,,,,,,,,,,,,,,,,,,,
100033,660,,Cơ sở khác (không bao gồm YT tư nhân),Cơ sở khác (không bao gồm YT tư nhân),,,,,,,,,,,,,,,,,,,,
100034,105,,Bệnh viện ĐK huyện,Bệnh viện ĐK huyện,,,,,,,,,,,,,,,,,,,,
100035,105,,TTYT huyện,TTYT huyện,,,,,,,,,,,,,,,,,,,,
100036,105,,Phòng khám ĐKKV,Phòng khám ĐKKV,,,,,,,,,,,,,,,,,,,,
100037,105,,Bệnh xá quân y,Bệnh xá quân y,,,,,,,,,,,,,,,,,,,,
100038,105,,Cơ sở khác (không bao gồm YT tư nhân),Cơ sở khác (không bao gồm YT tư nhân),,,,,,,,,,,,,,,,,,,,
100039,106,,Bệnh viện ĐK huyện,Bệnh viện ĐK huyện,,,,,,,,,,,,,,,,,,,,
100040,106,,TTYT huyện,TTYT huyện,,,,,,,,,,,,,,,,,,,,
100041,106,,Phòng khám ĐKKV,Phòng khám ĐKKV,,,,,,,,,,,,,,,,,,,,
100042,106,,Bệnh xá quân y,Bệnh xá quân y,,,,,,,,,,,,,,,,,,,,
100043,106,,Cơ sở khác (không bao gồm YT tư nhân),Cơ sở khác (không bao gồm YT tư nhân),,,,,,,,,,,,,,,,,,,,
100044,107,,Bệnh viện ĐK huyện,Bệnh viện ĐK huyện,,,,,,,,,,,,,,,,,,,,
100045,107,,TTYT huyện,TTYT huyện,,,,,,,,,,,,,,,,,,,,
100046,107,,Phòng khám ĐKKV,Phòng khám ĐKKV,,,,,,,,,,,,,,,,,,,,
100047,107,,Bệnh xá quân y,Bệnh xá quân y,,,,,,,,,,,,,,,,,,,,
100048,107,,Cơ sở khác (không bao gồm YT tư nhân),Cơ sở khác (không bao gồm YT tư nhân),,,,,,,,,,,,,,,,,,,,
100049,108,,Bệnh viện ĐK huyện,Bệnh viện ĐK huyện,,,,,,,,,,,,,,,,,,,,
100050,108,,TTYT huyện,TTYT huyện,,,,,,,,,,,,,,,,,,,,
100051,108,,Phòng khám ĐKKV,Phòng khám ĐKKV,,,,,,,,,,,,,,,,,,,,
100052,108,,Bệnh xá quân y,Bệnh xá quân y,,,,,,,,,,,,,,,,,,,,
100053,108,,Cơ sở khác (không bao gồm YT tư nhân),Cơ sở khác (không bao gồm YT tư nhân),,,,,,,,,,,,,,,,,,,,
100054,109,,Bệnh viện ĐK huyện,Bệnh viện ĐK huyện,,,,,,,,,,,,,,,,,,,,
100055,109,,TTYT huyện,TTYT huyện,,,,,,,,,,,,,,,,,,,,
100056,109,,Phòng khám ĐKKV,Phòng khám ĐKKV,,,,,,,,,,,,,,,,,,,,
100057,109,,Bệnh xá quân y,Bệnh xá quân y,,,,,,,,,,,,,,,,,,,,
100058,109,,Cơ sở khác (không bao gồm YT tư nhân),Cơ sở khác (không bao gồm YT tư nhân),,,,,,,,,,,,,,,,,,,,
100059,110,,Bệnh viện ĐK huyện,Bệnh viện ĐK huyện,,,,,,,,,,,,,,,,,,,,
100060,110,,TTYT huyện,TTYT huyện,,,,,,,,,,,,,,,,,,,,
100061,110,,Phòng khám ĐKKV,Phòng khám ĐKKV,,,,,,,,,,,,,,,,,,,,
100062,110,,Bệnh xá quân y,Bệnh xá quân y,,,,,,,,,,,,,,,,,,,,
100063,110,,Cơ sở khác (không bao gồm YT tư nhân),Cơ sở khác (không bao gồm YT tư nhân),,,,,,,,,,,,,,,,,,,,
100064,111,,Bệnh viện ĐK huyện,Bệnh viện ĐK huyện,,,,,,,,,,,,,,,,,,,,
100065,111,,TTYT huyện,TTYT huyện,,,,,,,,,,,,,,,,,,,,
100066,111,,Phòng khám ĐKKV,Phòng khám ĐKKV,,,,,,,,,,,,,,,,,,,,
100067,111,,Bệnh xá quân y,Bệnh xá quân y,,,,,,,,,,,,,,,,,,,,
100068,111,,Cơ sở khác (không bao gồm YT tư nhân),Cơ sở khác (không bao gồm YT tư nhân),,,,,,,,,,,,,,,,,,,,
100069,116,,Bệnh viện ĐK huyện,Bệnh viện ĐK huyện,,,,,,,,,,,,,,,,,,,,
100070,116,,TTYT huyện,TTYT huyện,,,,,,,,,,,,,,,,,,,,
100071,116,,Phòng khám ĐKKV,Phòng khám ĐKKV,,,,,,,,,,,,,,,,,,,,
100072,116,,Bệnh xá quân y,Bệnh xá quân y,,,,,,,,,,,,,,,,,,,,
100073,116,,Cơ sở khác (không bao gồm YT tư nhân),Cơ sở khác (không bao gồm YT tư nhân),,,,,,,,,,,,,,,,,,,,
100074,118,,Bệnh viện ĐK huyện,Bệnh viện ĐK huyện,,,,,,,,,,,,,,,,,,,,
100075,118,,TTYT huyện,TTYT huyện,,,,,,,,,,,,,,,,,,,,
100076,118,,Phòng khám ĐKKV,Phòng khám ĐKKV,,,,,,,,,,,,,,,,,,,,
100077,118,,Bệnh xá quân y,Bệnh xá quân y,,,,,,,,,,,,,,,,,,,,
100078,118,,Cơ sở khác (không bao gồm YT tư nhân),Cơ sở khác (không bao gồm YT tư nhân),,,,,,,,,,,,,,,,,,,,
100079,119,,Bệnh viện ĐK huyện,Bệnh viện ĐK huyện,,,,,,,,,,,,,,,,,,,,
100080,119,,TTYT huyện,TTYT huyện,,,,,,,,,,,,,,,,,,,,
100081,119,,Phòng khám ĐKKV,Phòng khám ĐKKV,,,,,,,,,,,,,,,,,,,,
100082,119,,Bệnh xá quân y,Bệnh xá quân y,,,,,,,,,,,,,,,,,,,,
100083,119,,Cơ sở khác (không bao gồm YT tư nhân),Cơ sở khác (không bao gồm YT tư nhân),,,,,,,,,,,,,,,,,,,,
100084,120,,Bệnh viện ĐK huyện,Bệnh viện ĐK huyện,,,,,,,,,,,,,,,,,,,,
100085,120,,TTYT huyện,TTYT huyện,,,,,,,,,,,,,,,,,,,,
100086,120,,Phòng khám ĐKKV,Phòng khám ĐKKV,,,,,,,,,,,,,,,,,,,,
100087,120,,Bệnh xá quân y,Bệnh xá quân y,,,,,,,,,,,,,,,,,,,,
100088,120,,Cơ sở khác (không bao gồm YT tư nhân),Cơ sở khác (không bao gồm YT tư nhân),,,,,,,,,,,,,,,,,,,,
100089,121,,Bệnh viện ĐK huyện,Bệnh viện ĐK huyện,,,,,,,,,,,,,,,,,,,,
100090,121,,TTYT huyện,TTYT huyện,,,,,,,,,,,,,,,,,,,,
100091,121,,Phòng khám ĐKKV,Phòng khám ĐKKV,,,,,,,,,,,,,,,,,,,,
100092,121,,Bệnh xá quân y,Bệnh xá quân y,,,,,,,,,,,,,,,,,,,,
100093,121,,Cơ sở khác (không bao gồm YT tư nhân),Cơ sở khác (không bao gồm YT tư nhân),,,,,,,,,,,,,,,,,,,,
100094,122,,Bệnh viện ĐK huyện,Bệnh viện ĐK huyện,,,,,,,,,,,,,,,,,,,,
100095,122,,TTYT huyện,TTYT huyện,,,,,,,,,,,,,,,,,,,,
100096,122,,Phòng khám ĐKKV,Phòng khám ĐKKV,,,,,,,,,,,,,,,,,,,,
100097,122,,Bệnh xá quân y,Bệnh xá quân y,,,,,,,,,,,,,,,,,,,,
100098,122,,Cơ sở khác (không bao gồm YT tư nhân),Cơ sở khác (không bao gồm YT tư nhân),,,,,,,,,,,,,,,,,,,,
100099,123,,Bệnh viện ĐK huyện,Bệnh viện ĐK huyện,,,,,,,,,,,,,,,,,,,,
100100,123,,TTYT huyện,TTYT huyện,,,,,,,,,,,,,,,,,,,,
100101,123,,Phòng khám ĐKKV,Phòng khám ĐKKV,,,,,,,,,,,,,,,,,,,,
100102,123,,Bệnh xá quân y,Bệnh xá quân y,,,,,,,,,,,,,,,,,,,,
100103,123,,Cơ sở khác (không bao gồm YT tư nhân),Cơ sở khác (không bao gồm YT tư nhân),,,,,,,,,,,,,,,,,,,,
100104,124,,Bệnh viện ĐK huyện,Bệnh viện ĐK huyện,,,,,,,,,,,,,,,,,,,,
100105,124,,TTYT huyện,TTYT huyện,,,,,,,,,,,,,,,,,,,,
100106,124,,Phòng khám ĐKKV,Phòng khám ĐKKV,,,,,,,,,,,,,,,,,,,,
100107,124,,Bệnh xá quân y,Bệnh xá quân y,,,,,,,,,,,,,,,,,,,,
100108,124,,Cơ sở khác (không bao gồm YT tư nhân),Cơ sở khác (không bao gồm YT tư nhân),,,,,,,,,,,,,,,,,,,,
100109,125,,Bệnh viện ĐK huyện,Bệnh viện ĐK huyện,,,,,,,,,,,,,,,,,,,,
100110,125,,TTYT huyện,TTYT huyện,,,,,,,,,,,,,,,,,,,,
100111,125,,Phòng khám ĐKKV,Phòng khám ĐKKV,,,,,,,,,,,,,,,,,,,,
100112,125,,Bệnh xá quân y,Bệnh xá quân y,,,,,,,,,,,,,,,,,,,,
100113,125,,Cơ sở khác (không bao gồm YT tư nhân),Cơ sở khác (không bao gồm YT tư nhân),,,,,,,,,,,,,,,,,,,,
100114,126,,Bệnh viện ĐK huyện,Bệnh viện ĐK huyện,,,,,,,,,,,,,,,,,,,,
100115,126,,TTYT huyện,TTYT huyện,,,,,,,,,,,,,,,,,,,,
100116,126,,Phòng khám ĐKKV,Phòng khám ĐKKV,,,,,,,,,,,,,,,,,,,,
100117,126,,Bệnh xá quân y,Bệnh xá quân y,,,,,,,,,,,,,,,,,,,,
100118,126,,Cơ sở khác (không bao gồm YT tư nhân),Cơ sở khác (không bao gồm YT tư nhân),,,,,,,,,,,,,,,,,,,,
100119,127,,Bệnh viện ĐK huyện,Bệnh viện ĐK huyện,,,,,,,,,,,,,,,,,,,,
100120,127,,TTYT huyện,TTYT huyện,,,,,,,,,,,,,,,,,,,,
100121,127,,Phòng khám ĐKKV,Phòng khám ĐKKV,,,,,,,,,,,,,,,,,,,,
100122,127,,Bệnh xá quân y,Bệnh xá quân y,,,,,,,,,,,,,,,,,,,,
100123,127,,Cơ sở khác (không bao gồm YT tư nhân),Cơ sở khác (không bao gồm YT tư nhân),,,,,,,,,,,,,,,,,,,,
100124,94,,Bệnh viện ĐK huyện,Bệnh viện ĐK huyện,,,,,,,,,,,,,,,,,,,,
100125,94,,TTYT huyện,TTYT huyện,,,,,,,,,,,,,,,,,,,,
100126,94,,Phòng khám ĐKKV,Phòng khám ĐKKV,,,,,,,,,,,,,,,,,,,,
100127,94,,Bệnh xá quân y,Bệnh xá quân y,,,,,,,,,,,,,,,,,,,,
100128,94,,Cơ sở khác (không bao gồm YT tư nhân),Cơ sở khác (không bao gồm YT tư nhân),,,,,,,,,,,,,,,,,,,,
100129,95,,Bệnh viện ĐK huyện,Bệnh viện ĐK huyện,,,,,,,,,,,,,,,,,,,,
100130,95,,TTYT huyện,TTYT huyện,,,,,,,,,,,,,,,,,,,,
100131,95,,Phòng khám ĐKKV,Phòng khám ĐKKV,,,,,,,,,,,,,,,,,,,,
100132,95,,Bệnh xá quân y,Bệnh xá quân y,,,,,,,,,,,,,,,,,,,,
100133,95,,Cơ sở khác (không bao gồm YT tư nhân),Cơ sở khác (không bao gồm YT tư nhân),,,,,,,,,,,,,,,,,,,,
100134,96,,Bệnh viện ĐK huyện,Bệnh viện ĐK huyện,,,,,,,,,,,,,,,,,,,,
100135,96,,TTYT huyện,TTYT huyện,,,,,,,,,,,,,,,,,,,,
100136,96,,Phòng khám ĐKKV,Phòng khám ĐKKV,,,,,,,,,,,,,,,,,,,,
100137,96,,Bệnh xá quân y,Bệnh xá quân y,,,,,,,,,,,,,,,,,,,,
100138,96,,Cơ sở khác (không bao gồm YT tư nhân),Cơ sở khác (không bao gồm YT tư nhân),,,,,,,,,,,,,,,,,,,,
100139,97,,Bệnh viện ĐK huyện,Bệnh viện ĐK huyện,,,,,,,,,,,,,,,,,,,,
100140,97,,TTYT huyện,TTYT huyện,,,,,,,,,,,,,,,,,,,,
100141,97,,Phòng khám ĐKKV,Phòng khám ĐKKV,,,,,,,,,,,,,,,,,,,,
100142,97,,Bệnh xá quân y,Bệnh xá quân y,,,,,,,,,,,,,,,,,,,,
100143,97,,Cơ sở khác (không bao gồm YT tư nhân),Cơ sở khác (không bao gồm YT tư nhân),,,,,,,,,,,,,,,,,,,,
100144,98,,Bệnh viện ĐK huyện,Bệnh viện ĐK huyện,,,,,,,,,,,,,,,,,,,,
100145,98,,TTYT huyện,TTYT huyện,,,,,,,,,,,,,,,,,,,,
100146,98,,Phòng khám ĐKKV,Phòng khám ĐKKV,,,,,,,,,,,,,,,,,,,,
100147,98,,Bệnh xá quân y,Bệnh xá quân y,,,,,,,,,,,,,,,,,,,,
100148,98,,Cơ sở khác (không bao gồm YT tư nhân),Cơ sở khác (không bao gồm YT tư nhân),,,,,,,,,,,,,,,,,,,,
100149,99,,Bệnh viện ĐK huyện,Bệnh viện ĐK huyện,,,,,,,,,,,,,,,,,,,,
100150,99,,TTYT huyện,TTYT huyện,,,,,,,,,,,,,,,,,,,,
100151,99,,Phòng khám ĐKKV,Phòng khám ĐKKV,,,,,,,,,,,,,,,,,,,,
100152,99,,Bệnh xá quân y,Bệnh xá quân y,,,,,,,,,,,,,,,,,,,,
100153,99,,Cơ sở khác (không bao gồm YT tư nhân),Cơ sở khác (không bao gồm YT tư nhân),,,,,,,,,,,,,,,,,,,,
100154,100,,Bệnh viện ĐK huyện,Bệnh viện ĐK huyện,,,,,,,,,,,,,,,,,,,,
100155,100,,TTYT huyện,TTYT huyện,,,,,,,,,,,,,,,,,,,,
100156,100,,Phòng khám ĐKKV,Phòng khám ĐKKV,,,,,,,,,,,,,,,,,,,,
100157,100,,Bệnh xá quân y,Bệnh xá quân y,,,,,,,,,,,,,,,,,,,,
100158,100,,Cơ sở khác (không bao gồm YT tư nhân),Cơ sở khác (không bao gồm YT tư nhân),,,,,,,,,,,,,,,,,,,,
100159,101,,Bệnh viện ĐK huyện,Bệnh viện ĐK huyện,,,,,,,,,,,,,,,,,,,,
100160,101,,TTYT huyện,TTYT huyện,,,,,,,,,,,,,,,,,,,,
100161,101,,Phòng khám ĐKKV,Phòng khám ĐKKV,,,,,,,,,,,,,,,,,,,,
100162,101,,Bệnh xá quân y,Bệnh xá quân y,,,,,,,,,,,,,,,,,,,,
100163,101,,Cơ sở khác (không bao gồm YT tư nhân),Cơ sở khác (không bao gồm YT tư nhân),,,,,,,,,,,,,,,,,,,,
100164,102,,Bệnh viện ĐK huyện,Bệnh viện ĐK huyện,,,,,,,,,,,,,,,,,,,,
100165,102,,TTYT huyện,TTYT huyện,,,,,,,,,,,,,,,,,,,,
100166,102,,Phòng khám ĐKKV,Phòng khám ĐKKV,,,,,,,,,,,,,,,,,,,,
100167,102,,Bệnh xá quân y,Bệnh xá quân y,,,,,,,,,,,,,,,,,,,,
100168,102,,Cơ sở khác (không bao gồm YT tư nhân),Cơ sở khác (không bao gồm YT tư nhân),,,,,,,,,,,,,,,,,,,,
100169,608,,Bệnh viện ĐK huyện,Bệnh viện ĐK huyện,,,,,,,,,,,,,,,,,,,,
100170,608,,TTYT huyện,TTYT huyện,,,,,,,,,,,,,,,,,,,,
100171,608,,Phòng khám ĐKKV,Phòng khám ĐKKV,,,,,,,,,,,,,,,,,,,,
100172,608,,Bệnh xá quân y,Bệnh xá quân y,,,,,,,,,,,,,,,,,,,,
100173,608,,Cơ sở khác (không bao gồm YT tư nhân),Cơ sở khác (không bao gồm YT tư nhân),,,,,,,,,,,,,,,,,,,,
100174,610,,Bệnh viện ĐK huyện,Bệnh viện ĐK huyện,,,,,,,,,,,,,,,,,,,,
100175,610,,TTYT huyện,TTYT huyện,,,,,,,,,,,,,,,,,,,,
100176,610,,Phòng khám ĐKKV,Phòng khám ĐKKV,,,,,,,,,,,,,,,,,,,,
100177,610,,Bệnh xá quân y,Bệnh xá quân y,,,,,,,,,,,,,,,,,,,,
100178,610,,Cơ sở khác (không bao gồm YT tư nhân),Cơ sở khác (không bao gồm YT tư nhân),,,,,,,,,,,,,,,,,,,,
100179,611,,Bệnh viện ĐK huyện,Bệnh viện ĐK huyện,,,,,,,,,,,,,,,,,,,,
100180,611,,TTYT huyện,TTYT huyện,,,,,,,,,,,,,,,,,,,,
100181,611,,Phòng khám ĐKKV,Phòng khám ĐKKV,,,,,,,,,,,,,,,,,,,,
100182,611,,Bệnh xá quân y,Bệnh xá quân y,,,,,,,,,,,,,,,,,,,,
100183,611,,Cơ sở khác (không bao gồm YT tư nhân),Cơ sở khác (không bao gồm YT tư nhân),,,,,,,,,,,,,,,,,,,,
100184,612,,Bệnh viện ĐK huyện,Bệnh viện ĐK huyện,,,,,,,,,,,,,,,,,,,,
100185,612,,TTYT huyện,TTYT huyện,,,,,,,,,,,,,,,,,,,,
100186,612,,Phòng khám ĐKKV,Phòng khám ĐKKV,,,,,,,,,,,,,,,,,,,,
100187,612,,Bệnh xá quân y,Bệnh xá quân y,,,,,,,,,,,,,,,,,,,,
100188,612,,Cơ sở khác (không bao gồm YT tư nhân),Cơ sở khác (không bao gồm YT tư nhân),,,,,,,,,,,,,,,,,,,,
100189,613,,Bệnh viện ĐK huyện,Bệnh viện ĐK huyện,,,,,,,,,,,,,,,,,,,,
100190,613,,TTYT huyện,TTYT huyện,,,,,,,,,,,,,,,,,,,,
100191,613,,Phòng khám ĐKKV,Phòng khám ĐKKV,,,,,,,,,,,,,,,,,,,,
100192,613,,Bệnh xá quân y,Bệnh xá quân y,,,,,,,,,,,,,,,,,,,,
100193,613,,Cơ sở khác (không bao gồm YT tư nhân),Cơ sở khác (không bao gồm YT tư nhân),,,,,,,,,,,,,,,,,,,,
100194,614,,Bệnh viện ĐK huyện,Bệnh viện ĐK huyện,,,,,,,,,,,,,,,,,,,,
100195,614,,TTYT huyện,TTYT huyện,,,,,,,,,,,,,,,,,,,,
100196,614,,Phòng khám ĐKKV,Phòng khám ĐKKV,,,,,,,,,,,,,,,,,,,,
100197,614,,Bệnh xá quân y,Bệnh xá quân y,,,,,,,,,,,,,,,,,,,,
100198,614,,Cơ sở khác (không bao gồm YT tư nhân),Cơ sở khác (không bao gồm YT tư nhân),,,,,,,,,,,,,,,,,,,,
100199,615,,Bệnh viện ĐK huyện,Bệnh viện ĐK huyện,,,,,,,,,,,,,,,,,,,,
100200,615,,TTYT huyện,TTYT huyện,,,,,,,,,,,,,,,,,,,,
100201,615,,Phòng khám ĐKKV,Phòng khám ĐKKV,,,,,,,,,,,,,,,,,,,,
100202,615,,Bệnh xá quân y,Bệnh xá quân y,,,,,,,,,,,,,,,,,,,,
100203,615,,Cơ sở khác (không bao gồm YT tư nhân),Cơ sở khác (không bao gồm YT tư nhân),,,,,,,,,,,,,,,,,,,,
100204,616,,Bệnh viện ĐK huyện,Bệnh viện ĐK huyện,,,,,,,,,,,,,,,,,,,,
100205,616,,TTYT huyện,TTYT huyện,,,,,,,,,,,,,,,,,,,,
100206,616,,Phòng khám ĐKKV,Phòng khám ĐKKV,,,,,,,,,,,,,,,,,,,,
100207,616,,Bệnh xá quân y,Bệnh xá quân y,,,,,,,,,,,,,,,,,,,,
100208,616,,Cơ sở khác (không bao gồm YT tư nhân),Cơ sở khác (không bao gồm YT tư nhân),,,,,,,,,,,,,,,,,,,,
100209,617,,Bệnh viện ĐK huyện,Bệnh viện ĐK huyện,,,,,,,,,,,,,,,,,,,,
100210,617,,TTYT huyện,TTYT huyện,,,,,,,,,,,,,,,,,,,,
100211,617,,Phòng khám ĐKKV,Phòng khám ĐKKV,,,,,,,,,,,,,,,,,,,,
100212,617,,Bệnh xá quân y,Bệnh xá quân y,,,,,,,,,,,,,,,,,,,,
100213,617,,Cơ sở khác (không bao gồm YT tư nhân),Cơ sở khác (không bao gồm YT tư nhân),,,,,,,,,,,,,,,,,,,,
100214,622,,Bệnh viện ĐK huyện,Bệnh viện ĐK huyện,,,,,,,,,,,,,,,,,,,,
100215,622,,TTYT huyện,TTYT huyện,,,,,,,,,,,,,,,,,,,,
100216,622,,Phòng khám ĐKKV,Phòng khám ĐKKV,,,,,,,,,,,,,,,,,,,,
100217,622,,Bệnh xá quân y,Bệnh xá quân y,,,,,,,,,,,,,,,,,,,,
100218,622,,Cơ sở khác (không bao gồm YT tư nhân),Cơ sở khác (không bao gồm YT tư nhân),,,,,,,,,,,,,,,,,,,,
100219,623,,Bệnh viện ĐK huyện,Bệnh viện ĐK huyện,,,,,,,,,,,,,,,,,,,,
100220,623,,TTYT huyện,TTYT huyện,,,,,,,,,,,,,,,,,,,,
100221,623,,Phòng khám ĐKKV,Phòng khám ĐKKV,,,,,,,,,,,,,,,,,,,,
100222,623,,Bệnh xá quân y,Bệnh xá quân y,,,,,,,,,,,,,,,,,,,,
100223,623,,Cơ sở khác (không bao gồm YT tư nhân),Cơ sở khác (không bao gồm YT tư nhân),,,,,,,,,,,,,,,,,,,,
100224,624,,Bệnh viện ĐK huyện,Bệnh viện ĐK huyện,,,,,,,,,,,,,,,,,,,,
100225,624,,TTYT huyện,TTYT huyện,,,,,,,,,,,,,,,,,,,,
100226,624,,Phòng khám ĐKKV,Phòng khám ĐKKV,,,,,,,,,,,,,,,,,,,,
100227,624,,Bệnh xá quân y,Bệnh xá quân y,,,,,,,,,,,,,,,,,,,,
100228,624,,Cơ sở khác (không bao gồm YT tư nhân),Cơ sở khác (không bao gồm YT tư nhân),,,,,,,,,,,,,,,,,,,,
100229,625,,Bệnh viện ĐK huyện,Bệnh viện ĐK huyện,,,,,,,,,,,,,,,,,,,,
100230,625,,TTYT huyện,TTYT huyện,,,,,,,,,,,,,,,,,,,,
100231,625,,Phòng khám ĐKKV,Phòng khám ĐKKV,,,,,,,,,,,,,,,,,,,,
100232,625,,Bệnh xá quân y,Bệnh xá quân y,,,,,,,,,,,,,,,,,,,,
100233,625,,Cơ sở khác (không bao gồm YT tư nhân),Cơ sở khác (không bao gồm YT tư nhân),,,,,,,,,,,,,,,,,,,,
100234,626,,Bệnh viện ĐK huyện,Bệnh viện ĐK huyện,,,,,,,,,,,,,,,,,,,,
100235,626,,TTYT huyện,TTYT huyện,,,,,,,,,,,,,,,,,,,,
100236,626,,Phòng khám ĐKKV,Phòng khám ĐKKV,,,,,,,,,,,,,,,,,,,,
100237,626,,Bệnh xá quân y,Bệnh xá quân y,,,,,,,,,,,,,,,,,,,,
100238,626,,Cơ sở khác (không bao gồm YT tư nhân),Cơ sở khác (không bao gồm YT tư nhân),,,,,,,,,,,,,,,,,,,,
100239,627,,Bệnh viện ĐK huyện,Bệnh viện ĐK huyện,,,,,,,,,,,,,,,,,,,,
100240,627,,TTYT huyện,TTYT huyện,,,,,,,,,,,,,,,,,,,,
100241,627,,Phòng khám ĐKKV,Phòng khám ĐKKV,,,,,,,,,,,,,,,,,,,,
100242,627,,Bệnh xá quân y,Bệnh xá quân y,,,,,,,,,,,,,,,,,,,,
100243,627,,Cơ sở khác (không bao gồm YT tư nhân),Cơ sở khác (không bao gồm YT tư nhân),,,,,,,,,,,,,,,,,,,,
100244,628,,Bệnh viện ĐK huyện,Bệnh viện ĐK huyện,,,,,,,,,,,,,,,,,,,,
100245,628,,TTYT huyện,TTYT huyện,,,,,,,,,,,,,,,,,,,,
100246,628,,Phòng khám ĐKKV,Phòng khám ĐKKV,,,,,,,,,,,,,,,,,,,,
100247,628,,Bệnh xá quân y,Bệnh xá quân y,,,,,,,,,,,,,,,,,,,,
100248,628,,Cơ sở khác (không bao gồm YT tư nhân),Cơ sở khác (không bao gồm YT tư nhân),,,,,,,,,,,,,,,,,,,,
100249,629,,Bệnh viện ĐK huyện,Bệnh viện ĐK huyện,,,,,,,,,,,,,,,,,,,,
100250,629,,TTYT huyện,TTYT huyện,,,,,,,,,,,,,,,,,,,,
100251,629,,Phòng khám ĐKKV,Phòng khám ĐKKV,,,,,,,,,,,,,,,,,,,,
100252,629,,Bệnh xá quân y,Bệnh xá quân y,,,,,,,,,,,,,,,,,,,,
100253,629,,Cơ sở khác (không bao gồm YT tư nhân),Cơ sở khác (không bao gồm YT tư nhân),,,,,,,,,,,,,,,,,,,,
100254,630,,Bệnh viện ĐK huyện,Bệnh viện ĐK huyện,,,,,,,,,,,,,,,,,,,,
100255,630,,TTYT huyện,TTYT huyện,,,,,,,,,,,,,,,,,,,,
100256,630,,Phòng khám ĐKKV,Phòng khám ĐKKV,,,,,,,,,,,,,,,,,,,,
100257,630,,Bệnh xá quân y,Bệnh xá quân y,,,,,,,,,,,,,,,,,,,,
100258,630,,Cơ sở khác (không bao gồm YT tư nhân),Cơ sở khác (không bao gồm YT tư nhân),,,,,,,,,,,,,,,,,,,,
100259,631,,Bệnh viện ĐK huyện,Bệnh viện ĐK huyện,,,,,,,,,,,,,,,,,,,,
100260,631,,TTYT huyện,TTYT huyện,,,,,,,,,,,,,,,,,,,,
100261,631,,Phòng khám ĐKKV,Phòng khám ĐKKV,,,,,,,,,,,,,,,,,,,,
100262,631,,Bệnh xá quân y,Bệnh xá quân y,,,,,,,,,,,,,,,,,,,,
100263,631,,Cơ sở khác (không bao gồm YT tư nhân),Cơ sở khác (không bao gồm YT tư nhân),,,,,,,,,,,,,,,,,,,,
100264,632,,Bệnh viện ĐK huyện,Bệnh viện ĐK huyện,,,,,,,,,,,,,,,,,,,,
100265,632,,TTYT huyện,TTYT huyện,,,,,,,,,,,,,,,,,,,,
100266,632,,Phòng khám ĐKKV,Phòng khám ĐKKV,,,,,,,,,,,,,,,,,,,,
100267,632,,Bệnh xá quân y,Bệnh xá quân y,,,,,,,,,,,,,,,,,,,,
100268,632,,Cơ sở khác (không bao gồm YT tư nhân),Cơ sở khác (không bao gồm YT tư nhân),,,,,,,,,,,,,,,,,,,,
100269,633,,Bệnh viện ĐK huyện,Bệnh viện ĐK huyện,,,,,,,,,,,,,,,,,,,,
100270,633,,TTYT huyện,TTYT huyện,,,,,,,,,,,,,,,,,,,,
100271,633,,Phòng khám ĐKKV,Phòng khám ĐKKV,,,,,,,,,,,,,,,,,,,,
100272,633,,Bệnh xá quân y,Bệnh xá quân y,,,,,,,,,,,,,,,,,,,,
100273,633,,Cơ sở khác (không bao gồm YT tư nhân),Cơ sở khác (không bao gồm YT tư nhân),,,,,,,,,,,,,,,,,,,,
100274,634,,Bệnh viện ĐK huyện,Bệnh viện ĐK huyện,,,,,,,,,,,,,,,,,,,,
100275,634,,TTYT huyện,TTYT huyện,,,,,,,,,,,,,,,,,,,,
100276,634,,Phòng khám ĐKKV,Phòng khám ĐKKV,,,,,,,,,,,,,,,,,,,,
100277,634,,Bệnh xá quân y,Bệnh xá quân y,,,,,,,,,,,,,,,,,,,,
100278,634,,Cơ sở khác (không bao gồm YT tư nhân),Cơ sở khác (không bao gồm YT tư nhân),,,,,,,,,,,,,,,,,,,,
100279,635,,Bệnh viện ĐK huyện,Bệnh viện ĐK huyện,,,,,,,,,,,,,,,,,,,,
100280,635,,TTYT huyện,TTYT huyện,,,,,,,,,,,,,,,,,,,,
100281,635,,Phòng khám ĐKKV,Phòng khám ĐKKV,,,,,,,,,,,,,,,,,,,,
100282,635,,Bệnh xá quân y,Bệnh xá quân y,,,,,,,,,,,,,,,,,,,,
100283,635,,Cơ sở khác (không bao gồm YT tư nhân),Cơ sở khác (không bao gồm YT tư nhân),,,,,,,,,,,,,,,,,,,,
100284,636,,Bệnh viện ĐK huyện,Bệnh viện ĐK huyện,,,,,,,,,,,,,,,,,,,,
100285,636,,TTYT huyện,TTYT huyện,,,,,,,,,,,,,,,,,,,,
100286,636,,Phòng khám ĐKKV,Phòng khám ĐKKV,,,,,,,,,,,,,,,,,,,,
100287,636,,Bệnh xá quân y,Bệnh xá quân y,,,,,,,,,,,,,,,,,,,,
100288,636,,Cơ sở khác (không bao gồm YT tư nhân),Cơ sở khác (không bao gồm YT tư nhân),,,,,,,,,,,,,,,,,,,,
100289,637,,Bệnh viện ĐK huyện,Bệnh viện ĐK huyện,,,,,,,,,,,,,,,,,,,,
100290,637,,TTYT huyện,TTYT huyện,,,,,,,,,,,,,,,,,,,,
100291,637,,Phòng khám ĐKKV,Phòng khám ĐKKV,,,,,,,,,,,,,,,,,,,,
100292,637,,Bệnh xá quân y,Bệnh xá quân y,,,,,,,,,,,,,,,,,,,,
100293,637,,Cơ sở khác (không bao gồm YT tư nhân),Cơ sở khác (không bao gồm YT tư nhân),,,,,,,,,,,,,,,,,,,,
100294,638,,Bệnh viện ĐK huyện,Bệnh viện ĐK huyện,,,,,,,,,,,,,,,,,,,,
100295,638,,TTYT huyện,TTYT huyện,,,,,,,,,,,,,,,,,,,,
100296,638,,Phòng khám ĐKKV,Phòng khám ĐKKV,,,,,,,,,,,,,,,,,,,,
100297,638,,Bệnh xá quân y,Bệnh xá quân y,,,,,,,,,,,,,,,,,,,,
100298,638,,Cơ sở khác (không bao gồm YT tư nhân),Cơ sở khác (không bao gồm YT tư nhân),,,,,,,,,,,,,,,,,,,,
100299,639,,Bệnh viện ĐK huyện,Bệnh viện ĐK huyện,,,,,,,,,,,,,,,,,,,,
100300,639,,TTYT huyện,TTYT huyện,,,,,,,,,,,,,,,,,,,,
100301,639,,Phòng khám ĐKKV,Phòng khám ĐKKV,,,,,,,,,,,,,,,,,,,,
100302,639,,Bệnh xá quân y,Bệnh xá quân y,,,,,,,,,,,,,,,,,,,,
100303,639,,Cơ sở khác (không bao gồm YT tư nhân),Cơ sở khác (không bao gồm YT tư nhân),,,,,,,,,,,,,,,,,,,,
100304,24,,Bệnh viện ĐK huyện,Bệnh viện ĐK huyện,,,,,,,,,,,,,,,,,,,,
100305,24,,TTYT huyện,TTYT huyện,,,,,,,,,,,,,,,,,,,,
100306,24,,Phòng khám ĐKKV,Phòng khám ĐKKV,,,,,,,,,,,,,,,,,,,,
100307,24,,Bệnh xá quân y,Bệnh xá quân y,,,,,,,,,,,,,,,,,,,,
100308,24,,Cơ sở khác (không bao gồm YT tư nhân),Cơ sở khác (không bao gồm YT tư nhân),,,,,,,,,,,,,,,,,,,,
100309,26,,Bệnh viện ĐK huyện,Bệnh viện ĐK huyện,,,,,,,,,,,,,,,,,,,,
100310,26,,TTYT huyện,TTYT huyện,,,,,,,,,,,,,,,,,,,,
100311,26,,Phòng khám ĐKKV,Phòng khám ĐKKV,,,,,,,,,,,,,,,,,,,,
100312,26,,Bệnh xá quân y,Bệnh xá quân y,,,,,,,,,,,,,,,,,,,,
100313,26,,Cơ sở khác (không bao gồm YT tư nhân),Cơ sở khác (không bao gồm YT tư nhân),,,,,,,,,,,,,,,,,,,,
100314,27,,Bệnh viện ĐK huyện,Bệnh viện ĐK huyện,,,,,,,,,,,,,,,,,,,,
100315,27,,TTYT huyện,TTYT huyện,,,,,,,,,,,,,,,,,,,,
100316,27,,Phòng khám ĐKKV,Phòng khám ĐKKV,,,,,,,,,,,,,,,,,,,,
100317,27,,Bệnh xá quân y,Bệnh xá quân y,,,,,,,,,,,,,,,,,,,,
100318,27,,Cơ sở khác (không bao gồm YT tư nhân),Cơ sở khác (không bao gồm YT tư nhân),,,,,,,,,,,,,,,,,,,,
100319,28,,Bệnh viện ĐK huyện,Bệnh viện ĐK huyện,,,,,,,,,,,,,,,,,,,,
100320,28,,TTYT huyện,TTYT huyện,,,,,,,,,,,,,,,,,,,,
100321,28,,Phòng khám ĐKKV,Phòng khám ĐKKV,,,,,,,,,,,,,,,,,,,,
100322,28,,Bệnh xá quân y,Bệnh xá quân y,,,,,,,,,,,,,,,,,,,,
100323,28,,Cơ sở khác (không bao gồm YT tư nhân),Cơ sở khác (không bao gồm YT tư nhân),,,,,,,,,,,,,,,,,,,,
100324,29,,Bệnh viện ĐK huyện,Bệnh viện ĐK huyện,,,,,,,,,,,,,,,,,,,,
100325,29,,TTYT huyện,TTYT huyện,,,,,,,,,,,,,,,,,,,,
100326,29,,Phòng khám ĐKKV,Phòng khám ĐKKV,,,,,,,,,,,,,,,,,,,,
100327,29,,Bệnh xá quân y,Bệnh xá quân y,,,,,,,,,,,,,,,,,,,,
100328,29,,Cơ sở khác (không bao gồm YT tư nhân),Cơ sở khác (không bao gồm YT tư nhân),,,,,,,,,,,,,,,,,,,,
100329,30,,Bệnh viện ĐK huyện,Bệnh viện ĐK huyện,,,,,,,,,,,,,,,,,,,,
100330,30,,TTYT huyện,TTYT huyện,,,,,,,,,,,,,,,,,,,,
100331,30,,Phòng khám ĐKKV,Phòng khám ĐKKV,,,,,,,,,,,,,,,,,,,,
100332,30,,Bệnh xá quân y,Bệnh xá quân y,,,,,,,,,,,,,,,,,,,,
100333,30,,Cơ sở khác (không bao gồm YT tư nhân),Cơ sở khác (không bao gồm YT tư nhân),,,,,,,,,,,,,,,,,,,,
100334,31,,Bệnh viện ĐK huyện,Bệnh viện ĐK huyện,,,,,,,,,,,,,,,,,,,,
100335,31,,TTYT huyện,TTYT huyện,,,,,,,,,,,,,,,,,,,,
100336,31,,Phòng khám ĐKKV,Phòng khám ĐKKV,,,,,,,,,,,,,,,,,,,,
100337,31,,Bệnh xá quân y,Bệnh xá quân y,,,,,,,,,,,,,,,,,,,,
100338,31,,Cơ sở khác (không bao gồm YT tư nhân),Cơ sở khác (không bao gồm YT tư nhân),,,,,,,,,,,,,,,,,,,,
100339,32,,Bệnh viện ĐK huyện,Bệnh viện ĐK huyện,,,,,,,,,,,,,,,,,,,,
100340,32,,TTYT huyện,TTYT huyện,,,,,,,,,,,,,,,,,,,,
100341,32,,Phòng khám ĐKKV,Phòng khám ĐKKV,,,,,,,,,,,,,,,,,,,,
100342,32,,Bệnh xá quân y,Bệnh xá quân y,,,,,,,,,,,,,,,,,,,,
100343,32,,Cơ sở khác (không bao gồm YT tư nhân),Cơ sở khác (không bao gồm YT tư nhân),,,,,,,,,,,,,,,,,,,,
100344,33,,Bệnh viện ĐK huyện,Bệnh viện ĐK huyện,,,,,,,,,,,,,,,,,,,,
100345,33,,TTYT huyện,TTYT huyện,,,,,,,,,,,,,,,,,,,,
100346,33,,Phòng khám ĐKKV,Phòng khám ĐKKV,,,,,,,,,,,,,,,,,,,,
100347,33,,Bệnh xá quân y,Bệnh xá quân y,,,,,,,,,,,,,,,,,,,,
100348,33,,Cơ sở khác (không bao gồm YT tư nhân),Cơ sở khác (không bao gồm YT tư nhân),,,,,,,,,,,,,,,,,,,,
100349,34,,Bệnh viện ĐK huyện,Bệnh viện ĐK huyện,,,,,,,,,,,,,,,,,,,,
100350,34,,TTYT huyện,TTYT huyện,,,,,,,,,,,,,,,,,,,,
100351,34,,Phòng khám ĐKKV,Phòng khám ĐKKV,,,,,,,,,,,,,,,,,,,,
100352,34,,Bệnh xá quân y,Bệnh xá quân y,,,,,,,,,,,,,,,,,,,,
100353,34,,Cơ sở khác (không bao gồm YT tư nhân),Cơ sở khác (không bao gồm YT tư nhân),,,,,,,,,,,,,,,,,,,,
100354,35,,Bệnh viện ĐK huyện,Bệnh viện ĐK huyện,,,,,,,,,,,,,,,,,,,,
100355,35,,TTYT huyện,TTYT huyện,,,,,,,,,,,,,,,,,,,,
100356,35,,Phòng khám ĐKKV,Phòng khám ĐKKV,,,,,,,,,,,,,,,,,,,,
100357,35,,Bệnh xá quân y,Bệnh xá quân y,,,,,,,,,,,,,,,,,,,,
100358,35,,Cơ sở khác (không bao gồm YT tư nhân),Cơ sở khác (không bao gồm YT tư nhân),,,,,,,,,,,,,,,,,,,,
100359,80,,Bệnh viện ĐK huyện,Bệnh viện ĐK huyện,,,,,,,,,,,,,,,,,,,,
100360,80,,TTYT huyện,TTYT huyện,,,,,,,,,,,,,,,,,,,,
100361,80,,Phòng khám ĐKKV,Phòng khám ĐKKV,,,,,,,,,,,,,,,,,,,,
100362,80,,Bệnh xá quân y,Bệnh xá quân y,,,,,,,,,,,,,,,,,,,,
100363,80,,Cơ sở khác (không bao gồm YT tư nhân),Cơ sở khác (không bao gồm YT tư nhân),,,,,,,,,,,,,,,,,,,,
100364,82,,Bệnh viện ĐK huyện,Bệnh viện ĐK huyện,,,,,,,,,,,,,,,,,,,,
100365,82,,TTYT huyện,TTYT huyện,,,,,,,,,,,,,,,,,,,,
100366,82,,Phòng khám ĐKKV,Phòng khám ĐKKV,,,,,,,,,,,,,,,,,,,,
100367,82,,Bệnh xá quân y,Bệnh xá quân y,,,,,,,,,,,,,,,,,,,,
100368,82,,Cơ sở khác (không bao gồm YT tư nhân),Cơ sở khác (không bao gồm YT tư nhân),,,,,,,,,,,,,,,,,,,,
100369,83,,Bệnh viện ĐK huyện,Bệnh viện ĐK huyện,,,,,,,,,,,,,,,,,,,,
100370,83,,TTYT huyện,TTYT huyện,,,,,,,,,,,,,,,,,,,,
100371,83,,Phòng khám ĐKKV,Phòng khám ĐKKV,,,,,,,,,,,,,,,,,,,,
100372,83,,Bệnh xá quân y,Bệnh xá quân y,,,,,,,,,,,,,,,,,,,,
100373,83,,Cơ sở khác (không bao gồm YT tư nhân),Cơ sở khác (không bao gồm YT tư nhân),,,,,,,,,,,,,,,,,,,,
100374,84,,Bệnh viện ĐK huyện,Bệnh viện ĐK huyện,,,,,,,,,,,,,,,,,,,,
100375,84,,TTYT huyện,TTYT huyện,,,,,,,,,,,,,,,,,,,,
100376,84,,Phòng khám ĐKKV,Phòng khám ĐKKV,,,,,,,,,,,,,,,,,,,,
100377,84,,Bệnh xá quân y,Bệnh xá quân y,,,,,,,,,,,,,,,,,,,,
100378,84,,Cơ sở khác (không bao gồm YT tư nhân),Cơ sở khác (không bao gồm YT tư nhân),,,,,,,,,,,,,,,,,,,,
100379,85,,Bệnh viện ĐK huyện,Bệnh viện ĐK huyện,,,,,,,,,,,,,,,,,,,,
100380,85,,TTYT huyện,TTYT huyện,,,,,,,,,,,,,,,,,,,,
100381,85,,Phòng khám ĐKKV,Phòng khám ĐKKV,,,,,,,,,,,,,,,,,,,,
100382,85,,Bệnh xá quân y,Bệnh xá quân y,,,,,,,,,,,,,,,,,,,,
100383,85,,Cơ sở khác (không bao gồm YT tư nhân),Cơ sở khác (không bao gồm YT tư nhân),,,,,,,,,,,,,,,,,,,,
100384,86,,Bệnh viện ĐK huyện,Bệnh viện ĐK huyện,,,,,,,,,,,,,,,,,,,,
100385,86,,TTYT huyện,TTYT huyện,,,,,,,,,,,,,,,,,,,,
100386,86,,Phòng khám ĐKKV,Phòng khám ĐKKV,,,,,,,,,,,,,,,,,,,,
100387,86,,Bệnh xá quân y,Bệnh xá quân y,,,,,,,,,,,,,,,,,,,,
100388,86,,Cơ sở khác (không bao gồm YT tư nhân),Cơ sở khác (không bao gồm YT tư nhân),,,,,,,,,,,,,,,,,,,,
100389,87,,Bệnh viện ĐK huyện,Bệnh viện ĐK huyện,,,,,,,,,,,,,,,,,,,,
100390,87,,TTYT huyện,TTYT huyện,,,,,,,,,,,,,,,,,,,,
100391,87,,Phòng khám ĐKKV,Phòng khám ĐKKV,,,,,,,,,,,,,,,,,,,,
100392,87,,Bệnh xá quân y,Bệnh xá quân y,,,,,,,,,,,,,,,,,,,,
100393,87,,Cơ sở khác (không bao gồm YT tư nhân),Cơ sở khác (không bao gồm YT tư nhân),,,,,,,,,,,,,,,,,,,,
100394,88,,Bệnh viện ĐK huyện,Bệnh viện ĐK huyện,,,,,,,,,,,,,,,,,,,,
100395,88,,TTYT huyện,TTYT huyện,,,,,,,,,,,,,,,,,,,,
100396,88,,Phòng khám ĐKKV,Phòng khám ĐKKV,,,,,,,,,,,,,,,,,,,,
100397,88,,Bệnh xá quân y,Bệnh xá quân y,,,,,,,,,,,,,,,,,,,,
100398,88,,Cơ sở khác (không bao gồm YT tư nhân),Cơ sở khác (không bao gồm YT tư nhân),,,,,,,,,,,,,,,,,,,,
100399,89,,Bệnh viện ĐK huyện,Bệnh viện ĐK huyện,,,,,,,,,,,,,,,,,,,,
100400,89,,TTYT huyện,TTYT huyện,,,,,,,,,,,,,,,,,,,,
100401,89,,Phòng khám ĐKKV,Phòng khám ĐKKV,,,,,,,,,,,,,,,,,,,,
100402,89,,Bệnh xá quân y,Bệnh xá quân y,,,,,,,,,,,,,,,,,,,,
100403,89,,Cơ sở khác (không bao gồm YT tư nhân),Cơ sở khác (không bao gồm YT tư nhân),,,,,,,,,,,,,,,,,,,,
100404,90,,Bệnh viện ĐK huyện,Bệnh viện ĐK huyện,,,,,,,,,,,,,,,,,,,,
100405,90,,TTYT huyện,TTYT huyện,,,,,,,,,,,,,,,,,,,,
100406,90,,Phòng khám ĐKKV,Phòng khám ĐKKV,,,,,,,,,,,,,,,,,,,,
100407,90,,Bệnh xá quân y,Bệnh xá quân y,,,,,,,,,,,,,,,,,,,,
100408,90,,Cơ sở khác (không bao gồm YT tư nhân),Cơ sở khác (không bao gồm YT tư nhân),,,,,,,,,,,,,,,,,,,,
100409,40,,Bệnh viện ĐK huyện,Bệnh viện ĐK huyện,,,,,,,,,,,,,,,,,,,,
100410,40,,TTYT huyện,TTYT huyện,,,,,,,,,,,,,,,,,,,,
100411,40,,Phòng khám ĐKKV,Phòng khám ĐKKV,,,,,,,,,,,,,,,,,,,,
100412,40,,Bệnh xá quân y,Bệnh xá quân y,,,,,,,,,,,,,,,,,,,,
100413,40,,Cơ sở khác (không bao gồm YT tư nhân),Cơ sở khác (không bao gồm YT tư nhân),,,,,,,,,,,,,,,,,,,,
100414,42,,Bệnh viện ĐK huyện,Bệnh viện ĐK huyện,,,,,,,,,,,,,,,,,,,,
100415,42,,TTYT huyện,TTYT huyện,,,,,,,,,,,,,,,,,,,,
100416,42,,Phòng khám ĐKKV,Phòng khám ĐKKV,,,,,,,,,,,,,,,,,,,,
100417,42,,Bệnh xá quân y,Bệnh xá quân y,,,,,,,,,,,,,,,,,,,,
100418,42,,Cơ sở khác (không bao gồm YT tư nhân),Cơ sở khác (không bao gồm YT tư nhân),,,,,,,,,,,,,,,,,,,,
100419,43,,Bệnh viện ĐK huyện,Bệnh viện ĐK huyện,,,,,,,,,,,,,,,,,,,,
100420,43,,TTYT huyện,TTYT huyện,,,,,,,,,,,,,,,,,,,,
100421,43,,Phòng khám ĐKKV,Phòng khám ĐKKV,,,,,,,,,,,,,,,,,,,,
100422,43,,Bệnh xá quân y,Bệnh xá quân y,,,,,,,,,,,,,,,,,,,,
100423,43,,Cơ sở khác (không bao gồm YT tư nhân),Cơ sở khác (không bao gồm YT tư nhân),,,,,,,,,,,,,,,,,,,,
100424,44,,Bệnh viện ĐK huyện,Bệnh viện ĐK huyện,,,,,,,,,,,,,,,,,,,,
100425,44,,TTYT huyện,TTYT huyện,,,,,,,,,,,,,,,,,,,,
100426,44,,Phòng khám ĐKKV,Phòng khám ĐKKV,,,,,,,,,,,,,,,,,,,,
100427,44,,Bệnh xá quân y,Bệnh xá quân y,,,,,,,,,,,,,,,,,,,,
100428,44,,Cơ sở khác (không bao gồm YT tư nhân),Cơ sở khác (không bao gồm YT tư nhân),,,,,,,,,,,,,,,,,,,,
100429,45,,Bệnh viện ĐK huyện,Bệnh viện ĐK huyện,,,,,,,,,,,,,,,,,,,,
100430,45,,TTYT huyện,TTYT huyện,,,,,,,,,,,,,,,,,,,,
100431,45,,Phòng khám ĐKKV,Phòng khám ĐKKV,,,,,,,,,,,,,,,,,,,,
100432,45,,Bệnh xá quân y,Bệnh xá quân y,,,,,,,,,,,,,,,,,,,,
100433,45,,Cơ sở khác (không bao gồm YT tư nhân),Cơ sở khác (không bao gồm YT tư nhân),,,,,,,,,,,,,,,,,,,,
100434,46,,Bệnh viện ĐK huyện,Bệnh viện ĐK huyện,,,,,,,,,,,,,,,,,,,,
100435,46,,TTYT huyện,TTYT huyện,,,,,,,,,,,,,,,,,,,,
100436,46,,Phòng khám ĐKKV,Phòng khám ĐKKV,,,,,,,,,,,,,,,,,,,,
100437,46,,Bệnh xá quân y,Bệnh xá quân y,,,,,,,,,,,,,,,,,,,,
100438,46,,Cơ sở khác (không bao gồm YT tư nhân),Cơ sở khác (không bao gồm YT tư nhân),,,,,,,,,,,,,,,,,,,,
100439,47,,Bệnh viện ĐK huyện,Bệnh viện ĐK huyện,,,,,,,,,,,,,,,,,,,,
100440,47,,TTYT huyện,TTYT huyện,,,,,,,,,,,,,,,,,,,,
100441,47,,Phòng khám ĐKKV,Phòng khám ĐKKV,,,,,,,,,,,,,,,,,,,,
100442,48,,Bệnh viện ĐK huyện,Bệnh viện ĐK huyện,,,,,,,,,,,,,,,,,,,,
100443,48,,TTYT huyện,TTYT huyện,,,,,,,,,,,,,,,,,,,,
100444,48,,Phòng khám ĐKKV,Phòng khám ĐKKV,,,,,,,,,,,,,,,,,,,,
100445,48,,Bệnh xá quân y,Bệnh xá quân y,,,,,,,,,,,,,,,,,,,,
100446,48,,Cơ sở khác (không bao gồm YT tư nhân),Cơ sở khác (không bao gồm YT tư nhân),,,,,,,,,,,,,,,,,,,,
100447,49,,Bệnh viện ĐK huyện,Bệnh viện ĐK huyện,,,,,,,,,,,,,,,,,,,,
100448,49,,TTYT huyện,TTYT huyện,,,,,,,,,,,,,,,,,,,,
100449,49,,Phòng khám ĐKKV,Phòng khám ĐKKV,,,,,,,,,,,,,,,,,,,,
100450,49,,Bệnh xá quân y,Bệnh xá quân y,,,,,,,,,,,,,,,,,,,,
100451,49,,Cơ sở khác (không bao gồm YT tư nhân),Cơ sở khác (không bao gồm YT tư nhân),,,,,,,,,,,,,,,,,,,,
100452,50,,Bệnh viện ĐK huyện,Bệnh viện ĐK huyện,,,,,,,,,,,,,,,,,,,,
100453,50,,TTYT huyện,TTYT huyện,,,,,,,,,,,,,,,,,,,,
100454,50,,Phòng khám ĐKKV,Phòng khám ĐKKV,,,,,,,,,,,,,,,,,,,,
100455,50,,Bệnh xá quân y,Bệnh xá quân y,,,,,,,,,,,,,,,,,,,,
100456,50,,Cơ sở khác (không bao gồm YT tư nhân),Cơ sở khác (không bao gồm YT tư nhân),,,,,,,,,,,,,,,,,,,,
100457,51,,Bệnh viện ĐK huyện,Bệnh viện ĐK huyện,,,,,,,,,,,,,,,,,,,,
100458,51,,TTYT huyện,TTYT huyện,,,,,,,,,,,,,,,,,,,,
100459,51,,Phòng khám ĐKKV,Phòng khám ĐKKV,,,,,,,,,,,,,,,,,,,,
100460,51,,Bệnh xá quân y,Bệnh xá quân y,,,,,,,,,,,,,,,,,,,,
100461,51,,Cơ sở khác (không bao gồm YT tư nhân),Cơ sở khác (không bao gồm YT tư nhân),,,,,,,,,,,,,,,,,,,,
100462,52,,Bệnh viện ĐK huyện,Bệnh viện ĐK huyện,,,,,,,,,,,,,,,,,,,,
100463,52,,TTYT huyện,TTYT huyện,,,,,,,,,,,,,,,,,,,,
100464,52,,Phòng khám ĐKKV,Phòng khám ĐKKV,,,,,,,,,,,,,,,,,,,,
100465,52,,Bệnh xá quân y,Bệnh xá quân y,,,,,,,,,,,,,,,,,,,,
100466,52,,Cơ sở khác (không bao gồm YT tư nhân),Cơ sở khác (không bao gồm YT tư nhân),,,,,,,,,,,,,,,,,,,,
100467,53,,Bệnh viện ĐK huyện,Bệnh viện ĐK huyện,,,,,,,,,,,,,,,,,,,,
100468,53,,TTYT huyện,TTYT huyện,,,,,,,,,,,,,,,,,,,,
100469,53,,Phòng khám ĐKKV,Phòng khám ĐKKV,,,,,,,,,,,,,,,,,,,,
100470,53,,Bệnh xá quân y,Bệnh xá quân y,,,,,,,,,,,,,,,,,,,,
100471,53,,Cơ sở khác (không bao gồm YT tư nhân),Cơ sở khác (không bao gồm YT tư nhân),,,,,,,,,,,,,,,,,,,,
100472,132,,Bệnh viện ĐK huyện,Bệnh viện ĐK huyện,,,,,,,,,,,,,,,,,,,,
100473,132,,TTYT huyện,TTYT huyện,,,,,,,,,,,,,,,,,,,,
100474,132,,Phòng khám ĐKKV,Phòng khám ĐKKV,,,,,,,,,,,,,,,,,,,,
100475,132,,Bệnh xá quân y,Bệnh xá quân y,,,,,,,,,,,,,,,,,,,,
100476,132,,Cơ sở khác (không bao gồm YT tư nhân),Cơ sở khác (không bao gồm YT tư nhân),,,,,,,,,,,,,,,,,,,,
100477,133,,Bệnh viện ĐK huyện,Bệnh viện ĐK huyện,,,,,,,,,,,,,,,,,,,,
100478,133,,TTYT huyện,TTYT huyện,,,,,,,,,,,,,,,,,,,,
100479,133,,Phòng khám ĐKKV,Phòng khám ĐKKV,,,,,,,,,,,,,,,,,,,,
100480,133,,Bệnh xá quân y,Bệnh xá quân y,,,,,,,,,,,,,,,,,,,,
100481,133,,Cơ sở khác (không bao gồm YT tư nhân),Cơ sở khác (không bao gồm YT tư nhân),,,,,,,,,,,,,,,,,,,,
100482,134,,Bệnh viện ĐK huyện,Bệnh viện ĐK huyện,,,,,,,,,,,,,,,,,,,,
100483,134,,TTYT huyện,TTYT huyện,,,,,,,,,,,,,,,,,,,,
100484,134,,Phòng khám ĐKKV,Phòng khám ĐKKV,,,,,,,,,,,,,,,,,,,,
100485,134,,Bệnh xá quân y,Bệnh xá quân y,,,,,,,,,,,,,,,,,,,,
100486,134,,Cơ sở khác (không bao gồm YT tư nhân),Cơ sở khác (không bao gồm YT tư nhân),,,,,,,,,,,,,,,,,,,,
100487,135,,Bệnh viện ĐK huyện,Bệnh viện ĐK huyện,,,,,,,,,,,,,,,,,,,,
100488,135,,TTYT huyện,TTYT huyện,,,,,,,,,,,,,,,,,,,,
100489,135,,Phòng khám ĐKKV,Phòng khám ĐKKV,,,,,,,,,,,,,,,,,,,,
100490,135,,Bệnh xá quân y,Bệnh xá quân y,,,,,,,,,,,,,,,,,,,,
100491,135,,Cơ sở khác (không bao gồm YT tư nhân),Cơ sở khác (không bao gồm YT tư nhân),,,,,,,,,,,,,,,,,,,,
100492,136,,Bệnh viện ĐK huyện,Bệnh viện ĐK huyện,,,,,,,,,,,,,,,,,,,,
100493,136,,TTYT huyện,TTYT huyện,,,,,,,,,,,,,,,,,,,,
100494,136,,Phòng khám ĐKKV,Phòng khám ĐKKV,,,,,,,,,,,,,,,,,,,,
100495,136,,Bệnh xá quân y,Bệnh xá quân y,,,,,,,,,,,,,,,,,,,,
100496,136,,Cơ sở khác (không bao gồm YT tư nhân),Cơ sở khác (không bao gồm YT tư nhân),,,,,,,,,,,,,,,,,,,,
100497,137,,Bệnh viện ĐK huyện,Bệnh viện ĐK huyện,,,,,,,,,,,,,,,,,,,,
100498,137,,TTYT huyện,TTYT huyện,,,,,,,,,,,,,,,,,,,,
100499,137,,Phòng khám ĐKKV,Phòng khám ĐKKV,,,,,,,,,,,,,,,,,,,,
100500,137,,Bệnh xá quân y,Bệnh xá quân y,,,,,,,,,,,,,,,,,,,,
100501,137,,Cơ sở khác (không bao gồm YT tư nhân),Cơ sở khác (không bao gồm YT tư nhân),,,,,,,,,,,,,,,,,,,,
100502,138,,Bệnh viện ĐK huyện,Bệnh viện ĐK huyện,,,,,,,,,,,,,,,,,,,,
100503,138,,TTYT huyện,TTYT huyện,,,,,,,,,,,,,,,,,,,,
100504,138,,Phòng khám ĐKKV,Phòng khám ĐKKV,,,,,,,,,,,,,,,,,,,,
100505,138,,Bệnh xá quân y,Bệnh xá quân y,,,,,,,,,,,,,,,,,,,,
100506,138,,Cơ sở khác (không bao gồm YT tư nhân),Cơ sở khác (không bao gồm YT tư nhân),,,,,,,,,,,,,,,,,,,,
100507,139,,Bệnh viện ĐK huyện,Bệnh viện ĐK huyện,,,,,,,,,,,,,,,,,,,,
100508,139,,TTYT huyện,TTYT huyện,,,,,,,,,,,,,,,,,,,,
100509,139,,Phòng khám ĐKKV,Phòng khám ĐKKV,,,,,,,,,,,,,,,,,,,,
100510,139,,Bệnh xá quân y,Bệnh xá quân y,,,,,,,,,,,,,,,,,,,,
100511,139,,Cơ sở khác (không bao gồm YT tư nhân),Cơ sở khác (không bao gồm YT tư nhân),,,,,,,,,,,,,,,,,,,,
100512,140,,Bệnh viện ĐK huyện,Bệnh viện ĐK huyện,,,,,,,,,,,,,,,,,,,,
100513,140,,TTYT huyện,TTYT huyện,,,,,,,,,,,,,,,,,,,,
100514,140,,Phòng khám ĐKKV,Phòng khám ĐKKV,,,,,,,,,,,,,,,,,,,,
100515,140,,Bệnh xá quân y,Bệnh xá quân y,,,,,,,,,,,,,,,,,,,,
100516,140,,Cơ sở khác (không bao gồm YT tư nhân),Cơ sở khác (không bao gồm YT tư nhân),,,,,,,,,,,,,,,,,,,,
100517,141,,Bệnh viện ĐK huyện,Bệnh viện ĐK huyện,,,,,,,,,,,,,,,,,,,,
100518,141,,TTYT huyện,TTYT huyện,,,,,,,,,,,,,,,,,,,,
100519,141,,Phòng khám ĐKKV,Phòng khám ĐKKV,,,,,,,,,,,,,,,,,,,,
100520,141,,Bệnh xá quân y,Bệnh xá quân y,,,,,,,,,,,,,,,,,,,,
100521,141,,Cơ sở khác (không bao gồm YT tư nhân),Cơ sở khác (không bao gồm YT tư nhân),,,,,,,,,,,,,,,,,,,,
100522,667,,Bệnh viện ĐK huyện,Bệnh viện ĐK huyện,,,,,,,,,,,,,,,,,,,,
100523,667,,TTYT huyện,TTYT huyện,,,,,,,,,,,,,,,,,,,,
100524,667,,Phòng khám ĐKKV,Phòng khám ĐKKV,,,,,,,,,,,,,,,,,,,,
100525,667,,Bệnh xá quân y,Bệnh xá quân y,,,,,,,,,,,,,,,,,,,,
100526,667,,Cơ sở khác (không bao gồm YT tư nhân),Cơ sở khác (không bao gồm YT tư nhân),,,,,,,,,,,,,,,,,,,,
100527,47,,Bệnh xá quân y,Bệnh xá quân y,,,,,,,,,,,,,,,,,,,,
100528,47,,Cơ sở khác (không bao gồm YT tư nhân),Cơ sở khác (không bao gồm YT tư nhân),,,,,,,,,,,,,,,,,,,,
